<?xml version="1.0" encoding="UTF-8"?>
<gpx creator="StravaGPX" version="1.1" xmlns="http://www.topografix.com/GPX/1/1" xmlns:xsi="http://www.w3.org/2001/XMLSchema-instance" xsi:schemaLocation="http://www.topografix.com/GPX/1/1 http://www.topografix.com/GPX/1/1/gpx.xsd">
 <metadata>
  <name>14 2000 section 3V2</name>
  <author>
   <name>Emilien Marion</name>
   <link href="https://www.strava.com/athletes/79224240"/>
  </author>
  <copyright author="OpenStreetMap contributors">
   <year>2020</year>
   <license>https://www.openstreetmap.org/copyright</license>
  </copyright>
  <link href="https://www.strava.com/routes/3492913473701031740"/>
 </metadata>
 <trk>
  <name>14 2000 section 3V2</name>
  <link href="https://www.strava.com/routes/3492913473701031740"/>
  <type>running</type>
  <trkseg>
   <trkpt lat="45.68175" lon="6.2342200000000005">
    <ele>1804.7400000000002</ele>
   </trkpt>
   <trkpt lat="45.681540000000005" lon="6.23406">
    <ele>1795.47</ele>
   </trkpt>
   <trkpt lat="45.68139" lon="6.23413">
    <ele>1783.7800000000002</ele>
   </trkpt>
   <trkpt lat="45.68117" lon="6.2344800000000005">
    <ele>1772.5000000000002</ele>
   </trkpt>
   <trkpt lat="45.68095" lon="6.234680000000001">
    <ele>1762.76</ele>
   </trkpt>
   <trkpt lat="45.68074000000001" lon="6.23514">
    <ele>1752.3200000000002</ele>
   </trkpt>
   <trkpt lat="45.680710000000005" lon="6.2354">
    <ele>1748.93</ele>
   </trkpt>
   <trkpt lat="45.680550000000004" lon="6.2353000000000005">
    <ele>1746.67</ele>
   </trkpt>
   <trkpt lat="45.68036" lon="6.235430000000001">
    <ele>1742.8400000000001</ele>
   </trkpt>
   <trkpt lat="45.680150000000005" lon="6.23531">
    <ele>1736.3600000000001</ele>
   </trkpt>
   <trkpt lat="45.68007" lon="6.235360000000001">
    <ele>1733.5500000000002</ele>
   </trkpt>
   <trkpt lat="45.67951" lon="6.23507">
    <ele>1736.46</ele>
   </trkpt>
   <trkpt lat="45.679230000000004" lon="6.234780000000001">
    <ele>1744.65</ele>
   </trkpt>
   <trkpt lat="45.67887" lon="6.23446">
    <ele>1753.88</ele>
   </trkpt>
   <trkpt lat="45.678140000000006" lon="6.234350000000001">
    <ele>1756.3300000000002</ele>
   </trkpt>
   <trkpt lat="45.67795" lon="6.234140000000001">
    <ele>1756.49</ele>
   </trkpt>
   <trkpt lat="45.67763" lon="6.23383">
    <ele>1763.5</ele>
   </trkpt>
   <trkpt lat="45.67763" lon="6.233670000000001">
    <ele>1764.01</ele>
   </trkpt>
   <trkpt lat="45.677550000000004" lon="6.23359">
    <ele>1763.45</ele>
   </trkpt>
   <trkpt lat="45.677510000000005" lon="6.23338">
    <ele>1762.55</ele>
   </trkpt>
   <trkpt lat="45.677400000000006" lon="6.23338">
    <ele>1762.3300000000002</ele>
   </trkpt>
   <trkpt lat="45.6773" lon="6.233280000000001">
    <ele>1762.4400000000003</ele>
   </trkpt>
   <trkpt lat="45.67727000000001" lon="6.2332">
    <ele>1762.8400000000001</ele>
   </trkpt>
   <trkpt lat="45.67719" lon="6.233110000000001">
    <ele>1763.71</ele>
   </trkpt>
   <trkpt lat="45.67707" lon="6.23289">
    <ele>1766.7</ele>
   </trkpt>
   <trkpt lat="45.67699" lon="6.2328">
    <ele>1769.9300000000003</ele>
   </trkpt>
   <trkpt lat="45.676970000000004" lon="6.23273">
    <ele>1771.23</ele>
   </trkpt>
   <trkpt lat="45.67683" lon="6.232600000000001">
    <ele>1776.22</ele>
   </trkpt>
   <trkpt lat="45.676730000000006" lon="6.23244">
    <ele>1784.28</ele>
   </trkpt>
   <trkpt lat="45.676520000000004" lon="6.23219">
    <ele>1794.3300000000002</ele>
   </trkpt>
   <trkpt lat="45.6764" lon="6.232080000000001">
    <ele>1800.3700000000001</ele>
   </trkpt>
   <trkpt lat="45.676050000000004" lon="6.231610000000001">
    <ele>1807.39</ele>
   </trkpt>
   <trkpt lat="45.67575" lon="6.231310000000001">
    <ele>1815.7900000000002</ele>
   </trkpt>
   <trkpt lat="45.67569" lon="6.231140000000001">
    <ele>1816.7700000000002</ele>
   </trkpt>
   <trkpt lat="45.675610000000006" lon="6.23099">
    <ele>1818.63</ele>
   </trkpt>
   <trkpt lat="45.675520000000006" lon="6.230980000000001">
    <ele>1819.8600000000001</ele>
   </trkpt>
   <trkpt lat="45.67535" lon="6.23071">
    <ele>1824.14</ele>
   </trkpt>
   <trkpt lat="45.67528" lon="6.23066">
    <ele>1828.4900000000002</ele>
   </trkpt>
   <trkpt lat="45.67519" lon="6.230480000000001">
    <ele>1830.81</ele>
   </trkpt>
   <trkpt lat="45.67515" lon="6.230270000000001">
    <ele>1834.7600000000002</ele>
   </trkpt>
   <trkpt lat="45.67503000000001" lon="6.230010000000001">
    <ele>1842.96</ele>
   </trkpt>
   <trkpt lat="45.67503000000001" lon="6.2299500000000005">
    <ele>1842.96</ele>
   </trkpt>
   <trkpt lat="45.67494000000001" lon="6.2298100000000005">
    <ele>1852.64</ele>
   </trkpt>
   <trkpt lat="45.674890000000005" lon="6.229640000000001">
    <ele>1852.64</ele>
   </trkpt>
   <trkpt lat="45.67481" lon="6.229500000000001">
    <ele>1862.9400000000003</ele>
   </trkpt>
   <trkpt lat="45.67457" lon="6.229260000000001">
    <ele>1874.2600000000002</ele>
   </trkpt>
   <trkpt lat="45.674420000000005" lon="6.22918">
    <ele>1879.45</ele>
   </trkpt>
   <trkpt lat="45.67437" lon="6.22918">
    <ele>1879.9200000000003</ele>
   </trkpt>
   <trkpt lat="45.67412" lon="6.228960000000001">
    <ele>1878.3600000000001</ele>
   </trkpt>
   <trkpt lat="45.67400000000001" lon="6.228650000000001">
    <ele>1878.1000000000001</ele>
   </trkpt>
   <trkpt lat="45.67401" lon="6.22857">
    <ele>1878.2</ele>
   </trkpt>
   <trkpt lat="45.67398" lon="6.22843">
    <ele>1878.5</ele>
   </trkpt>
   <trkpt lat="45.67392" lon="6.2283100000000005">
    <ele>1878.5900000000001</ele>
   </trkpt>
   <trkpt lat="45.67376" lon="6.228160000000001">
    <ele>1877.8000000000002</ele>
   </trkpt>
   <trkpt lat="45.67363" lon="6.228070000000001">
    <ele>1877.69</ele>
   </trkpt>
   <trkpt lat="45.673500000000004" lon="6.2280500000000005">
    <ele>1877.4400000000003</ele>
   </trkpt>
   <trkpt lat="45.67345" lon="6.22806">
    <ele>1877.3200000000002</ele>
   </trkpt>
   <trkpt lat="45.6734" lon="6.228020000000001">
    <ele>1876.96</ele>
   </trkpt>
   <trkpt lat="45.673230000000004" lon="6.227970000000001">
    <ele>1876.3600000000001</ele>
   </trkpt>
   <trkpt lat="45.67318" lon="6.2279100000000005">
    <ele>1876.4</ele>
   </trkpt>
   <trkpt lat="45.673030000000004" lon="6.22782">
    <ele>1877.89</ele>
   </trkpt>
   <trkpt lat="45.67297000000001" lon="6.22782">
    <ele>1877.8600000000001</ele>
   </trkpt>
   <trkpt lat="45.67287" lon="6.227740000000001">
    <ele>1876.9</ele>
   </trkpt>
   <trkpt lat="45.672850000000004" lon="6.22763">
    <ele>1874.5900000000001</ele>
   </trkpt>
   <trkpt lat="45.67278" lon="6.227530000000001">
    <ele>1873.8500000000001</ele>
   </trkpt>
   <trkpt lat="45.67269" lon="6.22733">
    <ele>1871.5300000000002</ele>
   </trkpt>
   <trkpt lat="45.67264" lon="6.227270000000001">
    <ele>1870.92</ele>
   </trkpt>
   <trkpt lat="45.67259000000001" lon="6.227040000000001">
    <ele>1870.7900000000002</ele>
   </trkpt>
   <trkpt lat="45.67253" lon="6.226960000000001">
    <ele>1870.75</ele>
   </trkpt>
   <trkpt lat="45.672450000000005" lon="6.22679">
    <ele>1870.3700000000001</ele>
   </trkpt>
   <trkpt lat="45.672360000000005" lon="6.22653">
    <ele>1868.6200000000001</ele>
   </trkpt>
   <trkpt lat="45.67233" lon="6.22649">
    <ele>1868.27</ele>
   </trkpt>
   <trkpt lat="45.67230000000001" lon="6.22634">
    <ele>1867.8300000000002</ele>
   </trkpt>
   <trkpt lat="45.67217" lon="6.22606">
    <ele>1867.7100000000003</ele>
   </trkpt>
   <trkpt lat="45.67208" lon="6.2259">
    <ele>1866.9</ele>
   </trkpt>
   <trkpt lat="45.671910000000004" lon="6.22573">
    <ele>1863.93</ele>
   </trkpt>
   <trkpt lat="45.67174000000001" lon="6.22562">
    <ele>1861.32</ele>
   </trkpt>
   <trkpt lat="45.671600000000005" lon="6.225580000000001">
    <ele>1859.49</ele>
   </trkpt>
   <trkpt lat="45.671510000000005" lon="6.225530000000001">
    <ele>1858.0100000000002</ele>
   </trkpt>
   <trkpt lat="45.67132" lon="6.225460000000001">
    <ele>1855.3600000000001</ele>
   </trkpt>
   <trkpt lat="45.671200000000006" lon="6.22534">
    <ele>1857.7500000000002</ele>
   </trkpt>
   <trkpt lat="45.67108" lon="6.225180000000001">
    <ele>1861.3600000000001</ele>
   </trkpt>
   <trkpt lat="45.67074" lon="6.22491">
    <ele>1877.8600000000001</ele>
   </trkpt>
   <trkpt lat="45.67043" lon="6.22475">
    <ele>1887.16</ele>
   </trkpt>
   <trkpt lat="45.67025" lon="6.224620000000001">
    <ele>1892.44</ele>
   </trkpt>
   <trkpt lat="45.67018" lon="6.22463">
    <ele>1893.4700000000003</ele>
   </trkpt>
   <trkpt lat="45.67002" lon="6.2245800000000004">
    <ele>1896.77</ele>
   </trkpt>
   <trkpt lat="45.669850000000004" lon="6.2246500000000005">
    <ele>1898.33</ele>
   </trkpt>
   <trkpt lat="45.66967" lon="6.2245800000000004">
    <ele>1900.0400000000002</ele>
   </trkpt>
   <trkpt lat="45.669630000000005" lon="6.22454">
    <ele>1902.98</ele>
   </trkpt>
   <trkpt lat="45.66957" lon="6.22456">
    <ele>1902.98</ele>
   </trkpt>
   <trkpt lat="45.66912000000001" lon="6.22451">
    <ele>1912.3300000000002</ele>
   </trkpt>
   <trkpt lat="45.668780000000005" lon="6.224500000000001">
    <ele>1922.1000000000001</ele>
   </trkpt>
   <trkpt lat="45.668530000000004" lon="6.224550000000001">
    <ele>1933.4700000000003</ele>
   </trkpt>
   <trkpt lat="45.668330000000005" lon="6.22463">
    <ele>1940.39</ele>
   </trkpt>
   <trkpt lat="45.66819" lon="6.22477">
    <ele>1943.78</ele>
   </trkpt>
   <trkpt lat="45.66816" lon="6.22484">
    <ele>1951.0900000000001</ele>
   </trkpt>
   <trkpt lat="45.66808" lon="6.22473">
    <ele>1952.8500000000001</ele>
   </trkpt>
   <trkpt lat="45.667950000000005" lon="6.22444">
    <ele>1960.5800000000002</ele>
   </trkpt>
   <trkpt lat="45.66787" lon="6.22437">
    <ele>1967.0100000000002</ele>
   </trkpt>
   <trkpt lat="45.667770000000004" lon="6.22421">
    <ele>1970.0400000000002</ele>
   </trkpt>
   <trkpt lat="45.667640000000006" lon="6.22409">
    <ele>1974.13</ele>
   </trkpt>
   <trkpt lat="45.66761" lon="6.224030000000001">
    <ele>1975.5500000000002</ele>
   </trkpt>
   <trkpt lat="45.66761" lon="6.2239700000000004">
    <ele>1975.5500000000002</ele>
   </trkpt>
   <trkpt lat="45.667550000000006" lon="6.22398">
    <ele>1981.4900000000002</ele>
   </trkpt>
   <trkpt lat="45.667500000000004" lon="6.22395">
    <ele>1981.4900000000002</ele>
   </trkpt>
   <trkpt lat="45.66754" lon="6.22386">
    <ele>1981.4900000000002</ele>
   </trkpt>
   <trkpt lat="45.667500000000004" lon="6.223730000000001">
    <ele>1978.0100000000002</ele>
   </trkpt>
   <trkpt lat="45.66754" lon="6.2237100000000005">
    <ele>1978.0100000000002</ele>
   </trkpt>
   <trkpt lat="45.66761" lon="6.22376">
    <ele>1975.68</ele>
   </trkpt>
   <trkpt lat="45.66776" lon="6.22358">
    <ele>1971.7900000000002</ele>
   </trkpt>
   <trkpt lat="45.66787" lon="6.223540000000001">
    <ele>1969.5900000000001</ele>
   </trkpt>
   <trkpt lat="45.66792" lon="6.223540000000001">
    <ele>1968.97</ele>
   </trkpt>
   <trkpt lat="45.66807000000001" lon="6.22329">
    <ele>1967.24</ele>
   </trkpt>
   <trkpt lat="45.6681" lon="6.22329">
    <ele>1967.24</ele>
   </trkpt>
   <trkpt lat="45.66809000000001" lon="6.223230000000001">
    <ele>1967.0600000000002</ele>
   </trkpt>
   <trkpt lat="45.66812" lon="6.223210000000001">
    <ele>1967.0600000000002</ele>
   </trkpt>
   <trkpt lat="45.668130000000005" lon="6.22311">
    <ele>1966.68</ele>
   </trkpt>
   <trkpt lat="45.66814" lon="6.22311">
    <ele>1966.68</ele>
   </trkpt>
   <trkpt lat="45.66812" lon="6.22311">
    <ele>1966.15</ele>
   </trkpt>
   <trkpt lat="45.66819" lon="6.223120000000001">
    <ele>1962.0700000000002</ele>
   </trkpt>
   <trkpt lat="45.668330000000005" lon="6.22322">
    <ele>1960.0700000000002</ele>
   </trkpt>
   <trkpt lat="45.66825" lon="6.22311">
    <ele>1964.7900000000002</ele>
   </trkpt>
   <trkpt lat="45.66823" lon="6.223140000000001">
    <ele>1965.6200000000001</ele>
   </trkpt>
   <trkpt lat="45.668130000000005" lon="6.22311">
    <ele>1966.32</ele>
   </trkpt>
   <trkpt lat="45.66812" lon="6.223210000000001">
    <ele>1966.38</ele>
   </trkpt>
   <trkpt lat="45.66809000000001" lon="6.223230000000001">
    <ele>1966.39</ele>
   </trkpt>
   <trkpt lat="45.6681" lon="6.22329">
    <ele>1966.39</ele>
   </trkpt>
   <trkpt lat="45.66807000000001" lon="6.22329">
    <ele>1966.46</ele>
   </trkpt>
   <trkpt lat="45.66792" lon="6.223540000000001">
    <ele>1968.26</ele>
   </trkpt>
   <trkpt lat="45.66787" lon="6.223540000000001">
    <ele>1969.4000000000003</ele>
   </trkpt>
   <trkpt lat="45.66776" lon="6.22358">
    <ele>1970.8700000000001</ele>
   </trkpt>
   <trkpt lat="45.66761" lon="6.22376">
    <ele>1973.24</ele>
   </trkpt>
   <trkpt lat="45.66754" lon="6.2237100000000005">
    <ele>1975.14</ele>
   </trkpt>
   <trkpt lat="45.667500000000004" lon="6.223730000000001">
    <ele>1975.14</ele>
   </trkpt>
   <trkpt lat="45.66754" lon="6.22386">
    <ele>1982.5100000000002</ele>
   </trkpt>
   <trkpt lat="45.667460000000005" lon="6.22405">
    <ele>1985.5000000000002</ele>
   </trkpt>
   <trkpt lat="45.667460000000005" lon="6.22409">
    <ele>1985.5000000000002</ele>
   </trkpt>
   <trkpt lat="45.667410000000004" lon="6.224100000000001">
    <ele>1986.8500000000001</ele>
   </trkpt>
   <trkpt lat="45.667410000000004" lon="6.224130000000001">
    <ele>1986.8500000000001</ele>
   </trkpt>
   <trkpt lat="45.66738" lon="6.224150000000001">
    <ele>1989.7900000000002</ele>
   </trkpt>
   <trkpt lat="45.66738" lon="6.224200000000001">
    <ele>1989.7900000000002</ele>
   </trkpt>
   <trkpt lat="45.66725" lon="6.22414">
    <ele>1994.5500000000002</ele>
   </trkpt>
   <trkpt lat="45.667260000000006" lon="6.22416">
    <ele>1996.3700000000001</ele>
   </trkpt>
   <trkpt lat="45.66724000000001" lon="6.2241800000000005">
    <ele>1996.3700000000001</ele>
   </trkpt>
   <trkpt lat="45.66727" lon="6.22426">
    <ele>1998.3300000000002</ele>
   </trkpt>
   <trkpt lat="45.66724000000001" lon="6.22426">
    <ele>1998.3300000000002</ele>
   </trkpt>
   <trkpt lat="45.66723" lon="6.22433">
    <ele>2006.73</ele>
   </trkpt>
   <trkpt lat="45.6672" lon="6.224360000000001">
    <ele>2006.73</ele>
   </trkpt>
   <trkpt lat="45.6672" lon="6.2244">
    <ele>2006.73</ele>
   </trkpt>
   <trkpt lat="45.667170000000006" lon="6.224430000000001">
    <ele>2006.73</ele>
   </trkpt>
   <trkpt lat="45.667170000000006" lon="6.22449">
    <ele>2006.73</ele>
   </trkpt>
   <trkpt lat="45.667120000000004" lon="6.224570000000001">
    <ele>2014.6800000000003</ele>
   </trkpt>
   <trkpt lat="45.66713" lon="6.22459">
    <ele>2014.6800000000003</ele>
   </trkpt>
   <trkpt lat="45.667100000000005" lon="6.224670000000001">
    <ele>2014.6800000000003</ele>
   </trkpt>
   <trkpt lat="45.66711" lon="6.224690000000001">
    <ele>2014.6800000000003</ele>
   </trkpt>
   <trkpt lat="45.667" lon="6.224950000000001">
    <ele>2029.7800000000002</ele>
   </trkpt>
   <trkpt lat="45.667030000000004" lon="6.22501">
    <ele>2029.7800000000002</ele>
   </trkpt>
   <trkpt lat="45.667010000000005" lon="6.22503">
    <ele>2031.7700000000002</ele>
   </trkpt>
   <trkpt lat="45.66702" lon="6.22512">
    <ele>2033.5800000000002</ele>
   </trkpt>
   <trkpt lat="45.667" lon="6.22512">
    <ele>2035.2200000000003</ele>
   </trkpt>
   <trkpt lat="45.66702" lon="6.22522">
    <ele>2036.7100000000003</ele>
   </trkpt>
   <trkpt lat="45.666990000000006" lon="6.225250000000001">
    <ele>2013.5</ele>
   </trkpt>
   <trkpt lat="45.66698" lon="6.2254000000000005">
    <ele>2040.28</ele>
   </trkpt>
   <trkpt lat="45.666970000000006" lon="6.225370000000001">
    <ele>2040.28</ele>
   </trkpt>
   <trkpt lat="45.667010000000005" lon="6.2253300000000005">
    <ele>2039.2700000000002</ele>
   </trkpt>
   <trkpt lat="45.666990000000006" lon="6.225250000000001">
    <ele>2036.7100000000003</ele>
   </trkpt>
   <trkpt lat="45.66702" lon="6.22522">
    <ele>2036.7100000000003</ele>
   </trkpt>
   <trkpt lat="45.667" lon="6.22512">
    <ele>2033.5800000000002</ele>
   </trkpt>
   <trkpt lat="45.66702" lon="6.22512">
    <ele>2031.7700000000002</ele>
   </trkpt>
   <trkpt lat="45.667010000000005" lon="6.22503">
    <ele>2029.7800000000002</ele>
   </trkpt>
   <trkpt lat="45.667030000000004" lon="6.22501">
    <ele>2029.7800000000002</ele>
   </trkpt>
   <trkpt lat="45.667" lon="6.224950000000001">
    <ele>2023.1600000000003</ele>
   </trkpt>
   <trkpt lat="45.66711" lon="6.224690000000001">
    <ele>2014.6800000000003</ele>
   </trkpt>
   <trkpt lat="45.667100000000005" lon="6.224670000000001">
    <ele>2014.6800000000003</ele>
   </trkpt>
   <trkpt lat="45.66713" lon="6.22459">
    <ele>2014.6800000000003</ele>
   </trkpt>
   <trkpt lat="45.667120000000004" lon="6.224570000000001">
    <ele>2014.6800000000003</ele>
   </trkpt>
   <trkpt lat="45.667170000000006" lon="6.22449">
    <ele>2006.73</ele>
   </trkpt>
   <trkpt lat="45.667170000000006" lon="6.224430000000001">
    <ele>2006.73</ele>
   </trkpt>
   <trkpt lat="45.6672" lon="6.2244">
    <ele>2006.73</ele>
   </trkpt>
   <trkpt lat="45.6672" lon="6.224360000000001">
    <ele>2006.73</ele>
   </trkpt>
   <trkpt lat="45.66723" lon="6.22433">
    <ele>1998.3300000000002</ele>
   </trkpt>
   <trkpt lat="45.66724000000001" lon="6.22426">
    <ele>1998.3300000000002</ele>
   </trkpt>
   <trkpt lat="45.66727" lon="6.22426">
    <ele>1998.3300000000002</ele>
   </trkpt>
   <trkpt lat="45.66724000000001" lon="6.2241800000000005">
    <ele>1994.5500000000002</ele>
   </trkpt>
   <trkpt lat="45.667260000000006" lon="6.22416">
    <ele>1994.5500000000002</ele>
   </trkpt>
   <trkpt lat="45.66725" lon="6.22414">
    <ele>1992.88</ele>
   </trkpt>
   <trkpt lat="45.66738" lon="6.224200000000001">
    <ele>1989.7900000000002</ele>
   </trkpt>
   <trkpt lat="45.66738" lon="6.224150000000001">
    <ele>1986.8500000000001</ele>
   </trkpt>
   <trkpt lat="45.667410000000004" lon="6.224130000000001">
    <ele>1986.8500000000001</ele>
   </trkpt>
   <trkpt lat="45.667410000000004" lon="6.224100000000001">
    <ele>1985.5000000000002</ele>
   </trkpt>
   <trkpt lat="45.667460000000005" lon="6.22409">
    <ele>1984.32</ele>
   </trkpt>
   <trkpt lat="45.667460000000005" lon="6.22405">
    <ele>1984.32</ele>
   </trkpt>
   <trkpt lat="45.667500000000004" lon="6.22395">
    <ele>1982.5100000000002</ele>
   </trkpt>
   <trkpt lat="45.667550000000006" lon="6.22398">
    <ele>1979.3</ele>
   </trkpt>
   <trkpt lat="45.66761" lon="6.2239700000000004">
    <ele>1977.7600000000002</ele>
   </trkpt>
   <trkpt lat="45.66761" lon="6.224030000000001">
    <ele>1976.29</ele>
   </trkpt>
   <trkpt lat="45.667640000000006" lon="6.22409">
    <ele>1976.29</ele>
   </trkpt>
   <trkpt lat="45.667770000000004" lon="6.22421">
    <ele>1970.77</ele>
   </trkpt>
   <trkpt lat="45.66787" lon="6.22437">
    <ele>1963.0800000000002</ele>
   </trkpt>
   <trkpt lat="45.667950000000005" lon="6.22444">
    <ele>1963.0800000000002</ele>
   </trkpt>
   <trkpt lat="45.66808" lon="6.22473">
    <ele>1954.0600000000002</ele>
   </trkpt>
   <trkpt lat="45.668290000000006" lon="6.224990000000001">
    <ele>1943.78</ele>
   </trkpt>
   <trkpt lat="45.668380000000006" lon="6.22503">
    <ele>1938.05</ele>
   </trkpt>
   <trkpt lat="45.66843" lon="6.22515">
    <ele>1933.13</ele>
   </trkpt>
   <trkpt lat="45.668530000000004" lon="6.225090000000001">
    <ele>1929.18</ele>
   </trkpt>
   <trkpt lat="45.66863" lon="6.225110000000001">
    <ele>1924.5200000000002</ele>
   </trkpt>
   <trkpt lat="45.66872" lon="6.2250700000000005">
    <ele>1920.9900000000002</ele>
   </trkpt>
   <trkpt lat="45.66881" lon="6.225130000000001">
    <ele>1915.38</ele>
   </trkpt>
   <trkpt lat="45.668870000000005" lon="6.225250000000001">
    <ele>1909.16</ele>
   </trkpt>
   <trkpt lat="45.668960000000006" lon="6.22527">
    <ele>1904.5900000000001</ele>
   </trkpt>
   <trkpt lat="45.669070000000005" lon="6.2252600000000005">
    <ele>1899.76</ele>
   </trkpt>
   <trkpt lat="45.669250000000005" lon="6.2253300000000005">
    <ele>1891.3000000000002</ele>
   </trkpt>
   <trkpt lat="45.66937" lon="6.22527">
    <ele>1889.21</ele>
   </trkpt>
   <trkpt lat="45.669470000000004" lon="6.225280000000001">
    <ele>1886.57</ele>
   </trkpt>
   <trkpt lat="45.66957" lon="6.225320000000001">
    <ele>1882.3500000000001</ele>
   </trkpt>
   <trkpt lat="45.669650000000004" lon="6.225560000000001">
    <ele>1869.73</ele>
   </trkpt>
   <trkpt lat="45.66977000000001" lon="6.2256100000000005">
    <ele>1865.0300000000002</ele>
   </trkpt>
   <trkpt lat="45.66995000000001" lon="6.22588">
    <ele>1849.88</ele>
   </trkpt>
   <trkpt lat="45.67" lon="6.226000000000001">
    <ele>1843.08</ele>
   </trkpt>
   <trkpt lat="45.670080000000006" lon="6.226070000000001">
    <ele>1840.0700000000002</ele>
   </trkpt>
   <trkpt lat="45.670320000000004" lon="6.22609">
    <ele>1834.71</ele>
   </trkpt>
   <trkpt lat="45.67042000000001" lon="6.2260800000000005">
    <ele>1834.4300000000003</ele>
   </trkpt>
   <trkpt lat="45.67051000000001" lon="6.226050000000001">
    <ele>1836.6200000000001</ele>
   </trkpt>
   <trkpt lat="45.67071000000001" lon="6.22613">
    <ele>1834.7000000000003</ele>
   </trkpt>
   <trkpt lat="45.670820000000006" lon="6.2261500000000005">
    <ele>1836.42</ele>
   </trkpt>
   <trkpt lat="45.67108" lon="6.22644">
    <ele>1827.88</ele>
   </trkpt>
   <trkpt lat="45.67112" lon="6.226730000000001">
    <ele>1816.1200000000001</ele>
   </trkpt>
   <trkpt lat="45.67118000000001" lon="6.22686">
    <ele>1813.6000000000001</ele>
   </trkpt>
   <trkpt lat="45.671260000000004" lon="6.226940000000001">
    <ele>1814.07</ele>
   </trkpt>
   <trkpt lat="45.671350000000004" lon="6.227080000000001">
    <ele>1813.73</ele>
   </trkpt>
   <trkpt lat="45.671330000000005" lon="6.22728">
    <ele>1806.0200000000002</ele>
   </trkpt>
   <trkpt lat="45.671350000000004" lon="6.22742">
    <ele>1804.5000000000002</ele>
   </trkpt>
   <trkpt lat="45.67132" lon="6.22771">
    <ele>1797.3700000000001</ele>
   </trkpt>
   <trkpt lat="45.67128" lon="6.227830000000001">
    <ele>1794.48</ele>
   </trkpt>
   <trkpt lat="45.67139" lon="6.228210000000001">
    <ele>1790.91</ele>
   </trkpt>
   <trkpt lat="45.67141" lon="6.22834">
    <ele>1789.4</ele>
   </trkpt>
   <trkpt lat="45.671490000000006" lon="6.2284500000000005">
    <ele>1788.66</ele>
   </trkpt>
   <trkpt lat="45.6715" lon="6.228580000000001">
    <ele>1786.39</ele>
   </trkpt>
   <trkpt lat="45.67155" lon="6.22869">
    <ele>1785.0500000000002</ele>
   </trkpt>
   <trkpt lat="45.67161" lon="6.228980000000001">
    <ele>1779.21</ele>
   </trkpt>
   <trkpt lat="45.67152" lon="6.229260000000001">
    <ele>1764.3300000000002</ele>
   </trkpt>
   <trkpt lat="45.67154" lon="6.229400000000001">
    <ele>1759.6100000000001</ele>
   </trkpt>
   <trkpt lat="45.67143" lon="6.2298100000000005">
    <ele>1739.2200000000003</ele>
   </trkpt>
   <trkpt lat="45.671440000000004" lon="6.22996">
    <ele>1735.1000000000001</ele>
   </trkpt>
   <trkpt lat="45.671260000000004" lon="6.2304900000000005">
    <ele>1706.3100000000002</ele>
   </trkpt>
   <trkpt lat="45.67127000000001" lon="6.230630000000001">
    <ele>1700.6200000000001</ele>
   </trkpt>
   <trkpt lat="45.671170000000004" lon="6.2309">
    <ele>1686.6000000000001</ele>
   </trkpt>
   <trkpt lat="45.671040000000005" lon="6.23111">
    <ele>1674.89</ele>
   </trkpt>
   <trkpt lat="45.67092" lon="6.2313600000000005">
    <ele>1661.41</ele>
   </trkpt>
   <trkpt lat="45.67087" lon="6.2315000000000005">
    <ele>1656.5700000000002</ele>
   </trkpt>
   <trkpt lat="45.670840000000005" lon="6.23165">
    <ele>1650.0100000000002</ele>
   </trkpt>
   <trkpt lat="45.67085" lon="6.23179">
    <ele>1646.21</ele>
   </trkpt>
   <trkpt lat="45.67080000000001" lon="6.23209">
    <ele>1636.5</ele>
   </trkpt>
   <trkpt lat="45.67085" lon="6.232740000000001">
    <ele>1621.0900000000001</ele>
   </trkpt>
   <trkpt lat="45.670840000000005" lon="6.232900000000001">
    <ele>1617.63</ele>
   </trkpt>
   <trkpt lat="45.67089000000001" lon="6.233210000000001">
    <ele>1613.4700000000003</ele>
   </trkpt>
   <trkpt lat="45.67092" lon="6.23352">
    <ele>1607.25</ele>
   </trkpt>
   <trkpt lat="45.670910000000006" lon="6.233790000000001">
    <ele>1602.67</ele>
   </trkpt>
   <trkpt lat="45.67103" lon="6.234050000000001">
    <ele>1599.19</ele>
   </trkpt>
   <trkpt lat="45.67119" lon="6.234330000000001">
    <ele>1597.69</ele>
   </trkpt>
   <trkpt lat="45.671240000000004" lon="6.2344800000000005">
    <ele>1594.48</ele>
   </trkpt>
   <trkpt lat="45.671260000000004" lon="6.234640000000001">
    <ele>1592.2500000000002</ele>
   </trkpt>
   <trkpt lat="45.671240000000004" lon="6.23477">
    <ele>1588.47</ele>
   </trkpt>
   <trkpt lat="45.6713" lon="6.23495">
    <ele>1585.5800000000002</ele>
   </trkpt>
   <trkpt lat="45.67148" lon="6.23519">
    <ele>1583.5100000000002</ele>
   </trkpt>
   <trkpt lat="45.671690000000005" lon="6.235650000000001">
    <ele>1576.1000000000001</ele>
   </trkpt>
   <trkpt lat="45.67174000000001" lon="6.235830000000001">
    <ele>1572.4600000000003</ele>
   </trkpt>
   <trkpt lat="45.671600000000005" lon="6.236160000000001">
    <ele>1560.46</ele>
   </trkpt>
   <trkpt lat="45.67146" lon="6.23657">
    <ele>1549.29</ele>
   </trkpt>
   <trkpt lat="45.67139" lon="6.23671">
    <ele>1544.65</ele>
   </trkpt>
   <trkpt lat="45.67137" lon="6.2368500000000004">
    <ele>1540.8300000000002</ele>
   </trkpt>
   <trkpt lat="45.671420000000005" lon="6.23704">
    <ele>1537.16</ele>
   </trkpt>
   <trkpt lat="45.67147000000001" lon="6.23716">
    <ele>1534.75</ele>
   </trkpt>
   <trkpt lat="45.67143" lon="6.23742">
    <ele>1528.3600000000001</ele>
   </trkpt>
   <trkpt lat="45.67146" lon="6.237730000000001">
    <ele>1521.12</ele>
   </trkpt>
   <trkpt lat="45.671330000000005" lon="6.237990000000001">
    <ele>1514.21</ele>
   </trkpt>
   <trkpt lat="45.671240000000004" lon="6.23831">
    <ele>1506.3600000000001</ele>
   </trkpt>
   <trkpt lat="45.67121" lon="6.238510000000001">
    <ele>1499.98</ele>
   </trkpt>
   <trkpt lat="45.67125" lon="6.238810000000001">
    <ele>1493.5200000000002</ele>
   </trkpt>
   <trkpt lat="45.67114" lon="6.23885">
    <ele>1492.6200000000001</ele>
   </trkpt>
   <trkpt lat="45.67107" lon="6.23892">
    <ele>1491.94</ele>
   </trkpt>
   <trkpt lat="45.67092" lon="6.239230000000001">
    <ele>1491.0</ele>
   </trkpt>
   <trkpt lat="45.67081" lon="6.23953">
    <ele>1489.8</ele>
   </trkpt>
   <trkpt lat="45.670820000000006" lon="6.24005">
    <ele>1487.6200000000001</ele>
   </trkpt>
   <trkpt lat="45.670790000000004" lon="6.240240000000001">
    <ele>1486.6200000000001</ele>
   </trkpt>
   <trkpt lat="45.67056" lon="6.240710000000001">
    <ele>1482.8700000000001</ele>
   </trkpt>
   <trkpt lat="45.670500000000004" lon="6.24087">
    <ele>1479.63</ele>
   </trkpt>
   <trkpt lat="45.67045" lon="6.24091">
    <ele>1479.63</ele>
   </trkpt>
   <trkpt lat="45.67038" lon="6.2409300000000005">
    <ele>1477.09</ele>
   </trkpt>
   <trkpt lat="45.67027" lon="6.2409300000000005">
    <ele>1477.09</ele>
   </trkpt>
   <trkpt lat="45.67013" lon="6.2408600000000005">
    <ele>1473.5</ele>
   </trkpt>
   <trkpt lat="45.67007" lon="6.24087">
    <ele>1471.7600000000002</ele>
   </trkpt>
   <trkpt lat="45.67005" lon="6.240920000000001">
    <ele>1470.96</ele>
   </trkpt>
   <trkpt lat="45.670210000000004" lon="6.24124">
    <ele>1466.69</ele>
   </trkpt>
   <trkpt lat="45.67022" lon="6.241300000000001">
    <ele>1465.92</ele>
   </trkpt>
   <trkpt lat="45.670190000000005" lon="6.241370000000001">
    <ele>1464.9500000000003</ele>
   </trkpt>
   <trkpt lat="45.67018" lon="6.241350000000001">
    <ele>1465.77</ele>
   </trkpt>
   <trkpt lat="45.67016" lon="6.24138">
    <ele>1464.8500000000001</ele>
   </trkpt>
   <trkpt lat="45.670100000000005" lon="6.241370000000001">
    <ele>1464.8500000000001</ele>
   </trkpt>
   <trkpt lat="45.669880000000006" lon="6.241160000000001">
    <ele>1459.03</ele>
   </trkpt>
   <trkpt lat="45.66962" lon="6.241040000000001">
    <ele>1455.45</ele>
   </trkpt>
   <trkpt lat="45.669270000000004" lon="6.240550000000001">
    <ele>1446.64</ele>
   </trkpt>
   <trkpt lat="45.66917" lon="6.24047">
    <ele>1445.17</ele>
   </trkpt>
   <trkpt lat="45.66904" lon="6.24049">
    <ele>1443.14</ele>
   </trkpt>
   <trkpt lat="45.668940000000006" lon="6.2405800000000005">
    <ele>1442.3300000000002</ele>
   </trkpt>
   <trkpt lat="45.66859" lon="6.240970000000001">
    <ele>1438.8400000000001</ele>
   </trkpt>
   <trkpt lat="45.66854000000001" lon="6.24098">
    <ele>1438.23</ele>
   </trkpt>
   <trkpt lat="45.668490000000006" lon="6.24096">
    <ele>1437.54</ele>
   </trkpt>
   <trkpt lat="45.668150000000004" lon="6.240480000000001">
    <ele>1427.51</ele>
   </trkpt>
   <trkpt lat="45.66807000000001" lon="6.240460000000001">
    <ele>1426.0400000000002</ele>
   </trkpt>
   <trkpt lat="45.66801" lon="6.24052">
    <ele>1425.4</ele>
   </trkpt>
   <trkpt lat="45.667910000000006" lon="6.240780000000001">
    <ele>1423.1100000000001</ele>
   </trkpt>
   <trkpt lat="45.66781" lon="6.241160000000001">
    <ele>1421.8500000000001</ele>
   </trkpt>
   <trkpt lat="45.6676" lon="6.2413300000000005">
    <ele>1420.43</ele>
   </trkpt>
   <trkpt lat="45.66749" lon="6.241560000000001">
    <ele>1419.51</ele>
   </trkpt>
   <trkpt lat="45.667370000000005" lon="6.241720000000001">
    <ele>1417.5900000000001</ele>
   </trkpt>
   <trkpt lat="45.66687" lon="6.24195">
    <ele>1407.0800000000002</ele>
   </trkpt>
   <trkpt lat="45.66666" lon="6.241960000000001">
    <ele>1404.88</ele>
   </trkpt>
   <trkpt lat="45.66664" lon="6.242000000000001">
    <ele>1404.29</ele>
   </trkpt>
   <trkpt lat="45.66664" lon="6.242050000000001">
    <ele>1403.75</ele>
   </trkpt>
   <trkpt lat="45.66648000000001" lon="6.24225">
    <ele>1402.3400000000001</ele>
   </trkpt>
   <trkpt lat="45.666380000000004" lon="6.24232">
    <ele>1401.3600000000001</ele>
   </trkpt>
   <trkpt lat="45.66630000000001" lon="6.242310000000001">
    <ele>1399.8400000000001</ele>
   </trkpt>
   <trkpt lat="45.665980000000005" lon="6.242100000000001">
    <ele>1393.8400000000001</ele>
   </trkpt>
   <trkpt lat="45.66583000000001" lon="6.242050000000001">
    <ele>1391.64</ele>
   </trkpt>
   <trkpt lat="45.66557" lon="6.242030000000001">
    <ele>1387.24</ele>
   </trkpt>
   <trkpt lat="45.66499" lon="6.241930000000001">
    <ele>1376.38</ele>
   </trkpt>
   <trkpt lat="45.664770000000004" lon="6.2420100000000005">
    <ele>1371.94</ele>
   </trkpt>
   <trkpt lat="45.664410000000004" lon="6.24199">
    <ele>1366.2500000000002</ele>
   </trkpt>
   <trkpt lat="45.66427" lon="6.24204">
    <ele>1361.9500000000003</ele>
   </trkpt>
   <trkpt lat="45.663990000000005" lon="6.242050000000001">
    <ele>1356.2800000000002</ele>
   </trkpt>
   <trkpt lat="45.66367" lon="6.24223">
    <ele>1348.4900000000002</ele>
   </trkpt>
   <trkpt lat="45.663450000000005" lon="6.242380000000001">
    <ele>1345.23</ele>
   </trkpt>
   <trkpt lat="45.66317" lon="6.24244">
    <ele>1339.76</ele>
   </trkpt>
   <trkpt lat="45.6625" lon="6.2424800000000005">
    <ele>1329.9</ele>
   </trkpt>
   <trkpt lat="45.66216000000001" lon="6.242360000000001">
    <ele>1326.6100000000001</ele>
   </trkpt>
   <trkpt lat="45.661840000000005" lon="6.24218">
    <ele>1324.14</ele>
   </trkpt>
   <trkpt lat="45.66139000022842" lon="6.242009998672307">
    <ele>1319.4800000000002</ele>
   </trkpt>
   <trkpt lat="45.660940000000004" lon="6.241840000000001">
    <ele>1317.68</ele>
   </trkpt>
   <trkpt lat="45.66066000000001" lon="6.241700000000001">
    <ele>1318.18</ele>
   </trkpt>
   <trkpt lat="45.660340000000005" lon="6.24162">
    <ele>1317.56</ele>
   </trkpt>
   <trkpt lat="45.65988" lon="6.24131">
    <ele>1314.8000000000002</ele>
   </trkpt>
   <trkpt lat="45.659650000000006" lon="6.24113">
    <ele>1311.8200000000002</ele>
   </trkpt>
   <trkpt lat="45.659510000000004" lon="6.240950000000001">
    <ele>1308.68</ele>
   </trkpt>
   <trkpt lat="45.65935" lon="6.240850000000001">
    <ele>1306.48</ele>
   </trkpt>
   <trkpt lat="45.659240000000004" lon="6.240710000000001">
    <ele>1305.79</ele>
   </trkpt>
   <trkpt lat="45.659110000000005" lon="6.240640000000001">
    <ele>1305.52</ele>
   </trkpt>
   <trkpt lat="45.65881" lon="6.24056">
    <ele>1302.99</ele>
   </trkpt>
   <trkpt lat="45.65869000000001" lon="6.24059">
    <ele>1299.8100000000002</ele>
   </trkpt>
   <trkpt lat="45.65807" lon="6.24059">
    <ele>1287.7500000000002</ele>
   </trkpt>
   <trkpt lat="45.657880000000006" lon="6.240620000000001">
    <ele>1284.55</ele>
   </trkpt>
   <trkpt lat="45.657230000000006" lon="6.24066">
    <ele>1268.94</ele>
   </trkpt>
   <trkpt lat="45.656780000000005" lon="6.240460000000001">
    <ele>1257.8600000000001</ele>
   </trkpt>
   <trkpt lat="45.65632499984947" lon="6.240374999275342">
    <ele>1249.5800000000002</ele>
   </trkpt>
   <trkpt lat="45.65587000000001" lon="6.240290000000001">
    <ele>1243.1100000000001</ele>
   </trkpt>
   <trkpt lat="45.65572" lon="6.2403900000000005">
    <ele>1240.85</ele>
   </trkpt>
   <trkpt lat="45.65558" lon="6.240410000000001">
    <ele>1238.69</ele>
   </trkpt>
   <trkpt lat="45.655440000000006" lon="6.24047">
    <ele>1234.2300000000002</ele>
   </trkpt>
   <trkpt lat="45.65473" lon="6.241020000000001">
    <ele>1217.68</ele>
   </trkpt>
   <trkpt lat="45.65453" lon="6.241060000000001">
    <ele>1206.1000000000001</ele>
   </trkpt>
   <trkpt lat="45.65401000000001" lon="6.240920000000001">
    <ele>1189.3700000000001</ele>
   </trkpt>
   <trkpt lat="45.653870000000005" lon="6.24091">
    <ele>1185.24</ele>
   </trkpt>
   <trkpt lat="45.65377" lon="6.240760000000001">
    <ele>1180.28</ele>
   </trkpt>
   <trkpt lat="45.653510000000004" lon="6.2407">
    <ele>1175.94</ele>
   </trkpt>
   <trkpt lat="45.653330000000004" lon="6.2408">
    <ele>1169.89</ele>
   </trkpt>
   <trkpt lat="45.65317" lon="6.24073">
    <ele>1165.95</ele>
   </trkpt>
   <trkpt lat="45.65308" lon="6.2407200000000005">
    <ele>1160.0000000000002</ele>
   </trkpt>
   <trkpt lat="45.652890000000006" lon="6.240810000000001">
    <ele>1155.89</ele>
   </trkpt>
   <trkpt lat="45.652770000000004" lon="6.240760000000001">
    <ele>1153.31</ele>
   </trkpt>
   <trkpt lat="45.65261" lon="6.2407900000000005">
    <ele>1147.39</ele>
   </trkpt>
   <trkpt lat="45.65231000000001" lon="6.241060000000001">
    <ele>1141.2600000000002</ele>
   </trkpt>
   <trkpt lat="45.65204000000001" lon="6.24115">
    <ele>1137.63</ele>
   </trkpt>
   <trkpt lat="45.651790000000005" lon="6.241320000000001">
    <ele>1133.54</ele>
   </trkpt>
   <trkpt lat="45.651700000000005" lon="6.2413300000000005">
    <ele>1132.59</ele>
   </trkpt>
   <trkpt lat="45.65149" lon="6.241230000000001">
    <ele>1130.7800000000002</ele>
   </trkpt>
   <trkpt lat="45.651320000000005" lon="6.241110000000001">
    <ele>1129.0800000000002</ele>
   </trkpt>
   <trkpt lat="45.651230000000005" lon="6.24115">
    <ele>1127.91</ele>
   </trkpt>
   <trkpt lat="45.65115" lon="6.241230000000001">
    <ele>1126.43</ele>
   </trkpt>
   <trkpt lat="45.65108" lon="6.24124">
    <ele>1126.43</ele>
   </trkpt>
   <trkpt lat="45.65093" lon="6.24117">
    <ele>1120.7</ele>
   </trkpt>
   <trkpt lat="45.65079" lon="6.2410000000000005">
    <ele>1119.34</ele>
   </trkpt>
   <trkpt lat="45.650670000000005" lon="6.24091">
    <ele>1118.09</ele>
   </trkpt>
   <trkpt lat="45.65052" lon="6.2408600000000005">
    <ele>1117.0</ele>
   </trkpt>
   <trkpt lat="45.650420000000004" lon="6.2408">
    <ele>1116.18</ele>
   </trkpt>
   <trkpt lat="45.650310000000005" lon="6.24082">
    <ele>1115.68</ele>
   </trkpt>
   <trkpt lat="45.650150000000004" lon="6.2409300000000005">
    <ele>1112.3700000000001</ele>
   </trkpt>
   <trkpt lat="45.64985" lon="6.240990000000001">
    <ele>1107.52</ele>
   </trkpt>
   <trkpt lat="45.6497" lon="6.2410000000000005">
    <ele>1105.21</ele>
   </trkpt>
   <trkpt lat="45.649440000000006" lon="6.2407900000000005">
    <ele>1100.56</ele>
   </trkpt>
   <trkpt lat="45.64904000000001" lon="6.24059">
    <ele>1088.66</ele>
   </trkpt>
   <trkpt lat="45.64838" lon="6.2401800000000005">
    <ele>1063.5800000000002</ele>
   </trkpt>
   <trkpt lat="45.647960000000005" lon="6.239870000000001">
    <ele>1051.62</ele>
   </trkpt>
   <trkpt lat="45.647740000000006" lon="6.23981">
    <ele>1047.25</ele>
   </trkpt>
   <trkpt lat="45.64761" lon="6.239800000000001">
    <ele>1044.69</ele>
   </trkpt>
   <trkpt lat="45.647600000000004" lon="6.2395000000000005">
    <ele>1042.44</ele>
   </trkpt>
   <trkpt lat="45.647540000000006" lon="6.239330000000001">
    <ele>1041.18</ele>
   </trkpt>
   <trkpt lat="45.64743000000001" lon="6.2391700000000005">
    <ele>1038.74</ele>
   </trkpt>
   <trkpt lat="45.647330000000004" lon="6.239090000000001">
    <ele>1038.74</ele>
   </trkpt>
   <trkpt lat="45.647180000000006" lon="6.23878">
    <ele>1034.0</ele>
   </trkpt>
   <trkpt lat="45.646910000000005" lon="6.23836">
    <ele>1032.74</ele>
   </trkpt>
   <trkpt lat="45.64679" lon="6.238230000000001">
    <ele>1030.69</ele>
   </trkpt>
   <trkpt lat="45.64663" lon="6.23817">
    <ele>1029.83</ele>
   </trkpt>
   <trkpt lat="45.64640000000001" lon="6.23803">
    <ele>1026.8600000000001</ele>
   </trkpt>
   <trkpt lat="45.64618" lon="6.237830000000001">
    <ele>1023.4300000000001</ele>
   </trkpt>
   <trkpt lat="45.646040000000006" lon="6.237450000000001">
    <ele>1020.11</ele>
   </trkpt>
   <trkpt lat="45.64578" lon="6.23718">
    <ele>1016.6700000000002</ele>
   </trkpt>
   <trkpt lat="45.64575000000001" lon="6.237120000000001">
    <ele>1016.37</ele>
   </trkpt>
  </trkseg>
 </trk>
</gpx>
