<?xml version="1.0" encoding="UTF-8"?>
<gpx creator="StravaGPX" version="1.1" xmlns="http://www.topografix.com/GPX/1/1" xmlns:xsi="http://www.w3.org/2001/XMLSchema-instance" xsi:schemaLocation="http://www.topografix.com/GPX/1/1 http://www.topografix.com/GPX/1/1/gpx.xsd">
 <metadata>
  <name>14 2000 section 5V2</name>
  <author>
   <name>Emilien Marion</name>
   <link href="https://www.strava.com/athletes/79224240"/>
  </author>
  <copyright author="OpenStreetMap contributors">
   <year>2020</year>
   <license>https://www.openstreetmap.org/copyright</license>
  </copyright>
  <link href="https://www.strava.com/routes/3499510918053331328"/>
 </metadata>
 <trk>
  <name>14 2000 section 5V2</name>
  <link href="https://www.strava.com/routes/3499510918053331328"/>
  <type>running</type>
  <trkseg>
   <trkpt lat="45.645610000000005" lon="6.23655">
    <ele>1013.9599999999999</ele>
   </trkpt>
   <trkpt lat="45.64562" lon="6.2361200000000006">
    <ele>1012.5600000000001</ele>
   </trkpt>
   <trkpt lat="45.64553000219176" lon="6.235414999052535">
    <ele>1010.75</ele>
   </trkpt>
   <trkpt lat="45.64544" lon="6.234710000000001">
    <ele>1008.34</ele>
   </trkpt>
   <trkpt lat="45.645340000000004" lon="6.234330000000001">
    <ele>1006.1600000000002</ele>
   </trkpt>
   <trkpt lat="45.64519000000001" lon="6.2336100000000005">
    <ele>1002.8000000000001</ele>
   </trkpt>
   <trkpt lat="45.645070000000004" lon="6.23284">
    <ele>998.5600000000001</ele>
   </trkpt>
   <trkpt lat="45.64504" lon="6.232240000000001">
    <ele>996.0300000000001</ele>
   </trkpt>
   <trkpt lat="45.645050000000005" lon="6.231750000000001">
    <ele>994.7800000000001</ele>
   </trkpt>
   <trkpt lat="45.645140000000005" lon="6.231400000000001">
    <ele>992.6400000000001</ele>
   </trkpt>
   <trkpt lat="45.645210000000006" lon="6.230950000000001">
    <ele>990.6</ele>
   </trkpt>
   <trkpt lat="45.64524" lon="6.230530000000001">
    <ele>985.9200000000001</ele>
   </trkpt>
   <trkpt lat="45.64517" lon="6.22993">
    <ele>982.9700000000001</ele>
   </trkpt>
   <trkpt lat="45.64518" lon="6.22963">
    <ele>979.6500000000001</ele>
   </trkpt>
   <trkpt lat="45.645120000000006" lon="6.229470000000001">
    <ele>978.7800000000001</ele>
   </trkpt>
   <trkpt lat="45.64502" lon="6.2293400000000005">
    <ele>978.5100000000001</ele>
   </trkpt>
   <trkpt lat="45.645" lon="6.22925">
    <ele>977.7300000000001</ele>
   </trkpt>
   <trkpt lat="45.645" lon="6.228980000000001">
    <ele>976.35</ele>
   </trkpt>
   <trkpt lat="45.64493" lon="6.22914">
    <ele>976.4100000000001</ele>
   </trkpt>
   <trkpt lat="45.644870000000004" lon="6.22935">
    <ele>977.59</ele>
   </trkpt>
   <trkpt lat="45.644830000000006" lon="6.2293400000000005">
    <ele>978.0500000000001</ele>
   </trkpt>
   <trkpt lat="45.644800000000004" lon="6.22923">
    <ele>978.57</ele>
   </trkpt>
   <trkpt lat="45.644780000000004" lon="6.228790000000001">
    <ele>983.2700000000001</ele>
   </trkpt>
   <trkpt lat="45.64466" lon="6.228510000000001">
    <ele>985.74</ele>
   </trkpt>
   <trkpt lat="45.644690000000004" lon="6.22827">
    <ele>988.08</ele>
   </trkpt>
   <trkpt lat="45.644650000000006" lon="6.2278400000000005">
    <ele>992.9300000000001</ele>
   </trkpt>
   <trkpt lat="45.64455" lon="6.227670000000001">
    <ele>997.01</ele>
   </trkpt>
   <trkpt lat="45.64446" lon="6.227790000000001">
    <ele>999.9100000000001</ele>
   </trkpt>
   <trkpt lat="45.644210001584426" lon="6.2284050029055695">
    <ele>1014.4699999999999</ele>
   </trkpt>
   <trkpt lat="45.64396000000001" lon="6.22902">
    <ele>1029.92</ele>
   </trkpt>
   <trkpt lat="45.643890000000006" lon="6.22897">
    <ele>1029.92</ele>
   </trkpt>
   <trkpt lat="45.64387000000001" lon="6.2287300000000005">
    <ele>1035.44</ele>
   </trkpt>
   <trkpt lat="45.64358000000001" lon="6.22817">
    <ele>1052.5600000000002</ele>
   </trkpt>
   <trkpt lat="45.643190000000004" lon="6.227290000000001">
    <ele>1071.8500000000001</ele>
   </trkpt>
   <trkpt lat="45.642960002241" lon="6.226564996859982">
    <ele>1092.42</ele>
   </trkpt>
   <trkpt lat="45.64273" lon="6.225840000000001">
    <ele>1107.99</ele>
   </trkpt>
   <trkpt lat="45.642630000000004" lon="6.225670000000001">
    <ele>1112.8600000000001</ele>
   </trkpt>
   <trkpt lat="45.64265" lon="6.22611">
    <ele>1121.6000000000001</ele>
   </trkpt>
   <trkpt lat="45.64257000238231" lon="6.226850001116356">
    <ele>1135.5000000000002</ele>
   </trkpt>
   <trkpt lat="45.64249" lon="6.22759">
    <ele>1145.58</ele>
   </trkpt>
   <trkpt lat="45.642300000000006" lon="6.2282">
    <ele>1161.3300000000002</ele>
   </trkpt>
   <trkpt lat="45.64224" lon="6.2281">
    <ele>1163.43</ele>
   </trkpt>
   <trkpt lat="45.6422" lon="6.22782">
    <ele>1168.3000000000002</ele>
   </trkpt>
   <trkpt lat="45.64219000000001" lon="6.2275100000000005">
    <ele>1174.15</ele>
   </trkpt>
   <trkpt lat="45.64204" lon="6.226990000000001">
    <ele>1182.5</ele>
   </trkpt>
   <trkpt lat="45.64179" lon="6.226470000000001">
    <ele>1196.1200000000001</ele>
   </trkpt>
   <trkpt lat="45.64164" lon="6.2262">
    <ele>1202.18</ele>
   </trkpt>
   <trkpt lat="45.641600000000004" lon="6.22693">
    <ele>1209.16</ele>
   </trkpt>
   <trkpt lat="45.641560000000005" lon="6.226960000000001">
    <ele>1217.13</ele>
   </trkpt>
   <trkpt lat="45.641380000000005" lon="6.22658">
    <ele>1223.0100000000002</ele>
   </trkpt>
   <trkpt lat="45.641010000700156" lon="6.226169997255708">
    <ele>1235.84</ele>
   </trkpt>
   <trkpt lat="45.640640000000005" lon="6.22576">
    <ele>1243.8700000000001</ele>
   </trkpt>
   <trkpt lat="45.640350000000005" lon="6.2252">
    <ele>1233.68</ele>
   </trkpt>
   <trkpt lat="45.64040000000001" lon="6.224920000000001">
    <ele>1230.25</ele>
   </trkpt>
   <trkpt lat="45.640910000000005" lon="6.223960000000001">
    <ele>1223.6100000000001</ele>
   </trkpt>
   <trkpt lat="45.640950000000004" lon="6.223700000000001">
    <ele>1222.99</ele>
   </trkpt>
   <trkpt lat="45.64097" lon="6.223630000000001">
    <ele>1222.8300000000002</ele>
   </trkpt>
   <trkpt lat="45.64094" lon="6.223330000000001">
    <ele>1222.72</ele>
   </trkpt>
   <trkpt lat="45.64065" lon="6.222910000000001">
    <ele>1222.52</ele>
   </trkpt>
   <trkpt lat="45.640530000000005" lon="6.2225">
    <ele>1221.87</ele>
   </trkpt>
   <trkpt lat="45.640440000000005" lon="6.22212">
    <ele>1220.76</ele>
   </trkpt>
   <trkpt lat="45.64047" lon="6.221690000000001">
    <ele>1219.69</ele>
   </trkpt>
   <trkpt lat="45.64032" lon="6.22081">
    <ele>1217.84</ele>
   </trkpt>
   <trkpt lat="45.64049000000001" lon="6.2205200000000005">
    <ele>1217.1000000000001</ele>
   </trkpt>
   <trkpt lat="45.64038" lon="6.219900000000001">
    <ele>1217.6</ele>
   </trkpt>
   <trkpt lat="45.64036" lon="6.21973">
    <ele>1217.78</ele>
   </trkpt>
   <trkpt lat="45.639976671919555" lon="6.218956656156164">
    <ele>1226.19</ele>
   </trkpt>
   <trkpt lat="45.639593338621424" lon="6.2181833228939745">
    <ele>1234.79</ele>
   </trkpt>
   <trkpt lat="45.639210000000006" lon="6.21741">
    <ele>1242.3500000000001</ele>
   </trkpt>
   <trkpt lat="45.6387250020688" lon="6.21671999401608">
    <ele>1250.72</ele>
   </trkpt>
   <trkpt lat="45.63824" lon="6.216030000000001">
    <ele>1259.68</ele>
   </trkpt>
   <trkpt lat="45.6379" lon="6.215090000000001">
    <ele>1266.3000000000002</ele>
   </trkpt>
   <trkpt lat="45.637600000000006" lon="6.2146300000000005">
    <ele>1271.74</ele>
   </trkpt>
   <trkpt lat="45.636950000000006" lon="6.214600000000001">
    <ele>1278.91</ele>
   </trkpt>
   <trkpt lat="45.63674" lon="6.21452">
    <ele>1280.82</ele>
   </trkpt>
   <trkpt lat="45.63667" lon="6.214300000000001">
    <ele>1283.5100000000002</ele>
   </trkpt>
   <trkpt lat="45.636480000000006" lon="6.2142100000000005">
    <ele>1285.97</ele>
   </trkpt>
   <trkpt lat="45.63644" lon="6.214130000000001">
    <ele>1286.54</ele>
   </trkpt>
   <trkpt lat="45.63626000165961" lon="6.213504997838214">
    <ele>1293.0600000000002</ele>
   </trkpt>
   <trkpt lat="45.63608000000001" lon="6.21288">
    <ele>1296.8500000000001</ele>
   </trkpt>
   <trkpt lat="45.63577" lon="6.21229">
    <ele>1303.23</ele>
   </trkpt>
   <trkpt lat="45.635580000000004" lon="6.211570000000001">
    <ele>1308.91</ele>
   </trkpt>
   <trkpt lat="45.63543000000001" lon="6.21119">
    <ele>1313.49</ele>
   </trkpt>
   <trkpt lat="45.635045000973776" lon="6.210739997014127">
    <ele>1317.5100000000002</ele>
   </trkpt>
   <trkpt lat="45.634660000000004" lon="6.2102900000000005">
    <ele>1322.39</ele>
   </trkpt>
   <trkpt lat="45.634570000000004" lon="6.21016">
    <ele>1323.77</ele>
   </trkpt>
   <trkpt lat="45.63449000000001" lon="6.2103">
    <ele>1328.1100000000001</ele>
   </trkpt>
   <trkpt lat="45.63423" lon="6.21053">
    <ele>1339.15</ele>
   </trkpt>
   <trkpt lat="45.634220000000006" lon="6.210610000000001">
    <ele>1342.48</ele>
   </trkpt>
   <trkpt lat="45.634130000000006" lon="6.2107">
    <ele>1346.0200000000002</ele>
   </trkpt>
   <trkpt lat="45.634040000000006" lon="6.210960000000001">
    <ele>1353.8600000000001</ele>
   </trkpt>
   <trkpt lat="45.634370000000004" lon="6.210940000000001">
    <ele>1365.69</ele>
   </trkpt>
   <trkpt lat="45.634150000000005" lon="6.2113000000000005">
    <ele>1375.8300000000002</ele>
   </trkpt>
   <trkpt lat="45.63412" lon="6.21142">
    <ele>1381.4400000000003</ele>
   </trkpt>
   <trkpt lat="45.63432" lon="6.21138">
    <ele>1391.07</ele>
   </trkpt>
   <trkpt lat="45.63448" lon="6.2115800000000005">
    <ele>1394.32</ele>
   </trkpt>
   <trkpt lat="45.634220000000006" lon="6.2118400000000005">
    <ele>1408.9600000000003</ele>
   </trkpt>
   <trkpt lat="45.634460000000004" lon="6.212000000000001">
    <ele>1415.21</ele>
   </trkpt>
   <trkpt lat="45.63449000000001" lon="6.212110000000001">
    <ele>1420.23</ele>
   </trkpt>
   <trkpt lat="45.63438000000001" lon="6.212180000000001">
    <ele>1425.46</ele>
   </trkpt>
   <trkpt lat="45.63414" lon="6.2125">
    <ele>1432.95</ele>
   </trkpt>
   <trkpt lat="45.63392" lon="6.213150000000001">
    <ele>1442.2700000000002</ele>
   </trkpt>
   <trkpt lat="45.633950000000006" lon="6.213290000000001">
    <ele>1447.8600000000001</ele>
   </trkpt>
   <trkpt lat="45.634080000000004" lon="6.2131300000000005">
    <ele>1451.42</ele>
   </trkpt>
   <trkpt lat="45.634150000000005" lon="6.213100000000001">
    <ele>1452.7500000000002</ele>
   </trkpt>
   <trkpt lat="45.63423" lon="6.213190000000001">
    <ele>1458.44</ele>
   </trkpt>
   <trkpt lat="45.634260000000005" lon="6.21344">
    <ele>1462.28</ele>
   </trkpt>
   <trkpt lat="45.63407" lon="6.2139500000000005">
    <ele>1471.87</ele>
   </trkpt>
   <trkpt lat="45.63389" lon="6.21454">
    <ele>1483.96</ele>
   </trkpt>
   <trkpt lat="45.633770000000005" lon="6.214700000000001">
    <ele>1487.45</ele>
   </trkpt>
   <trkpt lat="45.634080000000004" lon="6.21461">
    <ele>1497.3100000000002</ele>
   </trkpt>
   <trkpt lat="45.63420000000001" lon="6.214700000000001">
    <ele>1501.71</ele>
   </trkpt>
   <trkpt lat="45.634220000000006" lon="6.214860000000001">
    <ele>1501.71</ele>
   </trkpt>
   <trkpt lat="45.63420000000001" lon="6.21511">
    <ele>1506.94</ele>
   </trkpt>
   <trkpt lat="45.634150000000005" lon="6.215090000000001">
    <ele>1509.27</ele>
   </trkpt>
   <trkpt lat="45.63409" lon="6.215120000000001">
    <ele>1509.27</ele>
   </trkpt>
   <trkpt lat="45.63393000000001" lon="6.215280000000001">
    <ele>1515.6000000000001</ele>
   </trkpt>
   <trkpt lat="45.63394" lon="6.215280000000001">
    <ele>1515.7500000000002</ele>
   </trkpt>
   <trkpt lat="45.63374" lon="6.21546">
    <ele>1521.1000000000001</ele>
   </trkpt>
   <trkpt lat="45.633790000000005" lon="6.21562">
    <ele>1523.65</ele>
   </trkpt>
   <trkpt lat="45.633900000000004" lon="6.21567">
    <ele>1529.8200000000002</ele>
   </trkpt>
   <trkpt lat="45.6338" lon="6.21579">
    <ele>1532.6000000000001</ele>
   </trkpt>
   <trkpt lat="45.63362" lon="6.216060000000001">
    <ele>1539.7800000000002</ele>
   </trkpt>
   <trkpt lat="45.63327" lon="6.216200000000001">
    <ele>1544.69</ele>
   </trkpt>
   <trkpt lat="45.633010000000006" lon="6.21635">
    <ele>1549.43</ele>
   </trkpt>
   <trkpt lat="45.63297" lon="6.216480000000001">
    <ele>1556.03</ele>
   </trkpt>
   <trkpt lat="45.63286" lon="6.2171400000000006">
    <ele>1566.98</ele>
   </trkpt>
   <trkpt lat="45.63295" lon="6.21703">
    <ele>1573.5500000000002</ele>
   </trkpt>
   <trkpt lat="45.63302" lon="6.2170000000000005">
    <ele>1573.5500000000002</ele>
   </trkpt>
   <trkpt lat="45.633030000000005" lon="6.217060000000001">
    <ele>1573.5500000000002</ele>
   </trkpt>
   <trkpt lat="45.63318" lon="6.21696">
    <ele>1581.88</ele>
   </trkpt>
   <trkpt lat="45.6332" lon="6.217060000000001">
    <ele>1583.89</ele>
   </trkpt>
   <trkpt lat="45.633250000000004" lon="6.2170700000000005">
    <ele>1583.89</ele>
   </trkpt>
   <trkpt lat="45.633280000000006" lon="6.21712">
    <ele>1594.5200000000002</ele>
   </trkpt>
   <trkpt lat="45.63333" lon="6.217130000000001">
    <ele>1594.5200000000002</ele>
   </trkpt>
   <trkpt lat="45.63335000000001" lon="6.21717">
    <ele>1594.5200000000002</ele>
   </trkpt>
   <trkpt lat="45.63351" lon="6.217300000000001">
    <ele>1600.63</ele>
   </trkpt>
   <trkpt lat="45.63354" lon="6.21738">
    <ele>1604.38</ele>
   </trkpt>
   <trkpt lat="45.633500000000005" lon="6.217490000000001">
    <ele>1606.69</ele>
   </trkpt>
   <trkpt lat="45.63344" lon="6.2175400000000005">
    <ele>1608.93</ele>
   </trkpt>
   <trkpt lat="45.6334" lon="6.21766">
    <ele>1611.1200000000001</ele>
   </trkpt>
   <trkpt lat="45.63336" lon="6.2179400000000005">
    <ele>1615.4100000000003</ele>
   </trkpt>
   <trkpt lat="45.633340000000004" lon="6.218240000000001">
    <ele>1622.0100000000002</ele>
   </trkpt>
   <trkpt lat="45.63335000000001" lon="6.218540000000001">
    <ele>1630.13</ele>
   </trkpt>
   <trkpt lat="45.633370000000006" lon="6.2185500000000005">
    <ele>1630.13</ele>
   </trkpt>
   <trkpt lat="45.63336" lon="6.218590000000001">
    <ele>1634.97</ele>
   </trkpt>
   <trkpt lat="45.633390000000006" lon="6.21867">
    <ele>1634.97</ele>
   </trkpt>
   <trkpt lat="45.63338" lon="6.21874">
    <ele>1642.77</ele>
   </trkpt>
   <trkpt lat="45.63342" lon="6.2187600000000005">
    <ele>1642.77</ele>
   </trkpt>
   <trkpt lat="45.633410000000005" lon="6.218820000000001">
    <ele>1642.77</ele>
   </trkpt>
   <trkpt lat="45.633430000000004" lon="6.2188300000000005">
    <ele>1642.77</ele>
   </trkpt>
   <trkpt lat="45.63346000000001" lon="6.218940000000001">
    <ele>1642.77</ele>
   </trkpt>
   <trkpt lat="45.63345" lon="6.2191">
    <ele>1666.89</ele>
   </trkpt>
   <trkpt lat="45.633480000000006" lon="6.2191">
    <ele>1666.89</ele>
   </trkpt>
   <trkpt lat="45.63349" lon="6.21914">
    <ele>1666.89</ele>
   </trkpt>
   <trkpt lat="45.633520000000004" lon="6.219130000000001">
    <ele>1666.89</ele>
   </trkpt>
   <trkpt lat="45.6336" lon="6.21919">
    <ele>1669.43</ele>
   </trkpt>
   <trkpt lat="45.63356" lon="6.219390000000001">
    <ele>1676.0700000000002</ele>
   </trkpt>
   <trkpt lat="45.633590000000005" lon="6.219430000000001">
    <ele>1677.89</ele>
   </trkpt>
   <trkpt lat="45.63354" lon="6.21959">
    <ele>1679.52</ele>
   </trkpt>
   <trkpt lat="45.63353" lon="6.21978">
    <ele>1687.0800000000002</ele>
   </trkpt>
   <trkpt lat="45.633480000000006" lon="6.219900000000001">
    <ele>1690.63</ele>
   </trkpt>
   <trkpt lat="45.633500000000005" lon="6.21994">
    <ele>1692.6200000000001</ele>
   </trkpt>
   <trkpt lat="45.633500000000005" lon="6.21999">
    <ele>1692.6200000000001</ele>
   </trkpt>
   <trkpt lat="45.633480000000006" lon="6.220020000000001">
    <ele>1694.71</ele>
   </trkpt>
   <trkpt lat="45.63351" lon="6.22008">
    <ele>1694.71</ele>
   </trkpt>
   <trkpt lat="45.63349" lon="6.220090000000001">
    <ele>1701.17</ele>
   </trkpt>
   <trkpt lat="45.633480000000006" lon="6.220140000000001">
    <ele>1701.17</ele>
   </trkpt>
   <trkpt lat="45.63353" lon="6.22017">
    <ele>1703.17</ele>
   </trkpt>
   <trkpt lat="45.633480000000006" lon="6.2204500000000005">
    <ele>1709.21</ele>
   </trkpt>
   <trkpt lat="45.63342" lon="6.22055">
    <ele>1711.5900000000001</ele>
   </trkpt>
   <trkpt lat="45.633410000000005" lon="6.220610000000001">
    <ele>1712.8700000000001</ele>
   </trkpt>
   <trkpt lat="45.63335000000001" lon="6.22067">
    <ele>1715.98</ele>
   </trkpt>
   <trkpt lat="45.63333" lon="6.2207300000000005">
    <ele>1717.92</ele>
   </trkpt>
   <trkpt lat="45.633280000000006" lon="6.22078">
    <ele>1720.15</ele>
   </trkpt>
   <trkpt lat="45.63329" lon="6.22083">
    <ele>1722.65</ele>
   </trkpt>
   <trkpt lat="45.633250000000004" lon="6.22085">
    <ele>1722.65</ele>
   </trkpt>
   <trkpt lat="45.63324" lon="6.22093">
    <ele>1722.65</ele>
   </trkpt>
   <trkpt lat="45.63327" lon="6.221">
    <ele>1736.3400000000001</ele>
   </trkpt>
   <trkpt lat="45.63322" lon="6.221120000000001">
    <ele>1736.3400000000001</ele>
   </trkpt>
   <trkpt lat="45.633140000000004" lon="6.221220000000001">
    <ele>1746.8700000000001</ele>
   </trkpt>
   <trkpt lat="45.63315" lon="6.2212700000000005">
    <ele>1746.8700000000001</ele>
   </trkpt>
   <trkpt lat="45.63311" lon="6.2213">
    <ele>1746.8700000000001</ele>
   </trkpt>
   <trkpt lat="45.633120000000005" lon="6.221330000000001">
    <ele>1751.8000000000002</ele>
   </trkpt>
   <trkpt lat="45.633100000000006" lon="6.221360000000001">
    <ele>1751.8000000000002</ele>
   </trkpt>
   <trkpt lat="45.63311" lon="6.22137">
    <ele>1751.8000000000002</ele>
   </trkpt>
   <trkpt lat="45.63304" lon="6.2215300000000004">
    <ele>1763.06</ele>
   </trkpt>
   <trkpt lat="45.633010000000006" lon="6.22158">
    <ele>1763.06</ele>
   </trkpt>
   <trkpt lat="45.63293" lon="6.221620000000001">
    <ele>1765.5</ele>
   </trkpt>
   <trkpt lat="45.63293" lon="6.22165">
    <ele>1768.15</ele>
   </trkpt>
   <trkpt lat="45.632810000000006" lon="6.22175">
    <ele>1773.98</ele>
   </trkpt>
   <trkpt lat="45.632830000000006" lon="6.2218100000000005">
    <ele>1773.98</ele>
   </trkpt>
   <trkpt lat="45.632780000000004" lon="6.22186">
    <ele>1786.4</ele>
   </trkpt>
   <trkpt lat="45.63284" lon="6.222">
    <ele>1791.89</ele>
   </trkpt>
   <trkpt lat="45.632780000000004" lon="6.22215">
    <ele>1794.3200000000002</ele>
   </trkpt>
   <trkpt lat="45.632690000000004" lon="6.22226">
    <ele>1801.2700000000002</ele>
   </trkpt>
   <trkpt lat="45.63259" lon="6.222320000000001">
    <ele>1810.9700000000003</ele>
   </trkpt>
   <trkpt lat="45.632600000000004" lon="6.2224">
    <ele>1810.9700000000003</ele>
   </trkpt>
   <trkpt lat="45.63257" lon="6.222510000000001">
    <ele>1817.8500000000001</ele>
   </trkpt>
   <trkpt lat="45.632450000000006" lon="6.222600000000001">
    <ele>1825.64</ele>
   </trkpt>
   <trkpt lat="45.63233" lon="6.2226300000000005">
    <ele>1831.71</ele>
   </trkpt>
   <trkpt lat="45.632290000000005" lon="6.22268">
    <ele>1831.71</ele>
   </trkpt>
   <trkpt lat="45.632340000000006" lon="6.2228">
    <ele>1844.5600000000002</ele>
   </trkpt>
   <trkpt lat="45.63228" lon="6.222810000000001">
    <ele>1847.56</ele>
   </trkpt>
   <trkpt lat="45.63228" lon="6.222910000000001">
    <ele>1852.84</ele>
   </trkpt>
   <trkpt lat="45.63212" lon="6.2232">
    <ele>1864.7600000000002</ele>
   </trkpt>
   <trkpt lat="45.632020000000004" lon="6.22329">
    <ele>1870.96</ele>
   </trkpt>
   <trkpt lat="45.632090000000005" lon="6.22351">
    <ele>1885.0500000000002</ele>
   </trkpt>
   <trkpt lat="45.63219" lon="6.22355">
    <ele>1897.0500000000002</ele>
   </trkpt>
   <trkpt lat="45.632290000000005" lon="6.223630000000001">
    <ele>1902.2200000000003</ele>
   </trkpt>
   <trkpt lat="45.632310000000004" lon="6.22369">
    <ele>1904.5600000000002</ele>
   </trkpt>
   <trkpt lat="45.632250000000006" lon="6.22372">
    <ele>1906.77</ele>
   </trkpt>
   <trkpt lat="45.63226" lon="6.223750000000001">
    <ele>1908.88</ele>
   </trkpt>
   <trkpt lat="45.632220000000004" lon="6.223840000000001">
    <ele>1908.88</ele>
   </trkpt>
   <trkpt lat="45.632250000000006" lon="6.2239700000000004">
    <ele>1914.95</ele>
   </trkpt>
   <trkpt lat="45.63223000000001" lon="6.224">
    <ele>1914.95</ele>
   </trkpt>
   <trkpt lat="45.63224" lon="6.22405">
    <ele>1920.7900000000002</ele>
   </trkpt>
   <trkpt lat="45.63219" lon="6.224080000000001">
    <ele>1920.7900000000002</ele>
   </trkpt>
   <trkpt lat="45.632160000000006" lon="6.224130000000001">
    <ele>1922.8</ele>
   </trkpt>
   <trkpt lat="45.632090000000005" lon="6.22416">
    <ele>1924.95</ele>
   </trkpt>
   <trkpt lat="45.63206" lon="6.22423">
    <ele>1934.4200000000003</ele>
   </trkpt>
   <trkpt lat="45.63208" lon="6.224270000000001">
    <ele>1934.4200000000003</ele>
   </trkpt>
   <trkpt lat="45.632070000000006" lon="6.22435">
    <ele>1934.4200000000003</ele>
   </trkpt>
   <trkpt lat="45.631820000000005" lon="6.224500000000001">
    <ele>1942.8</ele>
   </trkpt>
   <trkpt lat="45.6315" lon="6.22482">
    <ele>1963.4900000000002</ele>
   </trkpt>
   <trkpt lat="45.631460000000004" lon="6.22484">
    <ele>1965.8400000000001</ele>
   </trkpt>
   <trkpt lat="45.63143" lon="6.22489">
    <ele>1968.56</ele>
   </trkpt>
   <trkpt lat="45.63138000000001" lon="6.224900000000001">
    <ele>1971.5300000000002</ele>
   </trkpt>
   <trkpt lat="45.631400000000006" lon="6.22496">
    <ele>1971.5300000000002</ele>
   </trkpt>
   <trkpt lat="45.631370000000004" lon="6.2250000000000005">
    <ele>1977.64</ele>
   </trkpt>
   <trkpt lat="45.63139" lon="6.22508">
    <ele>1983.98</ele>
   </trkpt>
   <trkpt lat="45.63127" lon="6.22512">
    <ele>1983.98</ele>
   </trkpt>
   <trkpt lat="45.63127" lon="6.22515">
    <ele>1983.98</ele>
   </trkpt>
   <trkpt lat="45.63123" lon="6.225140000000001">
    <ele>2004.6500000000003</ele>
   </trkpt>
   <trkpt lat="45.63123" lon="6.2251900000000004">
    <ele>2004.6500000000003</ele>
   </trkpt>
   <trkpt lat="45.63120000000001" lon="6.2251900000000004">
    <ele>2004.6500000000003</ele>
   </trkpt>
   <trkpt lat="45.631190000000004" lon="6.22522">
    <ele>2004.6500000000003</ele>
   </trkpt>
   <trkpt lat="45.63101" lon="6.22527">
    <ele>2019.3799999999999</ele>
   </trkpt>
   <trkpt lat="45.63098" lon="6.2253300000000005">
    <ele>2019.3799999999999</ele>
   </trkpt>
   <trkpt lat="45.631" lon="6.22541">
    <ele>2026.3600000000004</ele>
   </trkpt>
   <trkpt lat="45.630950000000006" lon="6.225440000000001">
    <ele>2032.97</ele>
   </trkpt>
   <trkpt lat="45.630900000000004" lon="6.2255400000000005">
    <ele>2032.97</ele>
   </trkpt>
   <trkpt lat="45.630860000000006" lon="6.225740000000001">
    <ele>2043.5700000000004</ele>
   </trkpt>
   <trkpt lat="45.6308" lon="6.2259">
    <ele>2058.79</ele>
   </trkpt>
   <trkpt lat="45.630810000000004" lon="6.2259400000000005">
    <ele>2062.36</ele>
   </trkpt>
   <trkpt lat="45.630790000000005" lon="6.2259400000000005">
    <ele>2062.36</ele>
   </trkpt>
   <trkpt lat="45.63078" lon="6.2260100000000005">
    <ele>2065.71</ele>
   </trkpt>
   <trkpt lat="45.63076" lon="6.22602">
    <ele>2068.8500000000004</ele>
   </trkpt>
   <trkpt lat="45.630770000000005" lon="6.226120000000001">
    <ele>2071.86</ele>
   </trkpt>
   <trkpt lat="45.63071" lon="6.226100000000001">
    <ele>2077.65</ele>
   </trkpt>
   <trkpt lat="45.63071" lon="6.22613">
    <ele>2077.65</ele>
   </trkpt>
   <trkpt lat="45.630680000000005" lon="6.226120000000001">
    <ele>2080.41</ele>
   </trkpt>
   <trkpt lat="45.63067" lon="6.226170000000001">
    <ele>2083.05</ele>
   </trkpt>
   <trkpt lat="45.63064000000001" lon="6.226170000000001">
    <ele>2083.05</ele>
   </trkpt>
   <trkpt lat="45.63062" lon="6.22625">
    <ele>2087.87</ele>
   </trkpt>
   <trkpt lat="45.63056" lon="6.226260000000001">
    <ele>2090.02</ele>
   </trkpt>
   <trkpt lat="45.63054" lon="6.226350000000001">
    <ele>2091.9700000000003</ele>
   </trkpt>
   <trkpt lat="45.63051" lon="6.22637">
    <ele>2093.7400000000002</ele>
   </trkpt>
   <trkpt lat="45.630500000000005" lon="6.226400000000001">
    <ele>2095.38</ele>
   </trkpt>
   <trkpt lat="45.63074" lon="6.2273000000000005">
    <ele>2115.6800000000003</ele>
   </trkpt>
   <trkpt lat="45.63085" lon="6.2278400000000005">
    <ele>2128.3100000000004</ele>
   </trkpt>
   <trkpt lat="45.630950000000006" lon="6.228190000000001">
    <ele>2135.59</ele>
   </trkpt>
   <trkpt lat="45.631130000000006" lon="6.228700000000001">
    <ele>2150.78</ele>
   </trkpt>
   <trkpt lat="45.63123" lon="6.22909">
    <ele>2163.16</ele>
   </trkpt>
   <trkpt lat="45.6313" lon="6.229240000000001">
    <ele>2165.34</ele>
   </trkpt>
   <trkpt lat="45.63148" lon="6.229410000000001">
    <ele>2166.04</ele>
   </trkpt>
   <trkpt lat="45.63148" lon="6.229450000000001">
    <ele>2166.04</ele>
   </trkpt>
   <trkpt lat="45.63158000000001" lon="6.22949">
    <ele>2166.4500000000003</ele>
   </trkpt>
   <trkpt lat="45.63163" lon="6.22961">
    <ele>2166.9300000000003</ele>
   </trkpt>
   <trkpt lat="45.631640000000004" lon="6.22963">
    <ele>2167.0800000000004</ele>
   </trkpt>
   <trkpt lat="45.63168" lon="6.22965">
    <ele>2167.0800000000004</ele>
   </trkpt>
   <trkpt lat="45.63174" lon="6.22979">
    <ele>2169.1900000000005</ele>
   </trkpt>
   <trkpt lat="45.63181" lon="6.229830000000001">
    <ele>2169.4600000000005</ele>
   </trkpt>
   <trkpt lat="45.63186" lon="6.229940000000001">
    <ele>2169.44</ele>
   </trkpt>
   <trkpt lat="45.63195" lon="6.230020000000001">
    <ele>2167.21</ele>
   </trkpt>
   <trkpt lat="45.632000000000005" lon="6.230130000000001">
    <ele>2163.6600000000003</ele>
   </trkpt>
   <trkpt lat="45.632000000000005" lon="6.23017">
    <ele>2163.6600000000003</ele>
   </trkpt>
   <trkpt lat="45.63196000000001" lon="6.230180000000001">
    <ele>2161.36</ele>
   </trkpt>
   <trkpt lat="45.63199" lon="6.23024">
    <ele>2158.86</ele>
   </trkpt>
   <trkpt lat="45.63197" lon="6.23026">
    <ele>2158.86</ele>
   </trkpt>
   <trkpt lat="45.63194000000001" lon="6.23026">
    <ele>2150.9</ele>
   </trkpt>
   <trkpt lat="45.6319" lon="6.230390000000001">
    <ele>2150.9</ele>
   </trkpt>
   <trkpt lat="45.6319" lon="6.23047">
    <ele>2145.3900000000003</ele>
   </trkpt>
   <trkpt lat="45.631840000000004" lon="6.230480000000001">
    <ele>2145.3900000000003</ele>
   </trkpt>
   <trkpt lat="45.63181" lon="6.23047">
    <ele>2145.3900000000003</ele>
   </trkpt>
   <trkpt lat="45.63172" lon="6.230550000000001">
    <ele>2128.39</ele>
   </trkpt>
   <trkpt lat="45.631640000000004" lon="6.230510000000001">
    <ele>2128.39</ele>
   </trkpt>
   <trkpt lat="45.631620000000005" lon="6.2305600000000005">
    <ele>2125.65</ele>
   </trkpt>
   <trkpt lat="45.63159" lon="6.23054">
    <ele>2123.0299999999997</ele>
   </trkpt>
   <trkpt lat="45.631600000000006" lon="6.23057">
    <ele>2123.0299999999997</ele>
   </trkpt>
   <trkpt lat="45.63152" lon="6.2305600000000005">
    <ele>2115.88</ele>
   </trkpt>
   <trkpt lat="45.6315" lon="6.230630000000001">
    <ele>2115.88</ele>
   </trkpt>
   <trkpt lat="45.631460000000004" lon="6.230630000000001">
    <ele>2115.88</ele>
   </trkpt>
   <trkpt lat="45.63145" lon="6.230690000000001">
    <ele>2109.4000000000005</ele>
   </trkpt>
   <trkpt lat="45.631420000000006" lon="6.230700000000001">
    <ele>2109.4000000000005</ele>
   </trkpt>
   <trkpt lat="45.631420000000006" lon="6.230740000000001">
    <ele>2109.4000000000005</ele>
   </trkpt>
   <trkpt lat="45.63139" lon="6.2307500000000005">
    <ele>2104.9700000000003</ele>
   </trkpt>
   <trkpt lat="45.63139" lon="6.2308200000000005">
    <ele>2104.9700000000003</ele>
   </trkpt>
   <trkpt lat="45.631350000000005" lon="6.2308200000000005">
    <ele>2104.9700000000003</ele>
   </trkpt>
   <trkpt lat="45.631350000000005" lon="6.230860000000001">
    <ele>2104.9700000000003</ele>
   </trkpt>
   <trkpt lat="45.6313" lon="6.23085">
    <ele>2095.81</ele>
   </trkpt>
   <trkpt lat="45.63123" lon="6.23097">
    <ele>2095.81</ele>
   </trkpt>
   <trkpt lat="45.63114" lon="6.230910000000001">
    <ele>2088.56</ele>
   </trkpt>
   <trkpt lat="45.6311" lon="6.2309">
    <ele>2088.56</ele>
   </trkpt>
   <trkpt lat="45.631080000000004" lon="6.23083">
    <ele>2078.5400000000004</ele>
   </trkpt>
   <trkpt lat="45.63105" lon="6.230810000000001">
    <ele>2078.5400000000004</ele>
   </trkpt>
   <trkpt lat="45.63101" lon="6.23085">
    <ele>2078.5400000000004</ele>
   </trkpt>
   <trkpt lat="45.63096" lon="6.230810000000001">
    <ele>2073.8</ele>
   </trkpt>
   <trkpt lat="45.630950000000006" lon="6.2308200000000005">
    <ele>2073.8</ele>
   </trkpt>
   <trkpt lat="45.63092" lon="6.230770000000001">
    <ele>2071.61</ele>
   </trkpt>
   <trkpt lat="45.63089" lon="6.23078">
    <ele>2069.57</ele>
   </trkpt>
   <trkpt lat="45.63089" lon="6.23073">
    <ele>2067.6400000000003</ele>
   </trkpt>
   <trkpt lat="45.630700000000004" lon="6.230860000000001">
    <ele>2060.3</ele>
   </trkpt>
   <trkpt lat="45.63065" lon="6.230860000000001">
    <ele>2058.3500000000004</ele>
   </trkpt>
   <trkpt lat="45.630520000000004" lon="6.231160000000001">
    <ele>2046.0700000000002</ele>
   </trkpt>
   <trkpt lat="45.63054" lon="6.231210000000001">
    <ele>2044.1800000000003</ele>
   </trkpt>
   <trkpt lat="45.63054" lon="6.231280000000001">
    <ele>2042.02</ele>
   </trkpt>
   <trkpt lat="45.63049" lon="6.231400000000001">
    <ele>2036.7100000000003</ele>
   </trkpt>
   <trkpt lat="45.630370000000006" lon="6.2313600000000005">
    <ele>2027.9700000000003</ele>
   </trkpt>
   <trkpt lat="45.63029" lon="6.231400000000001">
    <ele>2022.8900000000003</ele>
   </trkpt>
   <trkpt lat="45.63027" lon="6.23134">
    <ele>2020.5700000000002</ele>
   </trkpt>
   <trkpt lat="45.63022" lon="6.23137">
    <ele>2018.37</ele>
   </trkpt>
   <trkpt lat="45.6302" lon="6.23146">
    <ele>2014.4</ele>
   </trkpt>
   <trkpt lat="45.630140000000004" lon="6.23155">
    <ele>2012.6699999999998</ele>
   </trkpt>
   <trkpt lat="45.63011" lon="6.231700000000001">
    <ele>2008.4400000000003</ele>
   </trkpt>
   <trkpt lat="45.629960000000004" lon="6.2321800000000005">
    <ele>1995.23</ele>
   </trkpt>
   <trkpt lat="45.629920000000006" lon="6.23223">
    <ele>1995.23</ele>
   </trkpt>
   <trkpt lat="45.62991" lon="6.232360000000001">
    <ele>1992.14</ele>
   </trkpt>
   <trkpt lat="45.62986" lon="6.23249">
    <ele>1991.38</ele>
   </trkpt>
   <trkpt lat="45.62984" lon="6.232690000000001">
    <ele>1992.14</ele>
   </trkpt>
   <trkpt lat="45.6298" lon="6.23287">
    <ele>1994.4800000000002</ele>
   </trkpt>
   <trkpt lat="45.62959" lon="6.233230000000001">
    <ele>1996.5800000000002</ele>
   </trkpt>
   <trkpt lat="45.62950000000001" lon="6.233460000000001">
    <ele>1996.9900000000002</ele>
   </trkpt>
   <trkpt lat="45.62933" lon="6.233740000000001">
    <ele>1997.6200000000001</ele>
   </trkpt>
   <trkpt lat="45.62932000000001" lon="6.23381">
    <ele>1998.5500000000002</ele>
   </trkpt>
   <trkpt lat="45.629400000000004" lon="6.2339">
    <ele>2001.65</ele>
   </trkpt>
   <trkpt lat="45.629380000000005" lon="6.2339400000000005">
    <ele>2003.6599999999999</ele>
   </trkpt>
   <trkpt lat="45.62941000000001" lon="6.23406">
    <ele>2012.1700000000003</ele>
   </trkpt>
   <trkpt lat="45.629380000000005" lon="6.234280000000001">
    <ele>2016.22</ele>
   </trkpt>
   <trkpt lat="45.6293" lon="6.234540000000001">
    <ele>2024.1900000000003</ele>
   </trkpt>
   <trkpt lat="45.62935" lon="6.23456">
    <ele>2024.1900000000003</ele>
   </trkpt>
   <trkpt lat="45.62942" lon="6.23467">
    <ele>2032.68</ele>
   </trkpt>
   <trkpt lat="45.629250000000006" lon="6.235080000000001">
    <ele>2042.17</ele>
   </trkpt>
   <trkpt lat="45.62923000000001" lon="6.235200000000001">
    <ele>2050.34</ele>
   </trkpt>
   <trkpt lat="45.62917" lon="6.235290000000001">
    <ele>2053.9</ele>
   </trkpt>
   <trkpt lat="45.6289" lon="6.2355100000000006">
    <ele>2062.2000000000003</ele>
   </trkpt>
   <trkpt lat="45.6287" lon="6.235740000000001">
    <ele>2070.7200000000003</ele>
   </trkpt>
   <trkpt lat="45.62854" lon="6.235860000000001">
    <ele>2074.03</ele>
   </trkpt>
   <trkpt lat="45.62836" lon="6.2359100000000005">
    <ele>2078.0000000000005</ele>
   </trkpt>
   <trkpt lat="45.62816" lon="6.23608">
    <ele>2085.89</ele>
   </trkpt>
   <trkpt lat="45.628220000000006" lon="6.236160000000001">
    <ele>2085.89</ele>
   </trkpt>
   <trkpt lat="45.628260000000004" lon="6.236280000000001">
    <ele>2093.9400000000005</ele>
   </trkpt>
   <trkpt lat="45.62821" lon="6.23636">
    <ele>2095.84</ele>
   </trkpt>
   <trkpt lat="45.627930000000006" lon="6.236470000000001">
    <ele>2106.38</ele>
   </trkpt>
   <trkpt lat="45.627790000000005" lon="6.23655">
    <ele>2108.84</ele>
   </trkpt>
   <trkpt lat="45.62763" lon="6.23686">
    <ele>2120.03</ele>
   </trkpt>
   <trkpt lat="45.62792" lon="6.23728">
    <ele>2131.37</ele>
   </trkpt>
   <trkpt lat="45.627970000000005" lon="6.237480000000001">
    <ele>2133.84</ele>
   </trkpt>
   <trkpt lat="45.62792" lon="6.23728">
    <ele>2124.48</ele>
   </trkpt>
   <trkpt lat="45.62763" lon="6.23686">
    <ele>2117.77</ele>
   </trkpt>
   <trkpt lat="45.626850000183765" lon="6.236654997147593">
    <ele>2087.11</ele>
   </trkpt>
   <trkpt lat="45.626070000000006" lon="6.2364500000000005">
    <ele>2052.77</ele>
   </trkpt>
   <trkpt lat="45.62599" lon="6.236350000000001">
    <ele>2047.3700000000003</ele>
   </trkpt>
   <trkpt lat="45.625840000000004" lon="6.236440000000001">
    <ele>2039.05</ele>
   </trkpt>
   <trkpt lat="45.62563" lon="6.23632">
    <ele>2033.63</ele>
   </trkpt>
   <trkpt lat="45.625460000000004" lon="6.23639">
    <ele>2024.1200000000003</ele>
   </trkpt>
   <trkpt lat="45.625310000000006" lon="6.236230000000001">
    <ele>2016.76</ele>
   </trkpt>
   <trkpt lat="45.62507" lon="6.23634">
    <ele>2007.5500000000002</ele>
   </trkpt>
   <trkpt lat="45.624840000000006" lon="6.2362400000000004">
    <ele>1995.78</ele>
   </trkpt>
   <trkpt lat="45.62454" lon="6.23615">
    <ele>1985.1000000000001</ele>
   </trkpt>
   <trkpt lat="45.62418" lon="6.236000000000001">
    <ele>1975.89</ele>
   </trkpt>
   <trkpt lat="45.623760000000004" lon="6.235930000000001">
    <ele>1962.8</ele>
   </trkpt>
   <trkpt lat="45.62355" lon="6.23606">
    <ele>1951.93</ele>
   </trkpt>
   <trkpt lat="45.62342" lon="6.23592">
    <ele>1945.0</ele>
   </trkpt>
   <trkpt lat="45.62321" lon="6.23578">
    <ele>1938.89</ele>
   </trkpt>
   <trkpt lat="45.62265000000001" lon="6.23552">
    <ele>1923.8400000000001</ele>
   </trkpt>
   <trkpt lat="45.62243" lon="6.235460000000001">
    <ele>1918.88</ele>
   </trkpt>
   <trkpt lat="45.622310000000006" lon="6.2356300000000005">
    <ele>1911.88</ele>
   </trkpt>
   <trkpt lat="45.622080000000004" lon="6.235760000000001">
    <ele>1907.25</ele>
   </trkpt>
   <trkpt lat="45.62187" lon="6.23566">
    <ele>1900.53</ele>
   </trkpt>
   <trkpt lat="45.62181" lon="6.23545">
    <ele>1894.53</ele>
   </trkpt>
   <trkpt lat="45.621930000000006" lon="6.235060000000001">
    <ele>1882.63</ele>
   </trkpt>
   <trkpt lat="45.62203" lon="6.2348300000000005">
    <ele>1875.4</ele>
   </trkpt>
   <trkpt lat="45.62167" lon="6.23458">
    <ele>1860.69</ele>
   </trkpt>
   <trkpt lat="45.621320000000004" lon="6.234540000000001">
    <ele>1846.4</ele>
   </trkpt>
   <trkpt lat="45.620740000000005" lon="6.23486">
    <ele>1827.16</ele>
   </trkpt>
   <trkpt lat="45.62050000000001" lon="6.23519">
    <ele>1818.1200000000001</ele>
   </trkpt>
   <trkpt lat="45.620430000000006" lon="6.235150000000001">
    <ele>1810.7300000000002</ele>
   </trkpt>
   <trkpt lat="45.62037" lon="6.23533">
    <ele>1810.7300000000002</ele>
   </trkpt>
   <trkpt lat="45.62037" lon="6.23554">
    <ele>1803.0600000000002</ele>
   </trkpt>
   <trkpt lat="45.620250000000006" lon="6.235650000000001">
    <ele>1800.5900000000001</ele>
   </trkpt>
   <trkpt lat="45.619960000000006" lon="6.235620000000001">
    <ele>1795.4900000000002</ele>
   </trkpt>
   <trkpt lat="45.61981" lon="6.235460000000001">
    <ele>1789.47</ele>
   </trkpt>
   <trkpt lat="45.619690000000006" lon="6.235150000000001">
    <ele>1785.6100000000001</ele>
   </trkpt>
   <trkpt lat="45.619670000000006" lon="6.23517">
    <ele>1785.5</ele>
   </trkpt>
   <trkpt lat="45.61965000000001" lon="6.235270000000001">
    <ele>1785.65</ele>
   </trkpt>
   <trkpt lat="45.619510000000005" lon="6.23554">
    <ele>1788.0000000000002</ele>
   </trkpt>
   <trkpt lat="45.61923" lon="6.2358400000000005">
    <ele>1793.97</ele>
   </trkpt>
   <trkpt lat="45.61916" lon="6.23587">
    <ele>1793.97</ele>
   </trkpt>
   <trkpt lat="45.619020000000006" lon="6.236000000000001">
    <ele>1795.9300000000003</ele>
   </trkpt>
   <trkpt lat="45.6188" lon="6.2361">
    <ele>1797.22</ele>
   </trkpt>
   <trkpt lat="45.61874" lon="6.2360500000000005">
    <ele>1798.01</ele>
   </trkpt>
  </trkseg>
 </trk>
</gpx>
