<?xml version="1.0" encoding="UTF-8"?>
<gpx creator="StravaGPX" version="1.1" xmlns="http://www.topografix.com/GPX/1/1" xmlns:xsi="http://www.w3.org/2001/XMLSchema-instance" xsi:schemaLocation="http://www.topografix.com/GPX/1/1 http://www.topografix.com/GPX/1/1/gpx.xsd">
 <metadata>
  <name>14 2000 section 6V2</name>
  <author>
   <name>Emilien Marion</name>
   <link href="https://www.strava.com/athletes/79224240"/>
  </author>
  <copyright author="OpenStreetMap contributors">
   <year>2020</year>
   <license>https://www.openstreetmap.org/copyright</license>
  </copyright>
  <link href="https://www.strava.com/routes/3492913473706070844"/>
 </metadata>
 <trk>
  <name>14 2000 section 6V2</name>
  <link href="https://www.strava.com/routes/3492913473706070844"/>
  <type>running</type>
  <trkseg>
   <trkpt lat="45.61872" lon="6.236090000000001">
    <ele>1796.52</ele>
   </trkpt>
   <trkpt lat="45.618570000000005" lon="6.235930000000001">
    <ele>1801.8100000000002</ele>
   </trkpt>
   <trkpt lat="45.6184" lon="6.23582">
    <ele>1806.07</ele>
   </trkpt>
   <trkpt lat="45.618320000000004" lon="6.23573">
    <ele>1808.19</ele>
   </trkpt>
   <trkpt lat="45.6182" lon="6.2353700000000005">
    <ele>1813.7500000000002</ele>
   </trkpt>
   <trkpt lat="45.61806000000001" lon="6.23514">
    <ele>1815.4200000000003</ele>
   </trkpt>
   <trkpt lat="45.618" lon="6.234800000000001">
    <ele>1815.16</ele>
   </trkpt>
   <trkpt lat="45.617940000000004" lon="6.23456">
    <ele>1814.42</ele>
   </trkpt>
   <trkpt lat="45.61788000000001" lon="6.234400000000001">
    <ele>1814.69</ele>
   </trkpt>
   <trkpt lat="45.617700000000006" lon="6.2341500000000005">
    <ele>1816.92</ele>
   </trkpt>
   <trkpt lat="45.617670000000004" lon="6.233820000000001">
    <ele>1818.9100000000003</ele>
   </trkpt>
   <trkpt lat="45.61769" lon="6.23366">
    <ele>1819.2800000000002</ele>
   </trkpt>
   <trkpt lat="45.61762" lon="6.23282">
    <ele>1822.8000000000002</ele>
   </trkpt>
   <trkpt lat="45.6176" lon="6.232690000000001">
    <ele>1824.64</ele>
   </trkpt>
   <trkpt lat="45.61755" lon="6.232570000000001">
    <ele>1826.6700000000003</ele>
   </trkpt>
   <trkpt lat="45.617520000000006" lon="6.232270000000001">
    <ele>1832.1000000000001</ele>
   </trkpt>
   <trkpt lat="45.61742" lon="6.23202">
    <ele>1840.3200000000002</ele>
   </trkpt>
   <trkpt lat="45.61731" lon="6.231630000000001">
    <ele>1851.16</ele>
   </trkpt>
   <trkpt lat="45.617230000000006" lon="6.231540000000001">
    <ele>1854.6200000000001</ele>
   </trkpt>
   <trkpt lat="45.617200000000004" lon="6.231420000000001">
    <ele>1857.41</ele>
   </trkpt>
   <trkpt lat="45.61719" lon="6.231280000000001">
    <ele>1859.5000000000002</ele>
   </trkpt>
   <trkpt lat="45.617200000000004" lon="6.231020000000001">
    <ele>1863.8200000000002</ele>
   </trkpt>
   <trkpt lat="45.617140000000006" lon="6.230910000000001">
    <ele>1867.3300000000002</ele>
   </trkpt>
   <trkpt lat="45.617110000000004" lon="6.23078">
    <ele>1869.76</ele>
   </trkpt>
   <trkpt lat="45.6171" lon="6.23066">
    <ele>1870.5600000000002</ele>
   </trkpt>
   <trkpt lat="45.617110000000004" lon="6.23047">
    <ele>1869.8300000000002</ele>
   </trkpt>
   <trkpt lat="45.616780000000006" lon="6.22984">
    <ele>1880.5600000000002</ele>
   </trkpt>
   <trkpt lat="45.616510000000005" lon="6.229570000000001">
    <ele>1892.89</ele>
   </trkpt>
   <trkpt lat="45.61638000000001" lon="6.229360000000001">
    <ele>1895.7800000000002</ele>
   </trkpt>
   <trkpt lat="45.61634" lon="6.229240000000001">
    <ele>1896.57</ele>
   </trkpt>
   <trkpt lat="45.61627000000001" lon="6.229150000000001">
    <ele>1897.2000000000003</ele>
   </trkpt>
   <trkpt lat="45.61621" lon="6.22902">
    <ele>1899.2000000000003</ele>
   </trkpt>
   <trkpt lat="45.6161" lon="6.22893">
    <ele>1900.7900000000002</ele>
   </trkpt>
   <trkpt lat="45.61605" lon="6.228820000000001">
    <ele>1903.5700000000002</ele>
   </trkpt>
   <trkpt lat="45.61591000000001" lon="6.22822">
    <ele>1923.73</ele>
   </trkpt>
   <trkpt lat="45.61592" lon="6.22808">
    <ele>1929.04</ele>
   </trkpt>
   <trkpt lat="45.61578" lon="6.2278">
    <ele>1938.8700000000001</ele>
   </trkpt>
   <trkpt lat="45.615700000000004" lon="6.22773">
    <ele>1942.5700000000002</ele>
   </trkpt>
   <trkpt lat="45.61563" lon="6.227460000000001">
    <ele>1952.2700000000002</ele>
   </trkpt>
   <trkpt lat="45.61549" lon="6.22728">
    <ele>1958.97</ele>
   </trkpt>
   <trkpt lat="45.6154" lon="6.227040000000001">
    <ele>1969.1300000000003</ele>
   </trkpt>
   <trkpt lat="45.61535000000001" lon="6.2267600000000005">
    <ele>1978.53</ele>
   </trkpt>
   <trkpt lat="45.61536" lon="6.22663">
    <ele>1983.6000000000001</ele>
   </trkpt>
   <trkpt lat="45.61543" lon="6.226470000000001">
    <ele>1993.5500000000002</ele>
   </trkpt>
   <trkpt lat="45.615460000000006" lon="6.22634">
    <ele>1993.5500000000002</ele>
   </trkpt>
   <trkpt lat="45.615370000000006" lon="6.226330000000001">
    <ele>1994.16</ele>
   </trkpt>
   <trkpt lat="45.615280000000006" lon="6.2263">
    <ele>1995.69</ele>
   </trkpt>
   <trkpt lat="45.615300000000005" lon="6.226170000000001">
    <ele>2000.48</ele>
   </trkpt>
   <trkpt lat="45.61524000000001" lon="6.226070000000001">
    <ele>2003.05</ele>
   </trkpt>
   <trkpt lat="45.61531" lon="6.22597">
    <ele>2006.9500000000003</ele>
   </trkpt>
   <trkpt lat="45.615280000000006" lon="6.225510000000001">
    <ele>2016.91</ele>
   </trkpt>
   <trkpt lat="45.61542" lon="6.22548">
    <ele>2015.26</ele>
   </trkpt>
   <trkpt lat="45.61491" lon="6.22524">
    <ele>2015.32</ele>
   </trkpt>
   <trkpt lat="45.61450000000001" lon="6.22421">
    <ele>1996.89</ele>
   </trkpt>
   <trkpt lat="45.614340000000006" lon="6.223920000000001">
    <ele>1987.3700000000001</ele>
   </trkpt>
   <trkpt lat="45.61430000000001" lon="6.22379">
    <ele>1983.7600000000002</ele>
   </trkpt>
   <trkpt lat="45.614290000000004" lon="6.2235000000000005">
    <ele>1981.99</ele>
   </trkpt>
   <trkpt lat="45.61428" lon="6.2233600000000004">
    <ele>1980.66</ele>
   </trkpt>
   <trkpt lat="45.61422" lon="6.22325">
    <ele>1979.5200000000002</ele>
   </trkpt>
   <trkpt lat="45.61415" lon="6.223140000000001">
    <ele>1978.41</ele>
   </trkpt>
   <trkpt lat="45.61384" lon="6.222860000000001">
    <ele>1972.97</ele>
   </trkpt>
   <trkpt lat="45.613670000000006" lon="6.222670000000001">
    <ele>1970.7200000000003</ele>
   </trkpt>
   <trkpt lat="45.61339" lon="6.22243">
    <ele>1965.3700000000001</ele>
   </trkpt>
   <trkpt lat="45.613290000000006" lon="6.22238">
    <ele>1963.3500000000001</ele>
   </trkpt>
   <trkpt lat="45.61319" lon="6.222300000000001">
    <ele>1962.4500000000003</ele>
   </trkpt>
   <trkpt lat="45.61305" lon="6.222040000000001">
    <ele>1962.2700000000002</ele>
   </trkpt>
   <trkpt lat="45.61291000000001" lon="6.221830000000001">
    <ele>1960.67</ele>
   </trkpt>
   <trkpt lat="45.61281" lon="6.22161">
    <ele>1958.2400000000002</ele>
   </trkpt>
   <trkpt lat="45.61254" lon="6.22137">
    <ele>1951.4700000000003</ele>
   </trkpt>
   <trkpt lat="45.61242" lon="6.221050000000001">
    <ele>1944.43</ele>
   </trkpt>
   <trkpt lat="45.612260000000006" lon="6.22085">
    <ele>1940.05</ele>
   </trkpt>
   <trkpt lat="45.61215000000001" lon="6.220750000000001">
    <ele>1938.91</ele>
   </trkpt>
   <trkpt lat="45.612100000000005" lon="6.22064">
    <ele>1937.43</ele>
   </trkpt>
   <trkpt lat="45.61204" lon="6.220540000000001">
    <ele>1936.3700000000001</ele>
   </trkpt>
   <trkpt lat="45.61196" lon="6.22048">
    <ele>1935.3700000000001</ele>
   </trkpt>
   <trkpt lat="45.611670000000004" lon="6.220370000000001">
    <ele>1933.6200000000001</ele>
   </trkpt>
   <trkpt lat="45.6116" lon="6.220280000000001">
    <ele>1932.0700000000002</ele>
   </trkpt>
   <trkpt lat="45.611450000000005" lon="6.21996">
    <ele>1925.15</ele>
   </trkpt>
   <trkpt lat="45.61133" lon="6.2195100000000005">
    <ele>1918.71</ele>
   </trkpt>
   <trkpt lat="45.61124" lon="6.2194">
    <ele>1917.7400000000002</ele>
   </trkpt>
   <trkpt lat="45.611140000000006" lon="6.219360000000001">
    <ele>1917.5000000000002</ele>
   </trkpt>
   <trkpt lat="45.61102" lon="6.21928">
    <ele>1915.76</ele>
   </trkpt>
   <trkpt lat="45.61097" lon="6.219010000000001">
    <ele>1910.2800000000002</ele>
   </trkpt>
   <trkpt lat="45.61093" lon="6.21888">
    <ele>1907.18</ele>
   </trkpt>
   <trkpt lat="45.61079" lon="6.2186">
    <ele>1902.7500000000002</ele>
   </trkpt>
   <trkpt lat="45.61075" lon="6.218450000000001">
    <ele>1899.8500000000001</ele>
   </trkpt>
   <trkpt lat="45.61074000000001" lon="6.21832">
    <ele>1896.89</ele>
   </trkpt>
   <trkpt lat="45.61068" lon="6.218210000000001">
    <ele>1894.0400000000002</ele>
   </trkpt>
   <trkpt lat="45.61057" lon="6.217790000000001">
    <ele>1886.68</ele>
   </trkpt>
   <trkpt lat="45.610510000000005" lon="6.21748">
    <ele>1881.5000000000002</ele>
   </trkpt>
   <trkpt lat="45.610400000000006" lon="6.21724">
    <ele>1878.3</ele>
   </trkpt>
   <trkpt lat="45.610290000000006" lon="6.21675">
    <ele>1873.5000000000002</ele>
   </trkpt>
   <trkpt lat="45.610150000000004" lon="6.21633">
    <ele>1868.9700000000003</ele>
   </trkpt>
   <trkpt lat="45.60999" lon="6.216030000000001">
    <ele>1867.3300000000002</ele>
   </trkpt>
   <trkpt lat="45.6099" lon="6.2155700000000005">
    <ele>1865.46</ele>
   </trkpt>
   <trkpt lat="45.60972" lon="6.21508">
    <ele>1858.7300000000002</ele>
   </trkpt>
   <trkpt lat="45.60967" lon="6.214950000000001">
    <ele>1858.5500000000002</ele>
   </trkpt>
   <trkpt lat="45.60947" lon="6.21459">
    <ele>1857.89</ele>
   </trkpt>
   <trkpt lat="45.60934" lon="6.21431">
    <ele>1859.3700000000001</ele>
   </trkpt>
   <trkpt lat="45.60927" lon="6.213990000000001">
    <ele>1858.44</ele>
   </trkpt>
   <trkpt lat="45.6092" lon="6.21386">
    <ele>1858.54</ele>
   </trkpt>
   <trkpt lat="45.60909" lon="6.213540000000001">
    <ele>1852.7300000000002</ele>
   </trkpt>
   <trkpt lat="45.608920000000005" lon="6.2132000000000005">
    <ele>1850.15</ele>
   </trkpt>
   <trkpt lat="45.60878" lon="6.213">
    <ele>1851.65</ele>
   </trkpt>
   <trkpt lat="45.60875" lon="6.21285">
    <ele>1851.9500000000003</ele>
   </trkpt>
   <trkpt lat="45.608700000000006" lon="6.212720000000001">
    <ele>1852.69</ele>
   </trkpt>
   <trkpt lat="45.60831" lon="6.212000000000001">
    <ele>1884.5</ele>
   </trkpt>
   <trkpt lat="45.608290000000004" lon="6.211860000000001">
    <ele>1890.6</ele>
   </trkpt>
   <trkpt lat="45.608160000000005" lon="6.21161">
    <ele>1903.93</ele>
   </trkpt>
   <trkpt lat="45.608090000000004" lon="6.211340000000001">
    <ele>1918.2500000000002</ele>
   </trkpt>
   <trkpt lat="45.60804" lon="6.2112300000000005">
    <ele>1921.79</ele>
   </trkpt>
   <trkpt lat="45.60793" lon="6.210990000000001">
    <ele>1923.85</ele>
   </trkpt>
   <trkpt lat="45.607820000000004" lon="6.21079">
    <ele>1931.1200000000001</ele>
   </trkpt>
   <trkpt lat="45.607730000000004" lon="6.2106900000000005">
    <ele>1934.2400000000002</ele>
   </trkpt>
   <trkpt lat="45.607670000000006" lon="6.2106">
    <ele>1937.75</ele>
   </trkpt>
   <trkpt lat="45.60764" lon="6.21044">
    <ele>1942.3000000000002</ele>
   </trkpt>
   <trkpt lat="45.607580000000006" lon="6.210260000000001">
    <ele>1946.7600000000002</ele>
   </trkpt>
   <trkpt lat="45.607530000000004" lon="6.20988">
    <ele>1951.45</ele>
   </trkpt>
   <trkpt lat="45.60743" lon="6.20943">
    <ele>1954.97</ele>
   </trkpt>
   <trkpt lat="45.607470000000006" lon="6.20929">
    <ele>1956.23</ele>
   </trkpt>
   <trkpt lat="45.607530000000004" lon="6.20915">
    <ele>1957.69</ele>
   </trkpt>
   <trkpt lat="45.607600000000005" lon="6.20887">
    <ele>1959.1100000000001</ele>
   </trkpt>
   <trkpt lat="45.60775" lon="6.20849">
    <ele>1963.8500000000001</ele>
   </trkpt>
   <trkpt lat="45.60779" lon="6.20823">
    <ele>1970.3300000000002</ele>
   </trkpt>
   <trkpt lat="45.6077" lon="6.20809">
    <ele>1974.38</ele>
   </trkpt>
   <trkpt lat="45.60763" lon="6.20783">
    <ele>1981.72</ele>
   </trkpt>
   <trkpt lat="45.60779" lon="6.20746">
    <ele>1995.6200000000001</ele>
   </trkpt>
   <trkpt lat="45.60774000000001" lon="6.207350000000001">
    <ele>1999.8300000000002</ele>
   </trkpt>
   <trkpt lat="45.6077" lon="6.207210000000001">
    <ele>2003.88</ele>
   </trkpt>
   <trkpt lat="45.60757" lon="6.206930000000001">
    <ele>2006.8200000000002</ele>
   </trkpt>
   <trkpt lat="45.60741" lon="6.206690000000001">
    <ele>2001.44</ele>
   </trkpt>
   <trkpt lat="45.60732" lon="6.206620000000001">
    <ele>2001.44</ele>
   </trkpt>
   <trkpt lat="45.60725" lon="6.20652">
    <ele>2000.1299999999999</ele>
   </trkpt>
   <trkpt lat="45.60716" lon="6.20643">
    <ele>1999.1200000000001</ele>
   </trkpt>
   <trkpt lat="45.60705" lon="6.206370000000001">
    <ele>1999.03</ele>
   </trkpt>
   <trkpt lat="45.60689000000001" lon="6.206230000000001">
    <ele>1998.2100000000003</ele>
   </trkpt>
   <trkpt lat="45.606820000000006" lon="6.206130000000001">
    <ele>1997.6000000000001</ele>
   </trkpt>
   <trkpt lat="45.606660000000005" lon="6.20596">
    <ele>1995.91</ele>
   </trkpt>
   <trkpt lat="45.60658" lon="6.20582">
    <ele>1994.39</ele>
   </trkpt>
   <trkpt lat="45.60656" lon="6.20568">
    <ele>1990.73</ele>
   </trkpt>
   <trkpt lat="45.606480000000005" lon="6.205550000000001">
    <ele>1988.5400000000002</ele>
   </trkpt>
   <trkpt lat="45.606300000000005" lon="6.20539">
    <ele>1990.0700000000002</ele>
   </trkpt>
   <trkpt lat="45.6062" lon="6.20528">
    <ele>1989.17</ele>
   </trkpt>
   <trkpt lat="45.60611" lon="6.20502">
    <ele>1984.2800000000002</ele>
   </trkpt>
   <trkpt lat="45.60602" lon="6.20492">
    <ele>1984.41</ele>
   </trkpt>
   <trkpt lat="45.60591" lon="6.2046600000000005">
    <ele>1980.8000000000002</ele>
   </trkpt>
   <trkpt lat="45.60584" lon="6.204560000000001">
    <ele>1979.95</ele>
   </trkpt>
   <trkpt lat="45.60582" lon="6.204420000000001">
    <ele>1976.71</ele>
   </trkpt>
   <trkpt lat="45.60582" lon="6.204300000000001">
    <ele>1970.8700000000001</ele>
   </trkpt>
   <trkpt lat="45.60575" lon="6.2041900000000005">
    <ele>1970.0000000000002</ele>
   </trkpt>
   <trkpt lat="45.60559000000001" lon="6.204070000000001">
    <ele>1973.18</ele>
   </trkpt>
   <trkpt lat="45.60542" lon="6.203880000000001">
    <ele>1971.8500000000001</ele>
   </trkpt>
   <trkpt lat="45.605320000000006" lon="6.203830000000001">
    <ele>1973.13</ele>
   </trkpt>
   <trkpt lat="45.6052" lon="6.203690000000001">
    <ele>1972.5</ele>
   </trkpt>
   <trkpt lat="45.605140000000006" lon="6.203570000000001">
    <ele>1970.5500000000002</ele>
   </trkpt>
   <trkpt lat="45.605050000000006" lon="6.203480000000001">
    <ele>1971.1900000000003</ele>
   </trkpt>
   <trkpt lat="45.60497" lon="6.203430000000001">
    <ele>1972.7500000000002</ele>
   </trkpt>
   <trkpt lat="45.60488" lon="6.20333">
    <ele>1972.43</ele>
   </trkpt>
   <trkpt lat="45.60483000000001" lon="6.20319">
    <ele>1970.2700000000002</ele>
   </trkpt>
   <trkpt lat="45.60474000000001" lon="6.203130000000001">
    <ele>1971.72</ele>
   </trkpt>
   <trkpt lat="45.60455" lon="6.202780000000001">
    <ele>1969.72</ele>
   </trkpt>
   <trkpt lat="45.604440000000004" lon="6.202540000000001">
    <ele>1966.1000000000001</ele>
   </trkpt>
   <trkpt lat="45.60436000000001" lon="6.202280000000001">
    <ele>1964.91</ele>
   </trkpt>
   <trkpt lat="45.6043" lon="6.20216">
    <ele>1963.39</ele>
   </trkpt>
   <trkpt lat="45.604260000000004" lon="6.20202">
    <ele>1960.97</ele>
   </trkpt>
   <trkpt lat="45.60417" lon="6.201930000000001">
    <ele>1960.89</ele>
   </trkpt>
   <trkpt lat="45.60417" lon="6.201790000000001">
    <ele>1958.8100000000002</ele>
   </trkpt>
   <trkpt lat="45.604130000000005" lon="6.20166">
    <ele>1957.66</ele>
   </trkpt>
   <trkpt lat="45.604020000000006" lon="6.201530000000001">
    <ele>1958.1800000000003</ele>
   </trkpt>
   <trkpt lat="45.60401" lon="6.2014000000000005">
    <ele>1957.15</ele>
   </trkpt>
   <trkpt lat="45.60392" lon="6.20129">
    <ele>1957.71</ele>
   </trkpt>
   <trkpt lat="45.60389000000001" lon="6.20117">
    <ele>1957.38</ele>
   </trkpt>
   <trkpt lat="45.60389000000001" lon="6.2010000000000005">
    <ele>1956.41</ele>
   </trkpt>
   <trkpt lat="45.60374" lon="6.20063">
    <ele>1956.97</ele>
   </trkpt>
   <trkpt lat="45.60372" lon="6.20042">
    <ele>1956.64</ele>
   </trkpt>
   <trkpt lat="45.60374" lon="6.200290000000001">
    <ele>1955.78</ele>
   </trkpt>
   <trkpt lat="45.6037" lon="6.20012">
    <ele>1957.2</ele>
   </trkpt>
   <trkpt lat="45.603640000000006" lon="6.20002">
    <ele>1959.0200000000002</ele>
   </trkpt>
   <trkpt lat="45.60369" lon="6.199770000000001">
    <ele>1958.1000000000001</ele>
   </trkpt>
   <trkpt lat="45.603660000000005" lon="6.199630000000001">
    <ele>1958.8500000000001</ele>
   </trkpt>
   <trkpt lat="45.603570000000005" lon="6.199520000000001">
    <ele>1962.4800000000002</ele>
   </trkpt>
   <trkpt lat="45.60358" lon="6.1992400000000005">
    <ele>1957.01</ele>
   </trkpt>
   <trkpt lat="45.603480000000005" lon="6.199210000000001">
    <ele>1960.7900000000002</ele>
   </trkpt>
   <trkpt lat="45.60343" lon="6.1991000000000005">
    <ele>1959.69</ele>
   </trkpt>
   <trkpt lat="45.603410000000004" lon="6.19897">
    <ele>1956.8</ele>
   </trkpt>
   <trkpt lat="45.603120000000004" lon="6.198200000000001">
    <ele>1945.8500000000001</ele>
   </trkpt>
   <trkpt lat="45.60311" lon="6.198060000000001">
    <ele>1942.0100000000002</ele>
   </trkpt>
   <trkpt lat="45.60316" lon="6.197940000000001">
    <ele>1936.3000000000002</ele>
   </trkpt>
   <trkpt lat="45.60324000000001" lon="6.197870000000001">
    <ele>1929.3000000000002</ele>
   </trkpt>
   <trkpt lat="45.603300000000004" lon="6.197760000000001">
    <ele>1922.2400000000002</ele>
   </trkpt>
   <trkpt lat="45.603280000000005" lon="6.19761">
    <ele>1916.0100000000002</ele>
   </trkpt>
   <trkpt lat="45.60322" lon="6.197500000000001">
    <ele>1914.43</ele>
   </trkpt>
   <trkpt lat="45.603320000000004" lon="6.1974100000000005">
    <ele>1902.5700000000002</ele>
   </trkpt>
   <trkpt lat="45.60333000000001" lon="6.1972700000000005">
    <ele>1895.5000000000002</ele>
   </trkpt>
   <trkpt lat="45.60336" lon="6.197150000000001">
    <ele>1886.6200000000001</ele>
   </trkpt>
   <trkpt lat="45.603570000000005" lon="6.197080000000001">
    <ele>1869.2400000000002</ele>
   </trkpt>
   <trkpt lat="45.60363" lon="6.196980000000001">
    <ele>1861.02</ele>
   </trkpt>
   <trkpt lat="45.60360000000001" lon="6.19685">
    <ele>1856.5300000000002</ele>
   </trkpt>
   <trkpt lat="45.603680000000004" lon="6.1967300000000005">
    <ele>1846.2600000000002</ele>
   </trkpt>
   <trkpt lat="45.603770000000004" lon="6.19671">
    <ele>1840.64</ele>
   </trkpt>
   <trkpt lat="45.60380000000001" lon="6.19657">
    <ele>1833.7</ele>
   </trkpt>
   <trkpt lat="45.60380000000001" lon="6.196420000000001">
    <ele>1828.38</ele>
   </trkpt>
   <trkpt lat="45.603840000000005" lon="6.1961200000000005">
    <ele>1815.0800000000002</ele>
   </trkpt>
   <trkpt lat="45.603930000000005" lon="6.19606">
    <ele>1807.4200000000003</ele>
   </trkpt>
   <trkpt lat="45.604000000000006" lon="6.195970000000001">
    <ele>1794.31</ele>
   </trkpt>
   <trkpt lat="45.6041" lon="6.19594">
    <ele>1794.31</ele>
   </trkpt>
   <trkpt lat="45.604200000000006" lon="6.1958400000000005">
    <ele>1786.0000000000002</ele>
   </trkpt>
   <trkpt lat="45.604220000000005" lon="6.195720000000001">
    <ele>1778.66</ele>
   </trkpt>
   <trkpt lat="45.60428" lon="6.19561">
    <ele>1773.09</ele>
   </trkpt>
   <trkpt lat="45.604350000000004" lon="6.19552">
    <ele>1764.67</ele>
   </trkpt>
   <trkpt lat="45.604380000000006" lon="6.19538">
    <ele>1757.7</ele>
   </trkpt>
   <trkpt lat="45.60446" lon="6.19531">
    <ele>1748.3200000000002</ele>
   </trkpt>
   <trkpt lat="45.604560000000006" lon="6.19528">
    <ele>1741.33</ele>
   </trkpt>
   <trkpt lat="45.60475" lon="6.195340000000001">
    <ele>1732.22</ele>
   </trkpt>
   <trkpt lat="45.60493" lon="6.19521">
    <ele>1717.2900000000002</ele>
   </trkpt>
   <trkpt lat="45.605000000000004" lon="6.19512">
    <ele>1706.38</ele>
   </trkpt>
   <trkpt lat="45.6051" lon="6.19507">
    <ele>1698.64</ele>
   </trkpt>
   <trkpt lat="45.60526" lon="6.194920000000001">
    <ele>1685.3300000000002</ele>
   </trkpt>
   <trkpt lat="45.6054" lon="6.1945500000000004">
    <ele>1667.0800000000002</ele>
   </trkpt>
   <trkpt lat="45.605470000000004" lon="6.194450000000001">
    <ele>1662.5</ele>
   </trkpt>
   <trkpt lat="45.605560000000004" lon="6.19441">
    <ele>1656.16</ele>
   </trkpt>
   <trkpt lat="45.60571" lon="6.1942">
    <ele>1643.5300000000002</ele>
   </trkpt>
   <trkpt lat="45.605810000000005" lon="6.1942">
    <ele>1636.2800000000002</ele>
   </trkpt>
   <trkpt lat="45.60589" lon="6.194140000000001">
    <ele>1631.28</ele>
   </trkpt>
   <trkpt lat="45.605990000000006" lon="6.194120000000001">
    <ele>1624.75</ele>
   </trkpt>
   <trkpt lat="45.606480000000005" lon="6.19385">
    <ele>1594.6200000000001</ele>
   </trkpt>
   <trkpt lat="45.60656" lon="6.19376">
    <ele>1591.01</ele>
   </trkpt>
   <trkpt lat="45.606640000000006" lon="6.19369">
    <ele>1591.01</ele>
   </trkpt>
   <trkpt lat="45.607020000000006" lon="6.19352">
    <ele>1573.17</ele>
   </trkpt>
   <trkpt lat="45.607130000000005" lon="6.193460000000001">
    <ele>1573.17</ele>
   </trkpt>
   <trkpt lat="45.607330000000005" lon="6.19331">
    <ele>1561.05</ele>
   </trkpt>
   <trkpt lat="45.607400000000005" lon="6.193200000000001">
    <ele>1555.7800000000002</ele>
   </trkpt>
   <trkpt lat="45.6075" lon="6.193160000000001">
    <ele>1552.2300000000002</ele>
   </trkpt>
   <trkpt lat="45.607710000000004" lon="6.19322">
    <ele>1543.3300000000002</ele>
   </trkpt>
   <trkpt lat="45.607800000000005" lon="6.19315">
    <ele>1543.3300000000002</ele>
   </trkpt>
   <trkpt lat="45.60788" lon="6.19305">
    <ele>1536.1</ele>
   </trkpt>
   <trkpt lat="45.607960000000006" lon="6.19298">
    <ele>1536.1</ele>
   </trkpt>
   <trkpt lat="45.608180000000004" lon="6.1929300000000005">
    <ele>1526.48</ele>
   </trkpt>
   <trkpt lat="45.608270000000005" lon="6.192850000000001">
    <ele>1522.82</ele>
   </trkpt>
   <trkpt lat="45.608410000000006" lon="6.19261">
    <ele>1511.65</ele>
   </trkpt>
   <trkpt lat="45.608610000000006" lon="6.1925300000000005">
    <ele>1508.3300000000002</ele>
   </trkpt>
   <trkpt lat="45.608740000000004" lon="6.192290000000001">
    <ele>1497.0100000000002</ele>
   </trkpt>
   <trkpt lat="45.60877000000001" lon="6.192150000000001">
    <ele>1493.8300000000002</ele>
   </trkpt>
   <trkpt lat="45.60878" lon="6.19202">
    <ele>1493.8300000000002</ele>
   </trkpt>
   <trkpt lat="45.60884" lon="6.191890000000001">
    <ele>1487.92</ele>
   </trkpt>
   <trkpt lat="45.608880000000006" lon="6.191730000000001">
    <ele>1482.72</ele>
   </trkpt>
   <trkpt lat="45.608990000000006" lon="6.191490000000001">
    <ele>1470.3300000000002</ele>
   </trkpt>
   <trkpt lat="45.609030000000004" lon="6.1911700000000005">
    <ele>1461.7000000000003</ele>
   </trkpt>
   <trkpt lat="45.60907" lon="6.19104">
    <ele>1461.7000000000003</ele>
   </trkpt>
   <trkpt lat="45.60911" lon="6.190390000000001">
    <ele>1450.4</ele>
   </trkpt>
   <trkpt lat="45.609350000000006" lon="6.1904200000000005">
    <ele>1447.81</ele>
   </trkpt>
   <trkpt lat="45.60953000000001" lon="6.1904">
    <ele>1446.3300000000002</ele>
   </trkpt>
   <trkpt lat="45.60981" lon="6.190270000000001">
    <ele>1443.5800000000002</ele>
   </trkpt>
   <trkpt lat="45.60989000000001" lon="6.19021">
    <ele>1443.27</ele>
   </trkpt>
   <trkpt lat="45.610170000000004" lon="6.18984">
    <ele>1440.0400000000002</ele>
   </trkpt>
   <trkpt lat="45.6103" lon="6.189620000000001">
    <ele>1438.8100000000002</ele>
   </trkpt>
   <trkpt lat="45.610200000000006" lon="6.18935">
    <ele>1439.0200000000002</ele>
   </trkpt>
   <trkpt lat="45.610220000000005" lon="6.18923">
    <ele>1439.27</ele>
   </trkpt>
   <trkpt lat="45.610380000000006" lon="6.188720000000001">
    <ele>1440.86</ele>
   </trkpt>
   <trkpt lat="45.61045000000001" lon="6.1885900000000005">
    <ele>1444.98</ele>
   </trkpt>
   <trkpt lat="45.610350000000004" lon="6.188510000000001">
    <ele>1445.27</ele>
   </trkpt>
   <trkpt lat="45.6103" lon="6.188510000000001">
    <ele>1445.27</ele>
   </trkpt>
   <trkpt lat="45.61027000000001" lon="6.188370000000001">
    <ele>1447.3100000000002</ele>
   </trkpt>
   <trkpt lat="45.61052" lon="6.1881200000000005">
    <ele>1449.88</ele>
   </trkpt>
   <trkpt lat="45.610620000000004" lon="6.187970000000001">
    <ele>1451.8500000000001</ele>
   </trkpt>
   <trkpt lat="45.610670000000006" lon="6.18777">
    <ele>1452.7</ele>
   </trkpt>
   <trkpt lat="45.610690000000005" lon="6.187550000000001">
    <ele>1452.7</ele>
   </trkpt>
   <trkpt lat="45.610850000000006" lon="6.18716">
    <ele>1458.14</ele>
   </trkpt>
   <trkpt lat="45.610850000000006" lon="6.18707">
    <ele>1458.14</ele>
   </trkpt>
   <trkpt lat="45.610910000000004" lon="6.18698">
    <ele>1458.14</ele>
   </trkpt>
   <trkpt lat="45.61119" lon="6.1869000000000005">
    <ele>1461.27</ele>
   </trkpt>
   <trkpt lat="45.611360000000005" lon="6.186750000000001">
    <ele>1463.23</ele>
   </trkpt>
   <trkpt lat="45.61139000000001" lon="6.18665">
    <ele>1464.3799999999999</ele>
   </trkpt>
   <trkpt lat="45.61139000000001" lon="6.186570000000001">
    <ele>1464.3799999999999</ele>
   </trkpt>
   <trkpt lat="45.611340000000006" lon="6.18648">
    <ele>1465.0500000000002</ele>
   </trkpt>
   <trkpt lat="45.61117" lon="6.18634">
    <ele>1467.18</ele>
   </trkpt>
   <trkpt lat="45.61097" lon="6.18627">
    <ele>1469.41</ele>
   </trkpt>
   <trkpt lat="45.610800000000005" lon="6.18613">
    <ele>1471.74</ele>
   </trkpt>
   <trkpt lat="45.610240000000005" lon="6.18555">
    <ele>1477.67</ele>
   </trkpt>
   <trkpt lat="45.610020000000006" lon="6.18529">
    <ele>1483.4600000000003</ele>
   </trkpt>
   <trkpt lat="45.60989000000001" lon="6.1852100000000005">
    <ele>1483.4600000000003</ele>
   </trkpt>
   <trkpt lat="45.60947" lon="6.18501">
    <ele>1487.38</ele>
   </trkpt>
   <trkpt lat="45.60929" lon="6.184850000000001">
    <ele>1490.65</ele>
   </trkpt>
   <trkpt lat="45.609140000000004" lon="6.184760000000001">
    <ele>1492.9</ele>
   </trkpt>
   <trkpt lat="45.60897000000001" lon="6.184620000000001">
    <ele>1496.75</ele>
   </trkpt>
   <trkpt lat="45.60866" lon="6.18451">
    <ele>1499.47</ele>
   </trkpt>
   <trkpt lat="45.608380000000004" lon="6.1844600000000005">
    <ele>1502.82</ele>
   </trkpt>
   <trkpt lat="45.60811" lon="6.1843">
    <ele>1507.18</ele>
   </trkpt>
   <trkpt lat="45.607940000000006" lon="6.18416">
    <ele>1507.18</ele>
   </trkpt>
   <trkpt lat="45.607620000000004" lon="6.183960000000001">
    <ele>1511.45</ele>
   </trkpt>
   <trkpt lat="45.60683" lon="6.18369">
    <ele>1519.22</ele>
   </trkpt>
   <trkpt lat="45.60647" lon="6.18365">
    <ele>1525.3200000000002</ele>
   </trkpt>
   <trkpt lat="45.60633000000001" lon="6.18372">
    <ele>1528.28</ele>
   </trkpt>
   <trkpt lat="45.606190000000005" lon="6.18372">
    <ele>1529.3400000000001</ele>
   </trkpt>
   <trkpt lat="45.605970000000006" lon="6.18365">
    <ele>1532.5900000000001</ele>
   </trkpt>
   <trkpt lat="45.6058" lon="6.18365">
    <ele>1534.25</ele>
   </trkpt>
   <trkpt lat="45.605540000000005" lon="6.183540000000001">
    <ele>1536.58</ele>
   </trkpt>
   <trkpt lat="45.60535" lon="6.18341">
    <ele>1537.91</ele>
   </trkpt>
   <trkpt lat="45.605290000000004" lon="6.183400000000001">
    <ele>1538.52</ele>
   </trkpt>
   <trkpt lat="45.60506" lon="6.18327">
    <ele>1539.6200000000001</ele>
   </trkpt>
   <trkpt lat="45.604780000000005" lon="6.183190000000001">
    <ele>1542.61</ele>
   </trkpt>
   <trkpt lat="45.60448" lon="6.183190000000001">
    <ele>1547.1200000000001</ele>
   </trkpt>
   <trkpt lat="45.604000000000006" lon="6.183160000000001">
    <ele>1552.0200000000002</ele>
   </trkpt>
   <trkpt lat="45.603750000000005" lon="6.183210000000001">
    <ele>1558.45</ele>
   </trkpt>
   <trkpt lat="45.603530000000006" lon="6.183190000000001">
    <ele>1562.8300000000002</ele>
   </trkpt>
   <trkpt lat="45.60324000000001" lon="6.183090000000001">
    <ele>1568.3200000000002</ele>
   </trkpt>
   <trkpt lat="45.60257000000001" lon="6.182910000000001">
    <ele>1578.8200000000002</ele>
   </trkpt>
   <trkpt lat="45.602410000000006" lon="6.1829">
    <ele>1585.1000000000001</ele>
   </trkpt>
   <trkpt lat="45.60208" lon="6.18282">
    <ele>1590.2800000000002</ele>
   </trkpt>
   <trkpt lat="45.60132" lon="6.182390000000001">
    <ele>1601.13</ele>
   </trkpt>
   <trkpt lat="45.60096" lon="6.18238">
    <ele>1609.6000000000001</ele>
   </trkpt>
   <trkpt lat="45.60083" lon="6.182340000000001">
    <ele>1609.6000000000001</ele>
   </trkpt>
   <trkpt lat="45.600280000000005" lon="6.182040000000001">
    <ele>1626.47</ele>
   </trkpt>
   <trkpt lat="45.60009" lon="6.181800000000001">
    <ele>1629.8600000000001</ele>
   </trkpt>
   <trkpt lat="45.6" lon="6.1816">
    <ele>1631.75</ele>
   </trkpt>
   <trkpt lat="45.59993" lon="6.18149">
    <ele>1633.3000000000002</ele>
   </trkpt>
   <trkpt lat="45.59944" lon="6.1811300000000005">
    <ele>1643.16</ele>
   </trkpt>
   <trkpt lat="45.599090000000004" lon="6.180910000000001">
    <ele>1650.29</ele>
   </trkpt>
   <trkpt lat="45.59843" lon="6.1803300000000005">
    <ele>1664.73</ele>
   </trkpt>
   <trkpt lat="45.59825000000001" lon="6.1801900000000005">
    <ele>1666.97</ele>
   </trkpt>
   <trkpt lat="45.597950000000004" lon="6.18008">
    <ele>1676.66</ele>
   </trkpt>
   <trkpt lat="45.597300000000004" lon="6.1799800000000005">
    <ele>1692.6000000000001</ele>
   </trkpt>
   <trkpt lat="45.59709" lon="6.179970000000001">
    <ele>1697.2300000000002</ele>
   </trkpt>
   <trkpt lat="45.59705" lon="6.179930000000001">
    <ele>1698.3400000000001</ele>
   </trkpt>
   <trkpt lat="45.59691" lon="6.179900000000001">
    <ele>1702.4800000000002</ele>
   </trkpt>
   <trkpt lat="45.5968" lon="6.179830000000001">
    <ele>1705.71</ele>
   </trkpt>
   <trkpt lat="45.596740000000004" lon="6.179760000000001">
    <ele>1705.71</ele>
   </trkpt>
   <trkpt lat="45.596700000000006" lon="6.179760000000001">
    <ele>1707.9700000000003</ele>
   </trkpt>
   <trkpt lat="45.59658" lon="6.1796500000000005">
    <ele>1711.38</ele>
   </trkpt>
   <trkpt lat="45.59658" lon="6.179640000000001">
    <ele>1711.38</ele>
   </trkpt>
   <trkpt lat="45.59705500059173" lon="6.179315002661496">
    <ele>1698.2</ele>
   </trkpt>
   <trkpt lat="45.597530000000006" lon="6.178990000000001">
    <ele>1692.97</ele>
   </trkpt>
   <trkpt lat="45.59808" lon="6.178750000000001">
    <ele>1698.7</ele>
   </trkpt>
   <trkpt lat="45.598220000000005" lon="6.17851">
    <ele>1703.65</ele>
   </trkpt>
   <trkpt lat="45.59826" lon="6.17832">
    <ele>1709.9400000000003</ele>
   </trkpt>
   <trkpt lat="45.59835" lon="6.17823">
    <ele>1713.0500000000002</ele>
   </trkpt>
   <trkpt lat="45.59857" lon="6.178260000000001">
    <ele>1716.14</ele>
   </trkpt>
   <trkpt lat="45.59866" lon="6.178190000000001">
    <ele>1719.27</ele>
   </trkpt>
   <trkpt lat="45.59872000000001" lon="6.17802">
    <ele>1724.63</ele>
   </trkpt>
   <trkpt lat="45.598710000000004" lon="6.17783">
    <ele>1731.95</ele>
   </trkpt>
   <trkpt lat="45.598760000000006" lon="6.177560000000001">
    <ele>1742.49</ele>
   </trkpt>
   <trkpt lat="45.59875" lon="6.177350000000001">
    <ele>1751.0500000000002</ele>
   </trkpt>
   <trkpt lat="45.59868" lon="6.177230000000001">
    <ele>1754.8400000000001</ele>
   </trkpt>
   <trkpt lat="45.598580000000005" lon="6.1771400000000005">
    <ele>1756.5000000000002</ele>
   </trkpt>
   <trkpt lat="45.59855" lon="6.177020000000001">
    <ele>1762.7400000000002</ele>
   </trkpt>
   <trkpt lat="45.598910000000004" lon="6.17684">
    <ele>1769.7800000000002</ele>
   </trkpt>
   <trkpt lat="45.59931" lon="6.176520000000001">
    <ele>1781.0500000000002</ele>
   </trkpt>
   <trkpt lat="45.59946" lon="6.176360000000001">
    <ele>1790.73</ele>
   </trkpt>
   <trkpt lat="45.599680000000006" lon="6.1763">
    <ele>1801.23</ele>
   </trkpt>
   <trkpt lat="45.59975" lon="6.176240000000001">
    <ele>1806.58</ele>
   </trkpt>
   <trkpt lat="45.599790000000006" lon="6.17619">
    <ele>1806.58</ele>
   </trkpt>
   <trkpt lat="45.59973" lon="6.17614">
    <ele>1810.9700000000003</ele>
   </trkpt>
   <trkpt lat="45.59978" lon="6.176100000000001">
    <ele>1813.6100000000001</ele>
   </trkpt>
   <trkpt lat="45.599810000000005" lon="6.17595">
    <ele>1819.7500000000002</ele>
   </trkpt>
   <trkpt lat="45.599740000000004" lon="6.17586">
    <ele>1830.07</ele>
   </trkpt>
   <trkpt lat="45.600060000000006" lon="6.17562">
    <ele>1848.15</ele>
   </trkpt>
   <trkpt lat="45.600150000000006" lon="6.175610000000001">
    <ele>1852.2600000000002</ele>
   </trkpt>
   <trkpt lat="45.600300000000004" lon="6.175510000000001">
    <ele>1859.5600000000002</ele>
   </trkpt>
   <trkpt lat="45.600440000000006" lon="6.175350000000001">
    <ele>1868.51</ele>
   </trkpt>
   <trkpt lat="45.60047" lon="6.175260000000001">
    <ele>1878.64</ele>
   </trkpt>
   <trkpt lat="45.600530000000006" lon="6.175260000000001">
    <ele>1881.91</ele>
   </trkpt>
   <trkpt lat="45.60052" lon="6.17515">
    <ele>1887.82</ele>
   </trkpt>
   <trkpt lat="45.600550000000005" lon="6.17515">
    <ele>1887.82</ele>
   </trkpt>
   <trkpt lat="45.600590000000004" lon="6.17506">
    <ele>1895.72</ele>
   </trkpt>
   <trkpt lat="45.600660000000005" lon="6.17504">
    <ele>1898.5</ele>
   </trkpt>
   <trkpt lat="45.60074" lon="6.174910000000001">
    <ele>1901.45</ele>
   </trkpt>
   <trkpt lat="45.60072" lon="6.17485">
    <ele>1910.68</ele>
   </trkpt>
   <trkpt lat="45.600820000000006" lon="6.1747700000000005">
    <ele>1919.24</ele>
   </trkpt>
   <trkpt lat="45.60079" lon="6.17471">
    <ele>1919.24</ele>
   </trkpt>
   <trkpt lat="45.60081" lon="6.174670000000001">
    <ele>1919.24</ele>
   </trkpt>
   <trkpt lat="45.60079" lon="6.17466">
    <ele>1919.24</ele>
   </trkpt>
   <trkpt lat="45.60080000000001" lon="6.174620000000001">
    <ele>1919.24</ele>
   </trkpt>
   <trkpt lat="45.60076" lon="6.17457">
    <ele>1934.1200000000001</ele>
   </trkpt>
   <trkpt lat="45.60078" lon="6.174510000000001">
    <ele>1934.1200000000001</ele>
   </trkpt>
   <trkpt lat="45.60071000000001" lon="6.174440000000001">
    <ele>1940.5</ele>
   </trkpt>
   <trkpt lat="45.600750000000005" lon="6.17433">
    <ele>1940.5</ele>
   </trkpt>
   <trkpt lat="45.600680000000004" lon="6.174150000000001">
    <ele>1953.9</ele>
   </trkpt>
   <trkpt lat="45.600680000000004" lon="6.17403">
    <ele>1960.3100000000002</ele>
   </trkpt>
   <trkpt lat="45.60063" lon="6.173940000000001">
    <ele>1966.44</ele>
   </trkpt>
   <trkpt lat="45.600570000000005" lon="6.17377">
    <ele>1975.2900000000002</ele>
   </trkpt>
   <trkpt lat="45.60061" lon="6.17372">
    <ele>1975.5300000000002</ele>
   </trkpt>
   <trkpt lat="45.600660000000005" lon="6.173680000000001">
    <ele>1976.0600000000002</ele>
   </trkpt>
   <trkpt lat="45.60080000000001" lon="6.17379">
    <ele>1976.15</ele>
   </trkpt>
   <trkpt lat="45.60092" lon="6.173970000000001">
    <ele>1973.3300000000002</ele>
   </trkpt>
   <trkpt lat="45.60105" lon="6.17396">
    <ele>1972.25</ele>
   </trkpt>
   <trkpt lat="45.6011" lon="6.174">
    <ele>1972.25</ele>
   </trkpt>
   <trkpt lat="45.60132" lon="6.174060000000001">
    <ele>1972.1200000000001</ele>
   </trkpt>
   <trkpt lat="45.601420000000005" lon="6.174040000000001">
    <ele>1970.3300000000002</ele>
   </trkpt>
   <trkpt lat="45.60152" lon="6.17407">
    <ele>1968.1800000000003</ele>
   </trkpt>
   <trkpt lat="45.601600000000005" lon="6.17414">
    <ele>1965.1900000000003</ele>
   </trkpt>
   <trkpt lat="45.601670000000006" lon="6.174290000000001">
    <ele>1960.13</ele>
   </trkpt>
   <trkpt lat="45.60173" lon="6.174290000000001">
    <ele>1958.6900000000003</ele>
   </trkpt>
   <trkpt lat="45.602070000000005" lon="6.174510000000001">
    <ele>1947.21</ele>
   </trkpt>
   <trkpt lat="45.602250000000005" lon="6.174530000000001">
    <ele>1945.89</ele>
   </trkpt>
   <trkpt lat="45.602340000000005" lon="6.174580000000001">
    <ele>1945.19</ele>
   </trkpt>
   <trkpt lat="45.60235" lon="6.174460000000001">
    <ele>1945.19</ele>
   </trkpt>
   <trkpt lat="45.602320000000006" lon="6.174440000000001">
    <ele>1945.19</ele>
   </trkpt>
   <trkpt lat="45.602320000000006" lon="6.17438">
    <ele>1931.92</ele>
   </trkpt>
   <trkpt lat="45.60235" lon="6.17431">
    <ele>1931.92</ele>
   </trkpt>
   <trkpt lat="45.60233" lon="6.174250000000001">
    <ele>1931.92</ele>
   </trkpt>
   <trkpt lat="45.602450000000005" lon="6.174290000000001">
    <ele>1927.63</ele>
   </trkpt>
   <trkpt lat="45.602450000000005" lon="6.1742300000000006">
    <ele>1921.52</ele>
   </trkpt>
   <trkpt lat="45.60249" lon="6.1742300000000006">
    <ele>1921.52</ele>
   </trkpt>
   <trkpt lat="45.602500000000006" lon="6.17419">
    <ele>1921.52</ele>
   </trkpt>
   <trkpt lat="45.602450000000005" lon="6.17407">
    <ele>1915.75</ele>
   </trkpt>
   <trkpt lat="45.60248000000001" lon="6.174040000000001">
    <ele>1913.69</ele>
   </trkpt>
   <trkpt lat="45.60246" lon="6.17398">
    <ele>1913.69</ele>
   </trkpt>
   <trkpt lat="45.60239000000001" lon="6.17398">
    <ele>1909.0000000000002</ele>
   </trkpt>
   <trkpt lat="45.6024" lon="6.173680000000001">
    <ele>1896.94</ele>
   </trkpt>
   <trkpt lat="45.602250000000005" lon="6.17344">
    <ele>1887.1200000000001</ele>
   </trkpt>
   <trkpt lat="45.60224" lon="6.17321">
    <ele>1878.3700000000001</ele>
   </trkpt>
   <trkpt lat="45.6022" lon="6.173030000000001">
    <ele>1872.2900000000002</ele>
   </trkpt>
   <trkpt lat="45.602270000000004" lon="6.17288">
    <ele>1865.8700000000001</ele>
   </trkpt>
   <trkpt lat="45.602250000000005" lon="6.1728000000000005">
    <ele>1863.8200000000002</ele>
   </trkpt>
   <trkpt lat="45.60229" lon="6.172770000000001">
    <ele>1863.8200000000002</ele>
   </trkpt>
   <trkpt lat="45.60229" lon="6.172700000000001">
    <ele>1855.96</ele>
   </trkpt>
   <trkpt lat="45.602250000000005" lon="6.17271">
    <ele>1855.96</ele>
   </trkpt>
   <trkpt lat="45.6022" lon="6.17255">
    <ele>1852.0600000000002</ele>
   </trkpt>
   <trkpt lat="45.60210000000001" lon="6.172420000000001">
    <ele>1846.0</ele>
   </trkpt>
   <trkpt lat="45.602070000000005" lon="6.172320000000001">
    <ele>1842.1000000000001</ele>
   </trkpt>
   <trkpt lat="45.60202" lon="6.17227">
    <ele>1840.21</ele>
   </trkpt>
   <trkpt lat="45.602000000000004" lon="6.172180000000001">
    <ele>1838.4000000000003</ele>
   </trkpt>
   <trkpt lat="45.60195" lon="6.17208">
    <ele>1835.2400000000002</ele>
   </trkpt>
   <trkpt lat="45.6019" lon="6.17203">
    <ele>1833.86</ele>
   </trkpt>
   <trkpt lat="45.60188" lon="6.171950000000001">
    <ele>1829.94</ele>
   </trkpt>
   <trkpt lat="45.60174000000001" lon="6.17175">
    <ele>1826.4900000000002</ele>
   </trkpt>
   <trkpt lat="45.601670000000006" lon="6.1717200000000005">
    <ele>1824.8000000000002</ele>
   </trkpt>
   <trkpt lat="45.60128" lon="6.1711100000000005">
    <ele>1811.2700000000002</ele>
   </trkpt>
   <trkpt lat="45.601240000000004" lon="6.1709000000000005">
    <ele>1806.67</ele>
   </trkpt>
   <trkpt lat="45.60118000000001" lon="6.17079">
    <ele>1801.1800000000003</ele>
   </trkpt>
   <trkpt lat="45.60117" lon="6.1707">
    <ele>1799.1800000000003</ele>
   </trkpt>
   <trkpt lat="45.60114" lon="6.170640000000001">
    <ele>1795.0400000000002</ele>
   </trkpt>
   <trkpt lat="45.601150000000004" lon="6.170610000000001">
    <ele>1795.0400000000002</ele>
   </trkpt>
   <trkpt lat="45.60112" lon="6.170590000000001">
    <ele>1795.0400000000002</ele>
   </trkpt>
   <trkpt lat="45.60108" lon="6.17041">
    <ele>1788.39</ele>
   </trkpt>
   <trkpt lat="45.6011" lon="6.170140000000001">
    <ele>1778.69</ele>
   </trkpt>
   <trkpt lat="45.60108" lon="6.17001">
    <ele>1769.36</ele>
   </trkpt>
   <trkpt lat="45.601130000000005" lon="6.169790000000001">
    <ele>1759.69</ele>
   </trkpt>
   <trkpt lat="45.60107000000001" lon="6.169440000000001">
    <ele>1753.43</ele>
   </trkpt>
   <trkpt lat="45.601040000000005" lon="6.169370000000001">
    <ele>1748.14</ele>
   </trkpt>
   <trkpt lat="45.60108" lon="6.169250000000001">
    <ele>1744.43</ele>
   </trkpt>
   <trkpt lat="45.60107000000001" lon="6.16919">
    <ele>1744.43</ele>
   </trkpt>
   <trkpt lat="45.60098000000001" lon="6.1690700000000005">
    <ele>1741.96</ele>
   </trkpt>
   <trkpt lat="45.60087" lon="6.16908">
    <ele>1739.7300000000002</ele>
   </trkpt>
   <trkpt lat="45.600620000000006" lon="6.169040000000001">
    <ele>1735.2800000000002</ele>
   </trkpt>
   <trkpt lat="45.600550000000005" lon="6.169060000000001">
    <ele>1731.1900000000003</ele>
   </trkpt>
   <trkpt lat="45.600460000000005" lon="6.16912">
    <ele>1731.1900000000003</ele>
   </trkpt>
   <trkpt lat="45.600440000000006" lon="6.169110000000001">
    <ele>1731.1900000000003</ele>
   </trkpt>
   <trkpt lat="45.600530000000006" lon="6.168920000000001">
    <ele>1726.96</ele>
   </trkpt>
   <trkpt lat="45.60065" lon="6.168780000000001">
    <ele>1724.14</ele>
   </trkpt>
   <trkpt lat="45.600910000000006" lon="6.16854">
    <ele>1716.7500000000002</ele>
   </trkpt>
   <trkpt lat="45.601020000000005" lon="6.168480000000001">
    <ele>1714.9900000000002</ele>
   </trkpt>
   <trkpt lat="45.601310000000005" lon="6.168480000000001">
    <ele>1708.8700000000001</ele>
   </trkpt>
   <trkpt lat="45.601150000000004" lon="6.16823">
    <ele>1702.8100000000002</ele>
   </trkpt>
   <trkpt lat="45.60107000000001" lon="6.168150000000001">
    <ele>1702.8100000000002</ele>
   </trkpt>
   <trkpt lat="45.600970000000004" lon="6.16811">
    <ele>1697.3300000000002</ele>
   </trkpt>
   <trkpt lat="45.60072" lon="6.16809">
    <ele>1694.43</ele>
   </trkpt>
   <trkpt lat="45.60079" lon="6.168">
    <ele>1693.3700000000001</ele>
   </trkpt>
   <trkpt lat="45.60101" lon="6.167800000000001">
    <ele>1686.15</ele>
   </trkpt>
   <trkpt lat="45.60137" lon="6.16767">
    <ele>1678.66</ele>
   </trkpt>
   <trkpt lat="45.601470000000006" lon="6.16769">
    <ele>1675.43</ele>
   </trkpt>
   <trkpt lat="45.601530000000004" lon="6.167750000000001">
    <ele>1673.3700000000001</ele>
   </trkpt>
   <trkpt lat="45.601690000000005" lon="6.16779">
    <ele>1669.55</ele>
   </trkpt>
   <trkpt lat="45.601580000000006" lon="6.167510000000001">
    <ele>1665.6000000000001</ele>
   </trkpt>
   <trkpt lat="45.60146" lon="6.167330000000001">
    <ele>1661.9</ele>
   </trkpt>
   <trkpt lat="45.601330000000004" lon="6.1671700000000005">
    <ele>1657.5400000000002</ele>
   </trkpt>
   <trkpt lat="45.60128" lon="6.16715">
    <ele>1657.5400000000002</ele>
   </trkpt>
   <trkpt lat="45.601240000000004" lon="6.167160000000001">
    <ele>1657.5400000000002</ele>
   </trkpt>
   <trkpt lat="45.60123" lon="6.167140000000001">
    <ele>1655.7400000000002</ele>
   </trkpt>
   <trkpt lat="45.601380000000006" lon="6.16706">
    <ele>1655.7400000000002</ele>
   </trkpt>
   <trkpt lat="45.60145000000001" lon="6.16706">
    <ele>1655.7400000000002</ele>
   </trkpt>
   <trkpt lat="45.60181" lon="6.1671700000000005">
    <ele>1645.28</ele>
   </trkpt>
   <trkpt lat="45.60184" lon="6.167160000000001">
    <ele>1641.7</ele>
   </trkpt>
   <trkpt lat="45.60184" lon="6.16713">
    <ele>1641.7</ele>
   </trkpt>
   <trkpt lat="45.60168" lon="6.166900000000001">
    <ele>1636.66</ele>
   </trkpt>
   <trkpt lat="45.60157" lon="6.16664">
    <ele>1633.94</ele>
   </trkpt>
   <trkpt lat="45.601510000000005" lon="6.1665600000000005">
    <ele>1631.48</ele>
   </trkpt>
   <trkpt lat="45.601420000000005" lon="6.1665">
    <ele>1629.7400000000002</ele>
   </trkpt>
   <trkpt lat="45.601310000000005" lon="6.1665">
    <ele>1627.7700000000002</ele>
   </trkpt>
   <trkpt lat="45.60137" lon="6.16643">
    <ele>1624.53</ele>
   </trkpt>
   <trkpt lat="45.60155" lon="6.16631">
    <ele>1622.45</ele>
   </trkpt>
   <trkpt lat="45.60163000000001" lon="6.166290000000001">
    <ele>1618.5200000000002</ele>
   </trkpt>
   <trkpt lat="45.6017" lon="6.16628">
    <ele>1618.5200000000002</ele>
   </trkpt>
   <trkpt lat="45.60210000000001" lon="6.16636">
    <ele>1608.38</ele>
   </trkpt>
   <trkpt lat="45.601870000000005" lon="6.165920000000001">
    <ele>1601.3300000000002</ele>
   </trkpt>
   <trkpt lat="45.601800000000004" lon="6.16586">
    <ele>1597.88</ele>
   </trkpt>
   <trkpt lat="45.60161" lon="6.165800000000001">
    <ele>1594.68</ele>
   </trkpt>
   <trkpt lat="45.60125" lon="6.16577">
    <ele>1588.5200000000002</ele>
   </trkpt>
   <trkpt lat="45.60128" lon="6.16572">
    <ele>1587.5700000000002</ele>
   </trkpt>
   <trkpt lat="45.601670000000006" lon="6.165470000000001">
    <ele>1580.0800000000002</ele>
   </trkpt>
   <trkpt lat="45.602160000000005" lon="6.165260000000001">
    <ele>1572.1200000000001</ele>
   </trkpt>
   <trkpt lat="45.60237" lon="6.16514">
    <ele>1567.39</ele>
   </trkpt>
   <trkpt lat="45.602380000000004" lon="6.16511">
    <ele>1567.39</ele>
   </trkpt>
   <trkpt lat="45.60222" lon="6.16506">
    <ele>1564.3600000000001</ele>
   </trkpt>
   <trkpt lat="45.60183000000001" lon="6.165000000000001">
    <ele>1557.25</ele>
   </trkpt>
   <trkpt lat="45.601510000000005" lon="6.164980000000001">
    <ele>1551.2800000000002</ele>
   </trkpt>
   <trkpt lat="45.60116000000001" lon="6.16499">
    <ele>1545.95</ele>
   </trkpt>
   <trkpt lat="45.60103" lon="6.164960000000001">
    <ele>1543.39</ele>
   </trkpt>
   <trkpt lat="45.600930000000005" lon="6.164980000000001">
    <ele>1543.39</ele>
   </trkpt>
   <trkpt lat="45.600910000000006" lon="6.16497">
    <ele>1543.39</ele>
   </trkpt>
   <trkpt lat="45.60092" lon="6.164930000000001">
    <ele>1539.2700000000002</ele>
   </trkpt>
   <trkpt lat="45.601110000000006" lon="6.164860000000001">
    <ele>1537.5100000000002</ele>
   </trkpt>
   <trkpt lat="45.601490000000005" lon="6.164580000000001">
    <ele>1529.77</ele>
   </trkpt>
   <trkpt lat="45.60175" lon="6.16441">
    <ele>1524.5700000000002</ele>
   </trkpt>
   <trkpt lat="45.60204" lon="6.16429">
    <ele>1520.68</ele>
   </trkpt>
   <trkpt lat="45.60277000000001" lon="6.16408">
    <ele>1508.13</ele>
   </trkpt>
   <trkpt lat="45.603170000000006" lon="6.16401">
    <ele>1498.97</ele>
   </trkpt>
   <trkpt lat="45.603460000000005" lon="6.164000000000001">
    <ele>1495.78</ele>
   </trkpt>
   <trkpt lat="45.603550000000006" lon="6.164020000000001">
    <ele>1493.2500000000002</ele>
   </trkpt>
   <trkpt lat="45.603640000000006" lon="6.164070000000001">
    <ele>1491.2800000000002</ele>
   </trkpt>
   <trkpt lat="45.603570000000005" lon="6.16399">
    <ele>1488.91</ele>
   </trkpt>
   <trkpt lat="45.60365" lon="6.163810000000001">
    <ele>1481.26</ele>
   </trkpt>
   <trkpt lat="45.60369" lon="6.16368">
    <ele>1471.7600000000002</ele>
   </trkpt>
   <trkpt lat="45.60376" lon="6.163570000000001">
    <ele>1465.21</ele>
   </trkpt>
   <trkpt lat="45.60385" lon="6.163550000000001">
    <ele>1458.7800000000002</ele>
   </trkpt>
   <trkpt lat="45.603950000000005" lon="6.1634400000000005">
    <ele>1457.7300000000002</ele>
   </trkpt>
   <trkpt lat="45.60394" lon="6.163290000000001">
    <ele>1451.4600000000003</ele>
   </trkpt>
   <trkpt lat="45.60387" lon="6.163">
    <ele>1437.5500000000002</ele>
   </trkpt>
   <trkpt lat="45.603910000000006" lon="6.16288">
    <ele>1432.49</ele>
   </trkpt>
   <trkpt lat="45.60367" lon="6.16225">
    <ele>1395.93</ele>
   </trkpt>
   <trkpt lat="45.603950000000005" lon="6.16197">
    <ele>1392.5700000000002</ele>
   </trkpt>
   <trkpt lat="45.60414" lon="6.16173">
    <ele>1386.8700000000001</ele>
   </trkpt>
   <trkpt lat="45.604530000000004" lon="6.16115">
    <ele>1376.65</ele>
   </trkpt>
   <trkpt lat="45.60474000000001" lon="6.1610000000000005">
    <ele>1372.38</ele>
   </trkpt>
   <trkpt lat="45.60481" lon="6.160900000000001">
    <ele>1370.89</ele>
   </trkpt>
   <trkpt lat="45.60493" lon="6.16056">
    <ele>1358.4</ele>
   </trkpt>
   <trkpt lat="45.6049" lon="6.16047">
    <ele>1358.4</ele>
   </trkpt>
   <trkpt lat="45.604910000000004" lon="6.160310000000001">
    <ele>1354.0100000000002</ele>
   </trkpt>
   <trkpt lat="45.60515" lon="6.16035">
    <ele>1350.68</ele>
   </trkpt>
   <trkpt lat="45.60530000000001" lon="6.160340000000001">
    <ele>1349.32</ele>
   </trkpt>
   <trkpt lat="45.605430000000005" lon="6.160240000000001">
    <ele>1352.1200000000001</ele>
   </trkpt>
   <trkpt lat="45.605500000000006" lon="6.1604600000000005">
    <ele>1349.8600000000001</ele>
   </trkpt>
   <trkpt lat="45.60559000000001" lon="6.16056">
    <ele>1346.67</ele>
   </trkpt>
   <trkpt lat="45.60577000000001" lon="6.160800000000001">
    <ele>1339.91</ele>
   </trkpt>
   <trkpt lat="45.60589" lon="6.160830000000001">
    <ele>1335.26</ele>
   </trkpt>
   <trkpt lat="45.605990000000006" lon="6.160570000000001">
    <ele>1322.7300000000002</ele>
   </trkpt>
   <trkpt lat="45.60624000000001" lon="6.160710000000001">
    <ele>1318.93</ele>
   </trkpt>
   <trkpt lat="45.60654" lon="6.160990000000001">
    <ele>1313.13</ele>
   </trkpt>
   <trkpt lat="45.606730000000006" lon="6.16122">
    <ele>1305.15</ele>
   </trkpt>
   <trkpt lat="45.60680000000001" lon="6.161390000000001">
    <ele>1301.25</ele>
   </trkpt>
   <trkpt lat="45.60678" lon="6.16155">
    <ele>1298.1200000000001</ele>
   </trkpt>
   <trkpt lat="45.60680000000001" lon="6.16171">
    <ele>1296.38</ele>
   </trkpt>
   <trkpt lat="45.606860000000005" lon="6.161910000000001">
    <ele>1293.5500000000002</ele>
   </trkpt>
   <trkpt lat="45.6069" lon="6.161980000000001">
    <ele>1292.96</ele>
   </trkpt>
   <trkpt lat="45.60699" lon="6.161980000000001">
    <ele>1291.4</ele>
   </trkpt>
   <trkpt lat="45.60762500021191" lon="6.161730002854023">
    <ele>1285.95</ele>
   </trkpt>
   <trkpt lat="45.60826" lon="6.16148">
    <ele>1280.6000000000001</ele>
   </trkpt>
   <trkpt lat="45.608470000000004" lon="6.16143">
    <ele>1278.1</ele>
   </trkpt>
   <trkpt lat="45.60875" lon="6.16148">
    <ele>1274.21</ele>
   </trkpt>
   <trkpt lat="45.60898" lon="6.161670000000001">
    <ele>1269.5200000000002</ele>
   </trkpt>
   <trkpt lat="45.60915000000001" lon="6.16194">
    <ele>1262.76</ele>
   </trkpt>
   <trkpt lat="45.60933000000001" lon="6.16213">
    <ele>1255.3200000000002</ele>
   </trkpt>
   <trkpt lat="45.60942000000001" lon="6.162120000000001">
    <ele>1255.3200000000002</ele>
   </trkpt>
   <trkpt lat="45.609500000000004" lon="6.162030000000001">
    <ele>1255.3200000000002</ele>
   </trkpt>
   <trkpt lat="45.60962000000001" lon="6.161860000000001">
    <ele>1243.06</ele>
   </trkpt>
   <trkpt lat="45.609730000000006" lon="6.16148">
    <ele>1236.58</ele>
   </trkpt>
   <trkpt lat="45.60985" lon="6.161410000000001">
    <ele>1236.58</ele>
   </trkpt>
   <trkpt lat="45.61000000000001" lon="6.161340000000001">
    <ele>1230.15</ele>
   </trkpt>
   <trkpt lat="45.61028" lon="6.16145">
    <ele>1223.0700000000002</ele>
   </trkpt>
   <trkpt lat="45.610380000000006" lon="6.161340000000001">
    <ele>1216.88</ele>
   </trkpt>
   <trkpt lat="45.61108" lon="6.16122">
    <ele>1203.7300000000002</ele>
   </trkpt>
   <trkpt lat="45.61157" lon="6.161060000000001">
    <ele>1190.77</ele>
   </trkpt>
   <trkpt lat="45.6122" lon="6.16065">
    <ele>1173.9700000000003</ele>
   </trkpt>
   <trkpt lat="45.612570000000005" lon="6.16044">
    <ele>1163.84</ele>
   </trkpt>
   <trkpt lat="45.612750000000005" lon="6.160430000000001">
    <ele>1159.0900000000001</ele>
   </trkpt>
   <trkpt lat="45.61307" lon="6.160570000000001">
    <ele>1149.2300000000002</ele>
   </trkpt>
   <trkpt lat="45.61323" lon="6.1604600000000005">
    <ele>1146.41</ele>
   </trkpt>
   <trkpt lat="45.6135" lon="6.160500000000001">
    <ele>1135.3200000000002</ele>
   </trkpt>
   <trkpt lat="45.613780000000006" lon="6.16047">
    <ele>1127.65</ele>
   </trkpt>
   <trkpt lat="45.614090000000004" lon="6.1604">
    <ele>1118.8</ele>
   </trkpt>
   <trkpt lat="45.614180000000005" lon="6.16077">
    <ele>1112.0700000000002</ele>
   </trkpt>
   <trkpt lat="45.61437" lon="6.160990000000001">
    <ele>1102.3200000000002</ele>
   </trkpt>
   <trkpt lat="45.61449" lon="6.16103">
    <ele>1095.15</ele>
   </trkpt>
   <trkpt lat="45.614650000000005" lon="6.16094">
    <ele>1093.46</ele>
   </trkpt>
   <trkpt lat="45.61469" lon="6.1608600000000004">
    <ele>1087.19</ele>
   </trkpt>
   <trkpt lat="45.61488000000001" lon="6.16075">
    <ele>1079.08</ele>
   </trkpt>
   <trkpt lat="45.61491" lon="6.1606700000000005">
    <ele>1079.08</ele>
   </trkpt>
   <trkpt lat="45.61502" lon="6.160290000000001">
    <ele>1063.08</ele>
   </trkpt>
   <trkpt lat="45.61496" lon="6.159960000000001">
    <ele>1054.71</ele>
   </trkpt>
   <trkpt lat="45.61486" lon="6.15965">
    <ele>1045.63</ele>
   </trkpt>
   <trkpt lat="45.61488000000001" lon="6.159260000000001">
    <ele>1037.14</ele>
   </trkpt>
   <trkpt lat="45.614810000000006" lon="6.15901">
    <ele>1034.5300000000002</ele>
   </trkpt>
   <trkpt lat="45.61449" lon="6.1586300000000005">
    <ele>1022.9700000000001</ele>
   </trkpt>
   <trkpt lat="45.61430000000001" lon="6.158440000000001">
    <ele>1012.0</ele>
   </trkpt>
   <trkpt lat="45.61421000000001" lon="6.158250000000001">
    <ele>1009.3700000000001</ele>
   </trkpt>
   <trkpt lat="45.61426" lon="6.158060000000001">
    <ele>1004.3600000000001</ele>
   </trkpt>
   <trkpt lat="45.61453" lon="6.157800000000001">
    <ele>996.3900000000001</ele>
   </trkpt>
   <trkpt lat="45.61464" lon="6.15772">
    <ele>992.7300000000001</ele>
   </trkpt>
   <trkpt lat="45.6148" lon="6.15765">
    <ele>987.35</ele>
   </trkpt>
   <trkpt lat="45.614920000000005" lon="6.15756">
    <ele>984.33</ele>
   </trkpt>
   <trkpt lat="45.61493" lon="6.157430000000001">
    <ele>977.7900000000001</ele>
   </trkpt>
   <trkpt lat="45.614900000000006" lon="6.157240000000001">
    <ele>974.7500000000001</ele>
   </trkpt>
   <trkpt lat="45.61496" lon="6.15704">
    <ele>971.9200000000001</ele>
   </trkpt>
   <trkpt lat="45.615080000000006" lon="6.15688">
    <ele>963.76</ele>
   </trkpt>
   <trkpt lat="45.61525" lon="6.156530000000001">
    <ele>958.0400000000001</ele>
   </trkpt>
   <trkpt lat="45.615280000000006" lon="6.1561900000000005">
    <ele>946.36</ele>
   </trkpt>
   <trkpt lat="45.615230000000004" lon="6.155950000000001">
    <ele>940.2900000000001</ele>
   </trkpt>
   <trkpt lat="45.61531" lon="6.1556500000000005">
    <ele>934.8700000000001</ele>
   </trkpt>
   <trkpt lat="45.61533000000001" lon="6.155270000000001">
    <ele>929.1600000000001</ele>
   </trkpt>
   <trkpt lat="45.6154" lon="6.1551100000000005">
    <ele>925.3800000000001</ele>
   </trkpt>
   <trkpt lat="45.615410000000004" lon="6.154710000000001">
    <ele>917.82</ele>
   </trkpt>
   <trkpt lat="45.61538" lon="6.15462">
    <ele>916.83</ele>
   </trkpt>
   <trkpt lat="45.61538" lon="6.1543600000000005">
    <ele>913.07</ele>
   </trkpt>
   <trkpt lat="45.61542" lon="6.15416">
    <ele>909.6400000000001</ele>
   </trkpt>
   <trkpt lat="45.615550000000006" lon="6.15387">
    <ele>901.7100000000002</ele>
   </trkpt>
   <trkpt lat="45.61569" lon="6.153740000000001">
    <ele>898.1800000000001</ele>
   </trkpt>
   <trkpt lat="45.61580000000001" lon="6.153740000000001">
    <ele>898.1800000000001</ele>
   </trkpt>
   <trkpt lat="45.61583" lon="6.153720000000001">
    <ele>892.7600000000001</ele>
   </trkpt>
   <trkpt lat="45.61581" lon="6.15345">
    <ele>891.0500000000001</ele>
   </trkpt>
   <trkpt lat="45.615770000000005" lon="6.153340000000001">
    <ele>889.47</ele>
   </trkpt>
   <trkpt lat="45.61585" lon="6.152920000000001">
    <ele>879.6600000000001</ele>
   </trkpt>
   <trkpt lat="45.61589" lon="6.15282">
    <ele>879.6600000000001</ele>
   </trkpt>
   <trkpt lat="45.61598" lon="6.1527400000000005">
    <ele>877.5100000000001</ele>
   </trkpt>
   <trkpt lat="45.616110000000006" lon="6.15216">
    <ele>868.5600000000001</ele>
   </trkpt>
   <trkpt lat="45.61637" lon="6.151840000000001">
    <ele>861.4000000000001</ele>
   </trkpt>
   <trkpt lat="45.61659" lon="6.1517800000000005">
    <ele>849.55</ele>
   </trkpt>
   <trkpt lat="45.616870000000006" lon="6.151770000000001">
    <ele>842.2400000000001</ele>
   </trkpt>
   <trkpt lat="45.61708" lon="6.151660000000001">
    <ele>838.46</ele>
   </trkpt>
   <trkpt lat="45.61721000000001" lon="6.15165">
    <ele>836.0400000000001</ele>
   </trkpt>
   <trkpt lat="45.61739" lon="6.1513100000000005">
    <ele>832.4</ele>
   </trkpt>
   <trkpt lat="45.61769" lon="6.150930000000001">
    <ele>824.94</ele>
   </trkpt>
   <trkpt lat="45.617850000000004" lon="6.15066">
    <ele>821.6300000000001</ele>
   </trkpt>
   <trkpt lat="45.617940000000004" lon="6.15047">
    <ele>819.23</ele>
   </trkpt>
   <trkpt lat="45.61798" lon="6.15031">
    <ele>816.6000000000001</ele>
   </trkpt>
   <trkpt lat="45.61798" lon="6.14993">
    <ele>814.7800000000001</ele>
   </trkpt>
   <trkpt lat="45.61810000227066" lon="6.149210001485402">
    <ele>809.1800000000001</ele>
   </trkpt>
   <trkpt lat="45.61822" lon="6.148490000000001">
    <ele>800.46</ele>
   </trkpt>
   <trkpt lat="45.6184" lon="6.14801">
    <ele>795.84</ele>
   </trkpt>
   <trkpt lat="45.61847" lon="6.147290000000001">
    <ele>790.5200000000001</ele>
   </trkpt>
   <trkpt lat="45.61826000000001" lon="6.14672">
    <ele>787.57</ele>
   </trkpt>
   <trkpt lat="45.61788000000001" lon="6.14646">
    <ele>784.45</ele>
   </trkpt>
   <trkpt lat="45.61777000000001" lon="6.146310000000001">
    <ele>783.8600000000001</ele>
   </trkpt>
   <trkpt lat="45.617340000000006" lon="6.145980000000001">
    <ele>781.4200000000001</ele>
   </trkpt>
   <trkpt lat="45.61724" lon="6.14594">
    <ele>781.02</ele>
   </trkpt>
   <trkpt lat="45.6169" lon="6.1459">
    <ele>780.4200000000001</ele>
   </trkpt>
   <trkpt lat="45.61679" lon="6.14585">
    <ele>780.4700000000001</ele>
   </trkpt>
   <trkpt lat="45.616550000000004" lon="6.14559">
    <ele>780.7700000000001</ele>
   </trkpt>
   <trkpt lat="45.616440000000004" lon="6.145390000000001">
    <ele>780.6500000000001</ele>
   </trkpt>
   <trkpt lat="45.616260000000004" lon="6.144710000000001">
    <ele>781.3100000000001</ele>
   </trkpt>
  </trkseg>
 </trk>
</gpx>
