<?xml version="1.0" encoding="UTF-8"?>
<gpx creator="StravaGPX" version="1.1" xmlns="http://www.topografix.com/GPX/1/1" xmlns:xsi="http://www.w3.org/2001/XMLSchema-instance" xsi:schemaLocation="http://www.topografix.com/GPX/1/1 http://www.topografix.com/GPX/1/1/gpx.xsd">
 <metadata>
  <name>Venir  me ravitailler 2</name>
  <author>
   <name>Emilien Marion</name>
   <link href="https://www.strava.com/athletes/79224240"/>
  </author>
  <copyright author="OpenStreetMap contributors">
   <year>2020</year>
   <license>https://www.openstreetmap.org/copyright</license>
  </copyright>
  <link href="https://www.strava.com/routes/3496440360532926724"/>
 </metadata>
 <trk>
  <name>Venir  me ravitailler 2</name>
  <link href="https://www.strava.com/routes/3496440360532926724"/>
  <type>running</type>
  <trkseg>
   <trkpt lat="45.63873" lon="6.204370000000001">
    <ele>871.98</ele>
   </trkpt>
   <trkpt lat="45.63823000000001" lon="6.203600000000001">
    <ele>876.19</ele>
   </trkpt>
   <trkpt lat="45.6381" lon="6.203250000000001">
    <ele>880.2700000000001</ele>
   </trkpt>
   <trkpt lat="45.63785" lon="6.2027">
    <ele>884.0400000000001</ele>
   </trkpt>
   <trkpt lat="45.63779" lon="6.202640000000001">
    <ele>884.5500000000001</ele>
   </trkpt>
   <trkpt lat="45.63767000000001" lon="6.202570000000001">
    <ele>885.65</ele>
   </trkpt>
   <trkpt lat="45.63743" lon="6.20227">
    <ele>889.82</ele>
   </trkpt>
   <trkpt lat="45.63723" lon="6.20192">
    <ele>895.0300000000001</ele>
   </trkpt>
   <trkpt lat="45.63716" lon="6.2016100000000005">
    <ele>896.7600000000001</ele>
   </trkpt>
   <trkpt lat="45.637100000000004" lon="6.20148">
    <ele>898.4300000000001</ele>
   </trkpt>
   <trkpt lat="45.637010000000004" lon="6.201350000000001">
    <ele>900.02</ele>
   </trkpt>
   <trkpt lat="45.63682000000001" lon="6.201200000000001">
    <ele>902.24</ele>
   </trkpt>
   <trkpt lat="45.63669" lon="6.20096">
    <ele>904.9</ele>
   </trkpt>
   <trkpt lat="45.63665" lon="6.20094">
    <ele>904.9</ele>
   </trkpt>
   <trkpt lat="45.636500000000005" lon="6.20073">
    <ele>906.6200000000001</ele>
   </trkpt>
   <trkpt lat="45.636430000000004" lon="6.200410000000001">
    <ele>907.0600000000001</ele>
   </trkpt>
   <trkpt lat="45.636340000000004" lon="6.200290000000001">
    <ele>906.8000000000001</ele>
   </trkpt>
   <trkpt lat="45.63626000000001" lon="6.200200000000001">
    <ele>906.2900000000001</ele>
   </trkpt>
   <trkpt lat="45.63584" lon="6.200010000000001">
    <ele>905.2500000000001</ele>
   </trkpt>
   <trkpt lat="45.63561000000001" lon="6.199840000000001">
    <ele>904.87</ele>
   </trkpt>
   <trkpt lat="45.63488" lon="6.1992">
    <ele>905.08</ele>
   </trkpt>
   <trkpt lat="45.63474" lon="6.199050000000001">
    <ele>905.7100000000002</ele>
   </trkpt>
   <trkpt lat="45.634690000000006" lon="6.19897">
    <ele>905.72</ele>
   </trkpt>
   <trkpt lat="45.634600000000006" lon="6.1989">
    <ele>905.51</ele>
   </trkpt>
   <trkpt lat="45.63452" lon="6.198810000000001">
    <ele>905.51</ele>
   </trkpt>
   <trkpt lat="45.63445" lon="6.198530000000001">
    <ele>905.48</ele>
   </trkpt>
   <trkpt lat="45.63445" lon="6.19847">
    <ele>905.48</ele>
   </trkpt>
   <trkpt lat="45.6345" lon="6.198250000000001">
    <ele>906.4200000000001</ele>
   </trkpt>
   <trkpt lat="45.634530000000005" lon="6.19798">
    <ele>908.1600000000001</ele>
   </trkpt>
   <trkpt lat="45.63452" lon="6.1978800000000005">
    <ele>908.4700000000001</ele>
   </trkpt>
   <trkpt lat="45.634440000000005" lon="6.19775">
    <ele>908.5300000000001</ele>
   </trkpt>
   <trkpt lat="45.63440000000001" lon="6.19761">
    <ele>908.51</ele>
   </trkpt>
   <trkpt lat="45.63441" lon="6.197520000000001">
    <ele>908.5600000000001</ele>
   </trkpt>
   <trkpt lat="45.63491500056182" lon="6.197200002810718">
    <ele>913.0600000000001</ele>
   </trkpt>
   <trkpt lat="45.63542" lon="6.19688">
    <ele>915.9100000000001</ele>
   </trkpt>
   <trkpt lat="45.635160000000006" lon="6.1969">
    <ele>922.63</ele>
   </trkpt>
   <trkpt lat="45.63474" lon="6.19678">
    <ele>933.6600000000001</ele>
   </trkpt>
   <trkpt lat="45.63425" lon="6.196370000000001">
    <ele>953.4800000000001</ele>
   </trkpt>
   <trkpt lat="45.633790000000005" lon="6.19603">
    <ele>967.1800000000001</ele>
   </trkpt>
   <trkpt lat="45.63364000000001" lon="6.195640000000001">
    <ele>977.96</ele>
   </trkpt>
   <trkpt lat="45.63351" lon="6.19552">
    <ele>986.3000000000001</ele>
   </trkpt>
   <trkpt lat="45.63333" lon="6.195410000000001">
    <ele>990.5200000000001</ele>
   </trkpt>
   <trkpt lat="45.633210000000005" lon="6.19528">
    <ele>993.2700000000001</ele>
   </trkpt>
   <trkpt lat="45.6328" lon="6.195180000000001">
    <ele>1006.3600000000001</ele>
   </trkpt>
   <trkpt lat="45.63268" lon="6.195180000000001">
    <ele>1009.12</ele>
   </trkpt>
   <trkpt lat="45.6325" lon="6.19507">
    <ele>1017.7100000000002</ele>
   </trkpt>
   <trkpt lat="45.63251" lon="6.194960000000001">
    <ele>1020.7000000000002</ele>
   </trkpt>
   <trkpt lat="45.632600000000004" lon="6.194850000000001">
    <ele>1020.7000000000002</ele>
   </trkpt>
   <trkpt lat="45.63268" lon="6.19484">
    <ele>1026.8000000000002</ele>
   </trkpt>
   <trkpt lat="45.632740000000005" lon="6.194710000000001">
    <ele>1026.8000000000002</ele>
   </trkpt>
   <trkpt lat="45.63270000000001" lon="6.1946200000000005">
    <ele>1033.08</ele>
   </trkpt>
   <trkpt lat="45.632600000000004" lon="6.19456">
    <ele>1037.46</ele>
   </trkpt>
   <trkpt lat="45.632450000000006" lon="6.19453">
    <ele>1041.59</ele>
   </trkpt>
   <trkpt lat="45.63217" lon="6.19451">
    <ele>1049.8500000000001</ele>
   </trkpt>
   <trkpt lat="45.63203" lon="6.19446">
    <ele>1057.49</ele>
   </trkpt>
   <trkpt lat="45.631780000000006" lon="6.194420000000001">
    <ele>1057.49</ele>
   </trkpt>
   <trkpt lat="45.631660000000004" lon="6.19446">
    <ele>1065.39</ele>
   </trkpt>
   <trkpt lat="45.63159" lon="6.19444">
    <ele>1067.8700000000001</ele>
   </trkpt>
   <trkpt lat="45.631460000000004" lon="6.19444">
    <ele>1071.3300000000002</ele>
   </trkpt>
   <trkpt lat="45.631280000000004" lon="6.194310000000001">
    <ele>1078.0800000000002</ele>
   </trkpt>
   <trkpt lat="45.63121" lon="6.19423">
    <ele>1078.0800000000002</ele>
   </trkpt>
   <trkpt lat="45.6311" lon="6.194170000000001">
    <ele>1082.6200000000001</ele>
   </trkpt>
   <trkpt lat="45.630970000000005" lon="6.19416">
    <ele>1082.6200000000001</ele>
   </trkpt>
   <trkpt lat="45.63074" lon="6.19399">
    <ele>1088.3100000000002</ele>
   </trkpt>
   <trkpt lat="45.63029" lon="6.194280000000001">
    <ele>1101.3300000000002</ele>
   </trkpt>
   <trkpt lat="45.62995" lon="6.194400000000001">
    <ele>1111.8600000000001</ele>
   </trkpt>
   <trkpt lat="45.62966" lon="6.19416">
    <ele>1117.3700000000001</ele>
   </trkpt>
   <trkpt lat="45.629360000000005" lon="6.1940800000000005">
    <ele>1123.89</ele>
   </trkpt>
   <trkpt lat="45.62917" lon="6.1939400000000004">
    <ele>1126.68</ele>
   </trkpt>
   <trkpt lat="45.62904" lon="6.193890000000001">
    <ele>1128.23</ele>
   </trkpt>
   <trkpt lat="45.62863" lon="6.193560000000001">
    <ele>1132.38</ele>
   </trkpt>
   <trkpt lat="45.628280000000004" lon="6.193370000000001">
    <ele>1137.72</ele>
   </trkpt>
   <trkpt lat="45.62801" lon="6.19329">
    <ele>1145.3200000000002</ele>
   </trkpt>
   <trkpt lat="45.6278" lon="6.19315">
    <ele>1148.67</ele>
   </trkpt>
   <trkpt lat="45.62764000000001" lon="6.19315">
    <ele>1151.68</ele>
   </trkpt>
   <trkpt lat="45.62745" lon="6.19324">
    <ele>1156.8500000000001</ele>
   </trkpt>
   <trkpt lat="45.62717000000001" lon="6.19329">
    <ele>1169.48</ele>
   </trkpt>
   <trkpt lat="45.627" lon="6.19334">
    <ele>1172.1200000000001</ele>
   </trkpt>
   <trkpt lat="45.62664" lon="6.193200000000001">
    <ele>1179.8000000000002</ele>
   </trkpt>
   <trkpt lat="45.626520000000006" lon="6.19312">
    <ele>1184.7800000000002</ele>
   </trkpt>
   <trkpt lat="45.62641000000001" lon="6.19308">
    <ele>1187.3400000000001</ele>
   </trkpt>
   <trkpt lat="45.62621" lon="6.193230000000001">
    <ele>1200.39</ele>
   </trkpt>
   <trkpt lat="45.626090000000005" lon="6.193280000000001">
    <ele>1200.39</ele>
   </trkpt>
   <trkpt lat="45.625980000000006" lon="6.19341">
    <ele>1204.35</ele>
   </trkpt>
   <trkpt lat="45.62579" lon="6.1935">
    <ele>1207.5500000000002</ele>
   </trkpt>
   <trkpt lat="45.62563" lon="6.1935400000000005">
    <ele>1211.26</ele>
   </trkpt>
   <trkpt lat="45.625350000000005" lon="6.1935">
    <ele>1219.3400000000001</ele>
   </trkpt>
   <trkpt lat="45.625220000000006" lon="6.193510000000001">
    <ele>1223.5900000000001</ele>
   </trkpt>
   <trkpt lat="45.62487" lon="6.19331">
    <ele>1229.88</ele>
   </trkpt>
   <trkpt lat="45.62463" lon="6.193090000000001">
    <ele>1233.98</ele>
   </trkpt>
   <trkpt lat="45.624430000000004" lon="6.19296">
    <ele>1236.99</ele>
   </trkpt>
   <trkpt lat="45.624190000000006" lon="6.19284">
    <ele>1240.0200000000002</ele>
   </trkpt>
   <trkpt lat="45.62411" lon="6.19282">
    <ele>1240.91</ele>
   </trkpt>
   <trkpt lat="45.62386" lon="6.19268">
    <ele>1243.57</ele>
   </trkpt>
   <trkpt lat="45.62359000000001" lon="6.192620000000001">
    <ele>1245.0100000000002</ele>
   </trkpt>
   <trkpt lat="45.62308" lon="6.192380000000001">
    <ele>1251.0</ele>
   </trkpt>
   <trkpt lat="45.622870000000006" lon="6.19214">
    <ele>1254.3300000000002</ele>
   </trkpt>
   <trkpt lat="45.62299" lon="6.192640000000001">
    <ele>1256.3500000000001</ele>
   </trkpt>
   <trkpt lat="45.6231" lon="6.192810000000001">
    <ele>1258.28</ele>
   </trkpt>
   <trkpt lat="45.623270000000005" lon="6.192990000000001">
    <ele>1259.73</ele>
   </trkpt>
   <trkpt lat="45.62332000000001" lon="6.1931">
    <ele>1259.73</ele>
   </trkpt>
   <trkpt lat="45.62332000000001" lon="6.193250000000001">
    <ele>1260.97</ele>
   </trkpt>
   <trkpt lat="45.6233" lon="6.193300000000001">
    <ele>1260.97</ele>
   </trkpt>
   <trkpt lat="45.62324" lon="6.19336">
    <ele>1261.5200000000002</ele>
   </trkpt>
   <trkpt lat="45.62313" lon="6.19334">
    <ele>1261.83</ele>
   </trkpt>
   <trkpt lat="45.623090000000005" lon="6.19329">
    <ele>1261.83</ele>
   </trkpt>
   <trkpt lat="45.62297" lon="6.1930000000000005">
    <ele>1264.15</ele>
   </trkpt>
   <trkpt lat="45.62288" lon="6.19289">
    <ele>1265.7800000000002</ele>
   </trkpt>
   <trkpt lat="45.62276000000001" lon="6.19284">
    <ele>1265.7800000000002</ele>
   </trkpt>
   <trkpt lat="45.622600000000006" lon="6.1928">
    <ele>1267.4500000000003</ele>
   </trkpt>
   <trkpt lat="45.62219" lon="6.192590000000001">
    <ele>1270.94</ele>
   </trkpt>
   <trkpt lat="45.62174" lon="6.192430000000001">
    <ele>1274.7400000000002</ele>
   </trkpt>
   <trkpt lat="45.62145" lon="6.192270000000001">
    <ele>1275.86</ele>
   </trkpt>
   <trkpt lat="45.62138" lon="6.19226">
    <ele>1276.45</ele>
   </trkpt>
   <trkpt lat="45.6212" lon="6.19235">
    <ele>1277.8100000000002</ele>
   </trkpt>
   <trkpt lat="45.62098" lon="6.1923">
    <ele>1280.37</ele>
   </trkpt>
   <trkpt lat="45.62078" lon="6.192310000000001">
    <ele>1281.3300000000002</ele>
   </trkpt>
   <trkpt lat="45.62057" lon="6.192270000000001">
    <ele>1284.4</ele>
   </trkpt>
   <trkpt lat="45.620110000000004" lon="6.1922500000000005">
    <ele>1289.94</ele>
   </trkpt>
   <trkpt lat="45.619670000000006" lon="6.192150000000001">
    <ele>1294.1200000000001</ele>
   </trkpt>
   <trkpt lat="45.619460000000004" lon="6.19214">
    <ele>1298.51</ele>
   </trkpt>
   <trkpt lat="45.61929000000001" lon="6.192060000000001">
    <ele>1298.51</ele>
   </trkpt>
   <trkpt lat="45.61900000000001" lon="6.191980000000001">
    <ele>1304.9400000000003</ele>
   </trkpt>
   <trkpt lat="45.618680000000005" lon="6.19181">
    <ele>1304.9400000000003</ele>
   </trkpt>
   <trkpt lat="45.6184" lon="6.191520000000001">
    <ele>1310.98</ele>
   </trkpt>
   <trkpt lat="45.61826000000001" lon="6.191450000000001">
    <ele>1313.97</ele>
   </trkpt>
   <trkpt lat="45.618170000000006" lon="6.1913800000000005">
    <ele>1313.97</ele>
   </trkpt>
   <trkpt lat="45.61811" lon="6.191280000000001">
    <ele>1315.32</ele>
   </trkpt>
   <trkpt lat="45.61804" lon="6.190880000000001">
    <ele>1317.22</ele>
   </trkpt>
   <trkpt lat="45.61807" lon="6.19073">
    <ele>1317.88</ele>
   </trkpt>
   <trkpt lat="45.61816" lon="6.19066">
    <ele>1319.2</ele>
   </trkpt>
   <trkpt lat="45.618320000000004" lon="6.190600000000001">
    <ele>1319.2</ele>
   </trkpt>
   <trkpt lat="45.618370000000006" lon="6.19054">
    <ele>1322.8600000000001</ele>
   </trkpt>
   <trkpt lat="45.618480000000005" lon="6.190080000000001">
    <ele>1326.7600000000002</ele>
   </trkpt>
   <trkpt lat="45.618520000000004" lon="6.18975">
    <ele>1327.8400000000001</ele>
   </trkpt>
   <trkpt lat="45.618550000000006" lon="6.1896700000000004">
    <ele>1330.84</ele>
   </trkpt>
   <trkpt lat="45.61882000000001" lon="6.18951">
    <ele>1331.8100000000002</ele>
   </trkpt>
   <trkpt lat="45.61901" lon="6.18946">
    <ele>1334.18</ele>
   </trkpt>
   <trkpt lat="45.61921" lon="6.18946">
    <ele>1336.2800000000002</ele>
   </trkpt>
   <trkpt lat="45.619240000000005" lon="6.1894100000000005">
    <ele>1336.7300000000002</ele>
   </trkpt>
   <trkpt lat="45.619220000000006" lon="6.189330000000001">
    <ele>1338.14</ele>
   </trkpt>
   <trkpt lat="45.61919" lon="6.18932">
    <ele>1338.14</ele>
   </trkpt>
   <trkpt lat="45.61909000000001" lon="6.189330000000001">
    <ele>1338.14</ele>
   </trkpt>
   <trkpt lat="45.61898" lon="6.1893">
    <ele>1339.9500000000003</ele>
   </trkpt>
   <trkpt lat="45.61845" lon="6.189000000000001">
    <ele>1345.29</ele>
   </trkpt>
   <trkpt lat="45.618140000000004" lon="6.188960000000001">
    <ele>1350.2</ele>
   </trkpt>
   <trkpt lat="45.617920000000005" lon="6.18888">
    <ele>1353.2700000000002</ele>
   </trkpt>
   <trkpt lat="45.6176" lon="6.1888700000000005">
    <ele>1356.43</ele>
   </trkpt>
   <trkpt lat="45.6171" lon="6.18878">
    <ele>1365.63</ele>
   </trkpt>
   <trkpt lat="45.61648" lon="6.18857">
    <ele>1369.7700000000002</ele>
   </trkpt>
   <trkpt lat="45.61627000000001" lon="6.188440000000001">
    <ele>1372.7600000000002</ele>
   </trkpt>
   <trkpt lat="45.61601" lon="6.18843">
    <ele>1374.91</ele>
   </trkpt>
   <trkpt lat="45.61585" lon="6.18838">
    <ele>1377.2600000000002</ele>
   </trkpt>
   <trkpt lat="45.615680000000005" lon="6.18824">
    <ele>1378.3700000000001</ele>
   </trkpt>
   <trkpt lat="45.615410000000004" lon="6.18822">
    <ele>1382.51</ele>
   </trkpt>
   <trkpt lat="45.615230000000004" lon="6.188140000000001">
    <ele>1384.6900000000003</ele>
   </trkpt>
   <trkpt lat="45.61506000000001" lon="6.1881200000000005">
    <ele>1389.21</ele>
   </trkpt>
   <trkpt lat="45.61489" lon="6.18806">
    <ele>1389.21</ele>
   </trkpt>
   <trkpt lat="45.614790000000006" lon="6.188090000000001">
    <ele>1390.9600000000003</ele>
   </trkpt>
   <trkpt lat="45.614650000000005" lon="6.188250000000001">
    <ele>1393.14</ele>
   </trkpt>
   <trkpt lat="45.61439" lon="6.188300000000001">
    <ele>1396.22</ele>
   </trkpt>
   <trkpt lat="45.61424" lon="6.18836">
    <ele>1396.22</ele>
   </trkpt>
   <trkpt lat="45.614090000000004" lon="6.188470000000001">
    <ele>1400.6100000000001</ele>
   </trkpt>
   <trkpt lat="45.61384" lon="6.18853">
    <ele>1403.91</ele>
   </trkpt>
   <trkpt lat="45.613760000000006" lon="6.1885">
    <ele>1403.91</ele>
   </trkpt>
   <trkpt lat="45.61372" lon="6.188420000000001">
    <ele>1406.0</ele>
   </trkpt>
   <trkpt lat="45.61372" lon="6.18824">
    <ele>1406.0</ele>
   </trkpt>
   <trkpt lat="45.61368" lon="6.18815">
    <ele>1407.61</ele>
   </trkpt>
   <trkpt lat="45.61356000000001" lon="6.18808">
    <ele>1409.6200000000001</ele>
   </trkpt>
   <trkpt lat="45.61341" lon="6.188020000000001">
    <ele>1409.6200000000001</ele>
   </trkpt>
   <trkpt lat="45.61327000000001" lon="6.188040000000001">
    <ele>1409.6200000000001</ele>
   </trkpt>
   <trkpt lat="45.613040000000005" lon="6.188180000000001">
    <ele>1416.08</ele>
   </trkpt>
   <trkpt lat="45.61294" lon="6.1882">
    <ele>1417.1100000000001</ele>
   </trkpt>
   <trkpt lat="45.61280000000001" lon="6.18817">
    <ele>1418.0700000000002</ele>
   </trkpt>
   <trkpt lat="45.612610000000004" lon="6.1881">
    <ele>1420.3500000000001</ele>
   </trkpt>
   <trkpt lat="45.61238" lon="6.188110000000001">
    <ele>1422.8400000000001</ele>
   </trkpt>
   <trkpt lat="45.61193" lon="6.18806">
    <ele>1428.83</ele>
   </trkpt>
   <trkpt lat="45.611430000000006" lon="6.18794">
    <ele>1432.8700000000001</ele>
   </trkpt>
   <trkpt lat="45.611180000000004" lon="6.187950000000001">
    <ele>1435.3200000000002</ele>
   </trkpt>
   <trkpt lat="45.61108" lon="6.187970000000001">
    <ele>1436.15</ele>
   </trkpt>
   <trkpt lat="45.61101" lon="6.188040000000001">
    <ele>1436.15</ele>
   </trkpt>
   <trkpt lat="45.610850000000006" lon="6.188420000000001">
    <ele>1439.9700000000003</ele>
   </trkpt>
   <trkpt lat="45.61074000000001" lon="6.188490000000001">
    <ele>1440.6000000000001</ele>
   </trkpt>
   <trkpt lat="45.61066" lon="6.18848">
    <ele>1440.6000000000001</ele>
   </trkpt>
   <trkpt lat="45.61056000000001" lon="6.188440000000001">
    <ele>1442.0700000000002</ele>
   </trkpt>
   <trkpt lat="45.61039" lon="6.188510000000001">
    <ele>1442.73</ele>
   </trkpt>
   <trkpt lat="45.6103" lon="6.188510000000001">
    <ele>1445.3100000000002</ele>
   </trkpt>
   <trkpt lat="45.61027000000001" lon="6.188370000000001">
    <ele>1445.3100000000002</ele>
   </trkpt>
   <trkpt lat="45.61052" lon="6.1881200000000005">
    <ele>1447.42</ele>
   </trkpt>
   <trkpt lat="45.610620000000004" lon="6.187970000000001">
    <ele>1449.0</ele>
   </trkpt>
   <trkpt lat="45.610670000000006" lon="6.18777">
    <ele>1450.43</ele>
   </trkpt>
   <trkpt lat="45.610690000000005" lon="6.187550000000001">
    <ele>1451.2200000000003</ele>
   </trkpt>
   <trkpt lat="45.610850000000006" lon="6.18716">
    <ele>1454.2100000000003</ele>
   </trkpt>
   <trkpt lat="45.610850000000006" lon="6.18707">
    <ele>1455.0900000000001</ele>
   </trkpt>
   <trkpt lat="45.610910000000004" lon="6.18698">
    <ele>1456.92</ele>
   </trkpt>
   <trkpt lat="45.61119" lon="6.1869000000000005">
    <ele>1459.8500000000001</ele>
   </trkpt>
   <trkpt lat="45.611360000000005" lon="6.186750000000001">
    <ele>1459.8500000000001</ele>
   </trkpt>
   <trkpt lat="45.61139000000001" lon="6.18665">
    <ele>1462.02</ele>
   </trkpt>
   <trkpt lat="45.61139000000001" lon="6.186570000000001">
    <ele>1462.02</ele>
   </trkpt>
   <trkpt lat="45.611340000000006" lon="6.18648">
    <ele>1462.02</ele>
   </trkpt>
   <trkpt lat="45.61117" lon="6.18634">
    <ele>1465.2800000000002</ele>
   </trkpt>
   <trkpt lat="45.61097" lon="6.18627">
    <ele>1466.13</ele>
   </trkpt>
   <trkpt lat="45.610800000000005" lon="6.18613">
    <ele>1468.3300000000002</ele>
   </trkpt>
   <trkpt lat="45.610240000000005" lon="6.18555">
    <ele>1475.7900000000002</ele>
   </trkpt>
   <trkpt lat="45.610020000000006" lon="6.18529">
    <ele>1477.2500000000002</ele>
   </trkpt>
   <trkpt lat="45.60989000000001" lon="6.1852100000000005">
    <ele>1480.8700000000001</ele>
   </trkpt>
   <trkpt lat="45.60947" lon="6.18501">
    <ele>1485.81</ele>
   </trkpt>
   <trkpt lat="45.60929" lon="6.184850000000001">
    <ele>1485.81</ele>
   </trkpt>
   <trkpt lat="45.609140000000004" lon="6.184760000000001">
    <ele>1490.6000000000001</ele>
   </trkpt>
   <trkpt lat="45.60897000000001" lon="6.184620000000001">
    <ele>1492.79</ele>
   </trkpt>
   <trkpt lat="45.60866" lon="6.18451">
    <ele>1495.47</ele>
   </trkpt>
   <trkpt lat="45.608380000000004" lon="6.1844600000000005">
    <ele>1499.72</ele>
   </trkpt>
   <trkpt lat="45.60811" lon="6.1843">
    <ele>1501.65</ele>
   </trkpt>
   <trkpt lat="45.607940000000006" lon="6.18416">
    <ele>1503.44</ele>
   </trkpt>
   <trkpt lat="45.607620000000004" lon="6.183960000000001">
    <ele>1508.04</ele>
   </trkpt>
   <trkpt lat="45.60721" lon="6.18381">
    <ele>1512.8700000000001</ele>
   </trkpt>
   <trkpt lat="45.60683" lon="6.18369">
    <ele>1519.0700000000002</ele>
   </trkpt>
   <trkpt lat="45.60656" lon="6.1836400000000005">
    <ele>1520.16</ele>
   </trkpt>
   <trkpt lat="45.60647" lon="6.18365">
    <ele>1522.39</ele>
   </trkpt>
   <trkpt lat="45.60631" lon="6.18372">
    <ele>1523.44</ele>
   </trkpt>
   <trkpt lat="45.606190000000005" lon="6.1837100000000005">
    <ele>1524.45</ele>
   </trkpt>
   <trkpt lat="45.605970000000006" lon="6.18365">
    <ele>1527.67</ele>
   </trkpt>
   <trkpt lat="45.6058" lon="6.18365">
    <ele>1529.2700000000002</ele>
   </trkpt>
   <trkpt lat="45.605540000000005" lon="6.183540000000001">
    <ele>1531.7900000000002</ele>
   </trkpt>
   <trkpt lat="45.605290000000004" lon="6.183370000000001">
    <ele>1533.53</ele>
   </trkpt>
   <trkpt lat="45.60506" lon="6.18327">
    <ele>1534.79</ele>
   </trkpt>
   <trkpt lat="45.604780000000005" lon="6.183190000000001">
    <ele>1537.5100000000002</ele>
   </trkpt>
   <trkpt lat="45.604670000000006" lon="6.183190000000001">
    <ele>1538.5700000000002</ele>
   </trkpt>
   <trkpt lat="45.604780000000005" lon="6.183190000000001">
    <ele>1537.5100000000002</ele>
   </trkpt>
   <trkpt lat="45.60506" lon="6.18327">
    <ele>1534.79</ele>
   </trkpt>
   <trkpt lat="45.605290000000004" lon="6.183370000000001">
    <ele>1533.53</ele>
   </trkpt>
   <trkpt lat="45.605540000000005" lon="6.183540000000001">
    <ele>1531.7900000000002</ele>
   </trkpt>
   <trkpt lat="45.6058" lon="6.18365">
    <ele>1529.2700000000002</ele>
   </trkpt>
   <trkpt lat="45.605970000000006" lon="6.18365">
    <ele>1527.67</ele>
   </trkpt>
   <trkpt lat="45.606190000000005" lon="6.1837100000000005">
    <ele>1524.45</ele>
   </trkpt>
   <trkpt lat="45.60631" lon="6.18372">
    <ele>1523.44</ele>
   </trkpt>
   <trkpt lat="45.60647" lon="6.18365">
    <ele>1520.16</ele>
   </trkpt>
   <trkpt lat="45.60656" lon="6.1836400000000005">
    <ele>1520.16</ele>
   </trkpt>
   <trkpt lat="45.60683" lon="6.18369">
    <ele>1514.85</ele>
   </trkpt>
   <trkpt lat="45.60721" lon="6.18381">
    <ele>1512.8700000000001</ele>
   </trkpt>
   <trkpt lat="45.607620000000004" lon="6.183960000000001">
    <ele>1508.04</ele>
   </trkpt>
   <trkpt lat="45.607940000000006" lon="6.18416">
    <ele>1503.44</ele>
   </trkpt>
   <trkpt lat="45.60811" lon="6.1843">
    <ele>1501.65</ele>
   </trkpt>
   <trkpt lat="45.608380000000004" lon="6.1844600000000005">
    <ele>1499.72</ele>
   </trkpt>
   <trkpt lat="45.60866" lon="6.18451">
    <ele>1495.47</ele>
   </trkpt>
   <trkpt lat="45.60897000000001" lon="6.184620000000001">
    <ele>1492.79</ele>
   </trkpt>
   <trkpt lat="45.609140000000004" lon="6.184760000000001">
    <ele>1490.6000000000001</ele>
   </trkpt>
   <trkpt lat="45.60929" lon="6.184850000000001">
    <ele>1485.81</ele>
   </trkpt>
   <trkpt lat="45.60947" lon="6.18501">
    <ele>1485.81</ele>
   </trkpt>
   <trkpt lat="45.60989000000001" lon="6.1852100000000005">
    <ele>1480.8700000000001</ele>
   </trkpt>
   <trkpt lat="45.610020000000006" lon="6.18529">
    <ele>1477.2500000000002</ele>
   </trkpt>
   <trkpt lat="45.610240000000005" lon="6.18555">
    <ele>1475.7900000000002</ele>
   </trkpt>
   <trkpt lat="45.610800000000005" lon="6.18613">
    <ele>1468.3300000000002</ele>
   </trkpt>
   <trkpt lat="45.61097" lon="6.18627">
    <ele>1466.13</ele>
   </trkpt>
   <trkpt lat="45.61117" lon="6.18634">
    <ele>1465.2800000000002</ele>
   </trkpt>
   <trkpt lat="45.611340000000006" lon="6.18648">
    <ele>1462.02</ele>
   </trkpt>
   <trkpt lat="45.61139000000001" lon="6.186570000000001">
    <ele>1462.02</ele>
   </trkpt>
   <trkpt lat="45.61139000000001" lon="6.18665">
    <ele>1462.02</ele>
   </trkpt>
   <trkpt lat="45.611360000000005" lon="6.186750000000001">
    <ele>1459.8500000000001</ele>
   </trkpt>
   <trkpt lat="45.61119" lon="6.1869000000000005">
    <ele>1457.78</ele>
   </trkpt>
   <trkpt lat="45.610910000000004" lon="6.18698">
    <ele>1455.0900000000001</ele>
   </trkpt>
   <trkpt lat="45.610850000000006" lon="6.18707">
    <ele>1455.0900000000001</ele>
   </trkpt>
   <trkpt lat="45.610850000000006" lon="6.18716">
    <ele>1454.2100000000003</ele>
   </trkpt>
   <trkpt lat="45.610690000000005" lon="6.187550000000001">
    <ele>1451.2200000000003</ele>
   </trkpt>
   <trkpt lat="45.610670000000006" lon="6.18777">
    <ele>1450.43</ele>
   </trkpt>
   <trkpt lat="45.610620000000004" lon="6.187970000000001">
    <ele>1449.0</ele>
   </trkpt>
   <trkpt lat="45.61052" lon="6.1881200000000005">
    <ele>1447.42</ele>
   </trkpt>
   <trkpt lat="45.61027000000001" lon="6.188370000000001">
    <ele>1445.3100000000002</ele>
   </trkpt>
   <trkpt lat="45.6103" lon="6.188510000000001">
    <ele>1442.73</ele>
   </trkpt>
   <trkpt lat="45.61039" lon="6.188510000000001">
    <ele>1442.73</ele>
   </trkpt>
   <trkpt lat="45.61056000000001" lon="6.188440000000001">
    <ele>1442.0700000000002</ele>
   </trkpt>
   <trkpt lat="45.61066" lon="6.18848">
    <ele>1440.6000000000001</ele>
   </trkpt>
   <trkpt lat="45.61074000000001" lon="6.188490000000001">
    <ele>1440.6000000000001</ele>
   </trkpt>
   <trkpt lat="45.610850000000006" lon="6.188420000000001">
    <ele>1439.6200000000001</ele>
   </trkpt>
   <trkpt lat="45.61101" lon="6.188040000000001">
    <ele>1436.15</ele>
   </trkpt>
   <trkpt lat="45.61108" lon="6.187970000000001">
    <ele>1436.15</ele>
   </trkpt>
   <trkpt lat="45.611180000000004" lon="6.187950000000001">
    <ele>1435.3200000000002</ele>
   </trkpt>
   <trkpt lat="45.611430000000006" lon="6.18794">
    <ele>1432.8700000000001</ele>
   </trkpt>
   <trkpt lat="45.61193" lon="6.18806">
    <ele>1426.64</ele>
   </trkpt>
   <trkpt lat="45.61238" lon="6.188110000000001">
    <ele>1422.8400000000001</ele>
   </trkpt>
   <trkpt lat="45.612610000000004" lon="6.1881">
    <ele>1420.3500000000001</ele>
   </trkpt>
   <trkpt lat="45.61280000000001" lon="6.18817">
    <ele>1418.0700000000002</ele>
   </trkpt>
   <trkpt lat="45.61294" lon="6.1882">
    <ele>1417.1100000000001</ele>
   </trkpt>
   <trkpt lat="45.613040000000005" lon="6.188180000000001">
    <ele>1416.08</ele>
   </trkpt>
   <trkpt lat="45.61327000000001" lon="6.188040000000001">
    <ele>1409.6200000000001</ele>
   </trkpt>
   <trkpt lat="45.61341" lon="6.188020000000001">
    <ele>1409.6200000000001</ele>
   </trkpt>
   <trkpt lat="45.61356000000001" lon="6.18808">
    <ele>1409.6200000000001</ele>
   </trkpt>
   <trkpt lat="45.61368" lon="6.18815">
    <ele>1407.61</ele>
   </trkpt>
   <trkpt lat="45.61372" lon="6.18824">
    <ele>1406.0</ele>
   </trkpt>
   <trkpt lat="45.61372" lon="6.188420000000001">
    <ele>1406.0</ele>
   </trkpt>
   <trkpt lat="45.613760000000006" lon="6.1885">
    <ele>1403.91</ele>
   </trkpt>
   <trkpt lat="45.61384" lon="6.18853">
    <ele>1402.8400000000001</ele>
   </trkpt>
   <trkpt lat="45.614090000000004" lon="6.188470000000001">
    <ele>1400.6100000000001</ele>
   </trkpt>
   <trkpt lat="45.61424" lon="6.18836">
    <ele>1396.22</ele>
   </trkpt>
   <trkpt lat="45.61439" lon="6.188300000000001">
    <ele>1396.22</ele>
   </trkpt>
   <trkpt lat="45.614650000000005" lon="6.188250000000001">
    <ele>1393.14</ele>
   </trkpt>
   <trkpt lat="45.614790000000006" lon="6.188090000000001">
    <ele>1390.9600000000003</ele>
   </trkpt>
   <trkpt lat="45.61489" lon="6.18806">
    <ele>1389.21</ele>
   </trkpt>
   <trkpt lat="45.61506000000001" lon="6.1881200000000005">
    <ele>1389.21</ele>
   </trkpt>
   <trkpt lat="45.615230000000004" lon="6.188140000000001">
    <ele>1384.6900000000003</ele>
   </trkpt>
   <trkpt lat="45.615410000000004" lon="6.18822">
    <ele>1382.51</ele>
   </trkpt>
   <trkpt lat="45.615680000000005" lon="6.18824">
    <ele>1378.3700000000001</ele>
   </trkpt>
   <trkpt lat="45.61585" lon="6.18838">
    <ele>1377.2600000000002</ele>
   </trkpt>
   <trkpt lat="45.61601" lon="6.18843">
    <ele>1374.91</ele>
   </trkpt>
   <trkpt lat="45.61627000000001" lon="6.188440000000001">
    <ele>1372.7600000000002</ele>
   </trkpt>
   <trkpt lat="45.61648" lon="6.18857">
    <ele>1369.7700000000002</ele>
   </trkpt>
   <trkpt lat="45.6171" lon="6.18878">
    <ele>1365.63</ele>
   </trkpt>
   <trkpt lat="45.6176" lon="6.1888700000000005">
    <ele>1356.43</ele>
   </trkpt>
   <trkpt lat="45.617920000000005" lon="6.18888">
    <ele>1353.2700000000002</ele>
   </trkpt>
   <trkpt lat="45.618140000000004" lon="6.188960000000001">
    <ele>1350.2</ele>
   </trkpt>
   <trkpt lat="45.61845" lon="6.189000000000001">
    <ele>1345.29</ele>
   </trkpt>
   <trkpt lat="45.61898" lon="6.1893">
    <ele>1339.9500000000003</ele>
   </trkpt>
   <trkpt lat="45.61909000000001" lon="6.189330000000001">
    <ele>1338.14</ele>
   </trkpt>
   <trkpt lat="45.61919" lon="6.18932">
    <ele>1338.14</ele>
   </trkpt>
   <trkpt lat="45.619220000000006" lon="6.189330000000001">
    <ele>1336.7300000000002</ele>
   </trkpt>
   <trkpt lat="45.619240000000005" lon="6.1894100000000005">
    <ele>1336.7300000000002</ele>
   </trkpt>
   <trkpt lat="45.61921" lon="6.18946">
    <ele>1336.2800000000002</ele>
   </trkpt>
   <trkpt lat="45.61901" lon="6.18946">
    <ele>1334.18</ele>
   </trkpt>
   <trkpt lat="45.61882000000001" lon="6.18951">
    <ele>1331.8100000000002</ele>
   </trkpt>
   <trkpt lat="45.618550000000006" lon="6.1896700000000004">
    <ele>1327.8400000000001</ele>
   </trkpt>
   <trkpt lat="45.618520000000004" lon="6.18975">
    <ele>1327.8400000000001</ele>
   </trkpt>
   <trkpt lat="45.618480000000005" lon="6.190080000000001">
    <ele>1326.7600000000002</ele>
   </trkpt>
   <trkpt lat="45.618370000000006" lon="6.19054">
    <ele>1322.8600000000001</ele>
   </trkpt>
   <trkpt lat="45.618320000000004" lon="6.190600000000001">
    <ele>1319.2</ele>
   </trkpt>
   <trkpt lat="45.61816" lon="6.19066">
    <ele>1318.72</ele>
   </trkpt>
   <trkpt lat="45.61807" lon="6.19073">
    <ele>1317.88</ele>
   </trkpt>
   <trkpt lat="45.61804" lon="6.190880000000001">
    <ele>1317.22</ele>
   </trkpt>
   <trkpt lat="45.61811" lon="6.191280000000001">
    <ele>1314.89</ele>
   </trkpt>
   <trkpt lat="45.618170000000006" lon="6.1913800000000005">
    <ele>1313.97</ele>
   </trkpt>
   <trkpt lat="45.61826000000001" lon="6.191450000000001">
    <ele>1312.03</ele>
   </trkpt>
   <trkpt lat="45.6184" lon="6.191520000000001">
    <ele>1310.98</ele>
   </trkpt>
   <trkpt lat="45.618680000000005" lon="6.19181">
    <ele>1304.9400000000003</ele>
   </trkpt>
   <trkpt lat="45.61900000000001" lon="6.191980000000001">
    <ele>1301.25</ele>
   </trkpt>
   <trkpt lat="45.61929000000001" lon="6.192060000000001">
    <ele>1298.51</ele>
   </trkpt>
   <trkpt lat="45.619460000000004" lon="6.19214">
    <ele>1296.3500000000001</ele>
   </trkpt>
   <trkpt lat="45.619670000000006" lon="6.192150000000001">
    <ele>1294.1200000000001</ele>
   </trkpt>
   <trkpt lat="45.620110000000004" lon="6.1922500000000005">
    <ele>1289.94</ele>
   </trkpt>
   <trkpt lat="45.62057" lon="6.192270000000001">
    <ele>1284.4</ele>
   </trkpt>
   <trkpt lat="45.62078" lon="6.192310000000001">
    <ele>1281.3300000000002</ele>
   </trkpt>
   <trkpt lat="45.62098" lon="6.1923">
    <ele>1280.37</ele>
   </trkpt>
   <trkpt lat="45.6212" lon="6.19235">
    <ele>1277.8100000000002</ele>
   </trkpt>
   <trkpt lat="45.62138" lon="6.19226">
    <ele>1276.45</ele>
   </trkpt>
   <trkpt lat="45.62145" lon="6.192270000000001">
    <ele>1275.86</ele>
   </trkpt>
   <trkpt lat="45.62174" lon="6.192430000000001">
    <ele>1273.23</ele>
   </trkpt>
   <trkpt lat="45.62219" lon="6.192590000000001">
    <ele>1270.94</ele>
   </trkpt>
   <trkpt lat="45.622600000000006" lon="6.1928">
    <ele>1267.4500000000003</ele>
   </trkpt>
   <trkpt lat="45.62276000000001" lon="6.19284">
    <ele>1265.7800000000002</ele>
   </trkpt>
   <trkpt lat="45.62288" lon="6.19289">
    <ele>1265.7800000000002</ele>
   </trkpt>
   <trkpt lat="45.62297" lon="6.1930000000000005">
    <ele>1264.15</ele>
   </trkpt>
   <trkpt lat="45.623090000000005" lon="6.19329">
    <ele>1261.83</ele>
   </trkpt>
   <trkpt lat="45.62313" lon="6.19334">
    <ele>1261.83</ele>
   </trkpt>
   <trkpt lat="45.62324" lon="6.19336">
    <ele>1261.5200000000002</ele>
   </trkpt>
   <trkpt lat="45.6233" lon="6.193300000000001">
    <ele>1260.97</ele>
   </trkpt>
   <trkpt lat="45.62332000000001" lon="6.193250000000001">
    <ele>1260.97</ele>
   </trkpt>
   <trkpt lat="45.62332000000001" lon="6.1931">
    <ele>1259.73</ele>
   </trkpt>
   <trkpt lat="45.623270000000005" lon="6.192990000000001">
    <ele>1259.73</ele>
   </trkpt>
   <trkpt lat="45.6231" lon="6.192810000000001">
    <ele>1258.28</ele>
   </trkpt>
   <trkpt lat="45.62299" lon="6.192640000000001">
    <ele>1256.3500000000001</ele>
   </trkpt>
   <trkpt lat="45.622870000000006" lon="6.19214">
    <ele>1254.3300000000002</ele>
   </trkpt>
   <trkpt lat="45.62308" lon="6.192380000000001">
    <ele>1251.0</ele>
   </trkpt>
   <trkpt lat="45.62359000000001" lon="6.192620000000001">
    <ele>1245.0100000000002</ele>
   </trkpt>
   <trkpt lat="45.62386" lon="6.19268">
    <ele>1243.57</ele>
   </trkpt>
   <trkpt lat="45.62411" lon="6.19282">
    <ele>1240.0200000000002</ele>
   </trkpt>
   <trkpt lat="45.624190000000006" lon="6.19284">
    <ele>1240.0200000000002</ele>
   </trkpt>
   <trkpt lat="45.624430000000004" lon="6.19296">
    <ele>1236.43</ele>
   </trkpt>
   <trkpt lat="45.62463" lon="6.193090000000001">
    <ele>1233.98</ele>
   </trkpt>
   <trkpt lat="45.62487" lon="6.19331">
    <ele>1229.88</ele>
   </trkpt>
   <trkpt lat="45.625220000000006" lon="6.193510000000001">
    <ele>1219.3400000000001</ele>
   </trkpt>
   <trkpt lat="45.625350000000005" lon="6.1935">
    <ele>1219.3400000000001</ele>
   </trkpt>
   <trkpt lat="45.62563" lon="6.1935400000000005">
    <ele>1211.26</ele>
   </trkpt>
   <trkpt lat="45.62579" lon="6.1935">
    <ele>1207.5500000000002</ele>
   </trkpt>
   <trkpt lat="45.625980000000006" lon="6.19341">
    <ele>1203.1100000000001</ele>
   </trkpt>
   <trkpt lat="45.626090000000005" lon="6.193280000000001">
    <ele>1200.39</ele>
   </trkpt>
   <trkpt lat="45.62621" lon="6.193230000000001">
    <ele>1190.1200000000001</ele>
   </trkpt>
   <trkpt lat="45.62641000000001" lon="6.19308">
    <ele>1187.3400000000001</ele>
   </trkpt>
   <trkpt lat="45.626520000000006" lon="6.19312">
    <ele>1184.7800000000002</ele>
   </trkpt>
   <trkpt lat="45.62664" lon="6.193200000000001">
    <ele>1179.8000000000002</ele>
   </trkpt>
   <trkpt lat="45.627" lon="6.19334">
    <ele>1172.1200000000001</ele>
   </trkpt>
   <trkpt lat="45.62717000000001" lon="6.19329">
    <ele>1169.48</ele>
   </trkpt>
   <trkpt lat="45.62745" lon="6.19324">
    <ele>1156.8500000000001</ele>
   </trkpt>
   <trkpt lat="45.62764000000001" lon="6.19315">
    <ele>1151.68</ele>
   </trkpt>
   <trkpt lat="45.6278" lon="6.19315">
    <ele>1148.67</ele>
   </trkpt>
   <trkpt lat="45.62801" lon="6.19329">
    <ele>1145.3200000000002</ele>
   </trkpt>
   <trkpt lat="45.628280000000004" lon="6.193370000000001">
    <ele>1137.72</ele>
   </trkpt>
   <trkpt lat="45.62863" lon="6.193560000000001">
    <ele>1132.38</ele>
   </trkpt>
   <trkpt lat="45.62904" lon="6.193890000000001">
    <ele>1128.23</ele>
   </trkpt>
   <trkpt lat="45.62917" lon="6.1939400000000004">
    <ele>1126.68</ele>
   </trkpt>
   <trkpt lat="45.629360000000005" lon="6.1940800000000005">
    <ele>1122.9600000000003</ele>
   </trkpt>
   <trkpt lat="45.62966" lon="6.19416">
    <ele>1116.6200000000001</ele>
   </trkpt>
   <trkpt lat="45.62995" lon="6.194400000000001">
    <ele>1111.8600000000001</ele>
   </trkpt>
   <trkpt lat="45.63024" lon="6.1947">
    <ele>1106.95</ele>
   </trkpt>
   <trkpt lat="45.6304" lon="6.1948300000000005">
    <ele>1105.14</ele>
   </trkpt>
   <trkpt lat="45.630500000000005" lon="6.19486">
    <ele>1100.3500000000001</ele>
   </trkpt>
   <trkpt lat="45.630590000000005" lon="6.1948300000000005">
    <ele>1097.23</ele>
   </trkpt>
   <trkpt lat="45.63067" lon="6.194780000000001">
    <ele>1096.27</ele>
   </trkpt>
   <trkpt lat="45.630700000000004" lon="6.1947">
    <ele>1095.46</ele>
   </trkpt>
   <trkpt lat="45.63069" lon="6.19451">
    <ele>1094.1100000000001</ele>
   </trkpt>
   <trkpt lat="45.6306" lon="6.19406">
    <ele>1091.28</ele>
   </trkpt>
   <trkpt lat="45.630680000000005" lon="6.19404">
    <ele>1089.7100000000003</ele>
   </trkpt>
   <trkpt lat="45.63074" lon="6.19399">
    <ele>1088.3100000000002</ele>
   </trkpt>
   <trkpt lat="45.630970000000005" lon="6.19416">
    <ele>1082.6200000000001</ele>
   </trkpt>
   <trkpt lat="45.6311" lon="6.194170000000001">
    <ele>1078.0800000000002</ele>
   </trkpt>
   <trkpt lat="45.63121" lon="6.19423">
    <ele>1078.0800000000002</ele>
   </trkpt>
   <trkpt lat="45.631280000000004" lon="6.194310000000001">
    <ele>1078.0800000000002</ele>
   </trkpt>
   <trkpt lat="45.631460000000004" lon="6.19444">
    <ele>1071.3300000000002</ele>
   </trkpt>
   <trkpt lat="45.63159" lon="6.19444">
    <ele>1065.39</ele>
   </trkpt>
   <trkpt lat="45.631660000000004" lon="6.19446">
    <ele>1065.39</ele>
   </trkpt>
   <trkpt lat="45.631780000000006" lon="6.194420000000001">
    <ele>1057.49</ele>
   </trkpt>
   <trkpt lat="45.63203" lon="6.19446">
    <ele>1049.8500000000001</ele>
   </trkpt>
   <trkpt lat="45.63217" lon="6.19451">
    <ele>1049.8500000000001</ele>
   </trkpt>
   <trkpt lat="45.632450000000006" lon="6.19453">
    <ele>1041.59</ele>
   </trkpt>
   <trkpt lat="45.632600000000004" lon="6.19456">
    <ele>1034.5900000000001</ele>
   </trkpt>
   <trkpt lat="45.63270000000001" lon="6.1946200000000005">
    <ele>1033.08</ele>
   </trkpt>
   <trkpt lat="45.632740000000005" lon="6.194710000000001">
    <ele>1026.8000000000002</ele>
   </trkpt>
   <trkpt lat="45.63268" lon="6.19484">
    <ele>1026.8000000000002</ele>
   </trkpt>
   <trkpt lat="45.632600000000004" lon="6.194850000000001">
    <ele>1020.7000000000002</ele>
   </trkpt>
   <trkpt lat="45.63251" lon="6.194960000000001">
    <ele>1017.7100000000002</ele>
   </trkpt>
   <trkpt lat="45.6325" lon="6.19507">
    <ele>1017.7100000000002</ele>
   </trkpt>
   <trkpt lat="45.63268" lon="6.195180000000001">
    <ele>1009.12</ele>
   </trkpt>
   <trkpt lat="45.6328" lon="6.195180000000001">
    <ele>1006.3600000000001</ele>
   </trkpt>
   <trkpt lat="45.633210000000005" lon="6.19528">
    <ele>993.2700000000001</ele>
   </trkpt>
   <trkpt lat="45.63333" lon="6.195410000000001">
    <ele>990.5200000000001</ele>
   </trkpt>
   <trkpt lat="45.63351" lon="6.19552">
    <ele>980.7900000000001</ele>
   </trkpt>
   <trkpt lat="45.63364000000001" lon="6.195640000000001">
    <ele>977.96</ele>
   </trkpt>
   <trkpt lat="45.633790000000005" lon="6.19603">
    <ele>967.1800000000001</ele>
   </trkpt>
   <trkpt lat="45.63425" lon="6.196370000000001">
    <ele>953.4800000000001</ele>
   </trkpt>
   <trkpt lat="45.63474" lon="6.19678">
    <ele>933.6600000000001</ele>
   </trkpt>
   <trkpt lat="45.635160000000006" lon="6.1969">
    <ele>922.63</ele>
   </trkpt>
   <trkpt lat="45.63542" lon="6.19688">
    <ele>915.9100000000001</ele>
   </trkpt>
   <trkpt lat="45.63491500033158" lon="6.197200002956612">
    <ele>913.0600000000001</ele>
   </trkpt>
   <trkpt lat="45.63441" lon="6.197520000000001">
    <ele>908.5600000000001</ele>
   </trkpt>
   <trkpt lat="45.63440000000001" lon="6.19761">
    <ele>908.51</ele>
   </trkpt>
   <trkpt lat="45.634440000000005" lon="6.19775">
    <ele>908.5300000000001</ele>
   </trkpt>
   <trkpt lat="45.63452" lon="6.1978800000000005">
    <ele>908.3500000000001</ele>
   </trkpt>
   <trkpt lat="45.634530000000005" lon="6.19798">
    <ele>908.1600000000001</ele>
   </trkpt>
   <trkpt lat="45.6345" lon="6.198250000000001">
    <ele>906.4200000000001</ele>
   </trkpt>
   <trkpt lat="45.63445" lon="6.19847">
    <ele>905.48</ele>
   </trkpt>
   <trkpt lat="45.63445" lon="6.198530000000001">
    <ele>905.48</ele>
   </trkpt>
   <trkpt lat="45.63452" lon="6.198810000000001">
    <ele>905.51</ele>
   </trkpt>
   <trkpt lat="45.634600000000006" lon="6.1989">
    <ele>905.69</ele>
   </trkpt>
   <trkpt lat="45.634690000000006" lon="6.19897">
    <ele>905.72</ele>
   </trkpt>
   <trkpt lat="45.63474" lon="6.199050000000001">
    <ele>905.6400000000001</ele>
   </trkpt>
   <trkpt lat="45.63488" lon="6.1992">
    <ele>905.08</ele>
   </trkpt>
   <trkpt lat="45.63561000000001" lon="6.199840000000001">
    <ele>904.87</ele>
   </trkpt>
   <trkpt lat="45.63584" lon="6.200010000000001">
    <ele>905.2500000000001</ele>
   </trkpt>
   <trkpt lat="45.63626000000001" lon="6.200200000000001">
    <ele>906.8000000000001</ele>
   </trkpt>
   <trkpt lat="45.636340000000004" lon="6.200290000000001">
    <ele>906.8000000000001</ele>
   </trkpt>
   <trkpt lat="45.636430000000004" lon="6.200410000000001">
    <ele>907.0600000000001</ele>
   </trkpt>
   <trkpt lat="45.636500000000005" lon="6.20073">
    <ele>906.3500000000001</ele>
   </trkpt>
   <trkpt lat="45.63665" lon="6.20094">
    <ele>904.9</ele>
   </trkpt>
   <trkpt lat="45.63669" lon="6.20096">
    <ele>904.05</ele>
   </trkpt>
   <trkpt lat="45.63682000000001" lon="6.201200000000001">
    <ele>902.24</ele>
   </trkpt>
   <trkpt lat="45.637010000000004" lon="6.201350000000001">
    <ele>900.02</ele>
   </trkpt>
   <trkpt lat="45.637100000000004" lon="6.20148">
    <ele>898.4300000000001</ele>
   </trkpt>
   <trkpt lat="45.63716" lon="6.2016100000000005">
    <ele>896.7600000000001</ele>
   </trkpt>
   <trkpt lat="45.63723" lon="6.20192">
    <ele>895.0300000000001</ele>
   </trkpt>
   <trkpt lat="45.63743" lon="6.20227">
    <ele>889.82</ele>
   </trkpt>
   <trkpt lat="45.63767000000001" lon="6.202570000000001">
    <ele>885.65</ele>
   </trkpt>
   <trkpt lat="45.63779" lon="6.202640000000001">
    <ele>884.0400000000001</ele>
   </trkpt>
   <trkpt lat="45.63785" lon="6.2027">
    <ele>883.08</ele>
   </trkpt>
   <trkpt lat="45.6381" lon="6.203250000000001">
    <ele>880.2700000000001</ele>
   </trkpt>
   <trkpt lat="45.63823000000001" lon="6.203600000000001">
    <ele>875.75</ele>
   </trkpt>
   <trkpt lat="45.63879" lon="6.204470000000001">
    <ele>872.1800000000001</ele>
   </trkpt>
   <trkpt lat="45.63891" lon="6.204720000000001">
    <ele>873.99</ele>
   </trkpt>
  </trkseg>
 </trk>
</gpx>
