<?xml version="1.0" encoding="UTF-8"?>
<gpx creator="StravaGPX" version="1.1" xmlns="http://www.topografix.com/GPX/1/1" xmlns:xsi="http://www.w3.org/2001/XMLSchema-instance" xsi:schemaLocation="http://www.topografix.com/GPX/1/1 http://www.topografix.com/GPX/1/1/gpx.xsd">
 <metadata>
  <name>14 2000 section 4</name>
  <author>
   <name>emilien Marion</name>
   <link href="https://www.strava.com/athletes/79224240"/>
  </author>
  <copyright author="OpenStreetMap contributors">
   <year>2020</year>
   <license>https://www.openstreetmap.org/copyright</license>
  </copyright>
  <link href="https://www.strava.com/routes/3492913473706070844"/>
 </metadata>
 <trk>
  <name>14 2000 section 4</name>
  <link href="https://www.strava.com/routes/3492913473706070844"/>
  <type>running</type>
  <trkseg>
   <trkpt lat="45.645610000000005" lon="6.23655">
    <ele>1013.9599999999999</ele>
   </trkpt>
   <trkpt lat="45.64562" lon="6.2361200000000006">
    <ele>1012.5600000000001</ele>
   </trkpt>
   <trkpt lat="45.64553000219176" lon="6.235414999052535">
    <ele>1010.75</ele>
   </trkpt>
   <trkpt lat="45.64544" lon="6.234710000000001">
    <ele>1008.34</ele>
   </trkpt>
   <trkpt lat="45.645340000000004" lon="6.234330000000001">
    <ele>1006.1600000000002</ele>
   </trkpt>
   <trkpt lat="45.64519000000001" lon="6.2336100000000005">
    <ele>1002.8000000000001</ele>
   </trkpt>
   <trkpt lat="45.645070000000004" lon="6.23284">
    <ele>998.5600000000001</ele>
   </trkpt>
   <trkpt lat="45.64504" lon="6.232240000000001">
    <ele>996.0300000000001</ele>
   </trkpt>
   <trkpt lat="45.645050000000005" lon="6.231750000000001">
    <ele>994.7800000000001</ele>
   </trkpt>
   <trkpt lat="45.645140000000005" lon="6.231400000000001">
    <ele>992.6400000000001</ele>
   </trkpt>
   <trkpt lat="45.645210000000006" lon="6.230950000000001">
    <ele>990.6</ele>
   </trkpt>
   <trkpt lat="45.64524" lon="6.230530000000001">
    <ele>985.9200000000001</ele>
   </trkpt>
   <trkpt lat="45.64517" lon="6.22993">
    <ele>982.9700000000001</ele>
   </trkpt>
   <trkpt lat="45.64518" lon="6.22963">
    <ele>979.6500000000001</ele>
   </trkpt>
   <trkpt lat="45.645120000000006" lon="6.229470000000001">
    <ele>978.7800000000001</ele>
   </trkpt>
   <trkpt lat="45.64502" lon="6.2293400000000005">
    <ele>978.5100000000001</ele>
   </trkpt>
   <trkpt lat="45.645" lon="6.22925">
    <ele>977.7300000000001</ele>
   </trkpt>
   <trkpt lat="45.645" lon="6.228980000000001">
    <ele>976.35</ele>
   </trkpt>
   <trkpt lat="45.64493" lon="6.22914">
    <ele>976.4100000000001</ele>
   </trkpt>
   <trkpt lat="45.644870000000004" lon="6.22935">
    <ele>977.59</ele>
   </trkpt>
   <trkpt lat="45.644830000000006" lon="6.2293400000000005">
    <ele>978.0500000000001</ele>
   </trkpt>
   <trkpt lat="45.644800000000004" lon="6.22923">
    <ele>978.57</ele>
   </trkpt>
   <trkpt lat="45.644780000000004" lon="6.228790000000001">
    <ele>983.2700000000001</ele>
   </trkpt>
   <trkpt lat="45.64466" lon="6.228510000000001">
    <ele>985.74</ele>
   </trkpt>
   <trkpt lat="45.644690000000004" lon="6.22827">
    <ele>988.08</ele>
   </trkpt>
   <trkpt lat="45.644650000000006" lon="6.2278400000000005">
    <ele>992.9300000000001</ele>
   </trkpt>
   <trkpt lat="45.64455" lon="6.227670000000001">
    <ele>997.01</ele>
   </trkpt>
   <trkpt lat="45.64446" lon="6.227790000000001">
    <ele>999.9100000000001</ele>
   </trkpt>
   <trkpt lat="45.644210001584426" lon="6.2284050029055695">
    <ele>1014.4699999999999</ele>
   </trkpt>
   <trkpt lat="45.64396000000001" lon="6.22902">
    <ele>1029.92</ele>
   </trkpt>
   <trkpt lat="45.643890000000006" lon="6.22897">
    <ele>1029.92</ele>
   </trkpt>
   <trkpt lat="45.64387000000001" lon="6.2287300000000005">
    <ele>1035.44</ele>
   </trkpt>
   <trkpt lat="45.64358000000001" lon="6.22817">
    <ele>1052.5600000000002</ele>
   </trkpt>
   <trkpt lat="45.643190000000004" lon="6.227290000000001">
    <ele>1071.8500000000001</ele>
   </trkpt>
   <trkpt lat="45.642960002241" lon="6.226564996859982">
    <ele>1092.42</ele>
   </trkpt>
   <trkpt lat="45.64273" lon="6.225840000000001">
    <ele>1107.99</ele>
   </trkpt>
   <trkpt lat="45.642630000000004" lon="6.225670000000001">
    <ele>1112.8600000000001</ele>
   </trkpt>
   <trkpt lat="45.64265" lon="6.22611">
    <ele>1121.6000000000001</ele>
   </trkpt>
   <trkpt lat="45.64257000238231" lon="6.226850001116356">
    <ele>1135.5000000000002</ele>
   </trkpt>
   <trkpt lat="45.64249" lon="6.22759">
    <ele>1145.58</ele>
   </trkpt>
   <trkpt lat="45.642300000000006" lon="6.2282">
    <ele>1161.3300000000002</ele>
   </trkpt>
   <trkpt lat="45.64224" lon="6.2281">
    <ele>1163.43</ele>
   </trkpt>
   <trkpt lat="45.6422" lon="6.22782">
    <ele>1168.3000000000002</ele>
   </trkpt>
   <trkpt lat="45.64219000000001" lon="6.2275100000000005">
    <ele>1174.15</ele>
   </trkpt>
   <trkpt lat="45.64204" lon="6.226990000000001">
    <ele>1182.5</ele>
   </trkpt>
   <trkpt lat="45.64179" lon="6.226470000000001">
    <ele>1196.1200000000001</ele>
   </trkpt>
   <trkpt lat="45.64164" lon="6.2262">
    <ele>1202.18</ele>
   </trkpt>
   <trkpt lat="45.641600000000004" lon="6.22693">
    <ele>1209.16</ele>
   </trkpt>
   <trkpt lat="45.641560000000005" lon="6.226960000000001">
    <ele>1217.13</ele>
   </trkpt>
   <trkpt lat="45.641380000000005" lon="6.22658">
    <ele>1223.0100000000002</ele>
   </trkpt>
   <trkpt lat="45.641010000700156" lon="6.226169997255708">
    <ele>1235.84</ele>
   </trkpt>
   <trkpt lat="45.640640000000005" lon="6.22576">
    <ele>1243.8700000000001</ele>
   </trkpt>
   <trkpt lat="45.640350000000005" lon="6.2252">
    <ele>1233.68</ele>
   </trkpt>
   <trkpt lat="45.64040000000001" lon="6.224920000000001">
    <ele>1230.25</ele>
   </trkpt>
   <trkpt lat="45.640910000000005" lon="6.223960000000001">
    <ele>1223.6100000000001</ele>
   </trkpt>
   <trkpt lat="45.640950000000004" lon="6.223700000000001">
    <ele>1222.99</ele>
   </trkpt>
   <trkpt lat="45.64097" lon="6.223630000000001">
    <ele>1222.8300000000002</ele>
   </trkpt>
   <trkpt lat="45.64094" lon="6.223330000000001">
    <ele>1222.72</ele>
   </trkpt>
   <trkpt lat="45.64065" lon="6.222910000000001">
    <ele>1222.52</ele>
   </trkpt>
   <trkpt lat="45.640530000000005" lon="6.2225">
    <ele>1221.87</ele>
   </trkpt>
   <trkpt lat="45.640440000000005" lon="6.22212">
    <ele>1220.76</ele>
   </trkpt>
   <trkpt lat="45.64047" lon="6.221690000000001">
    <ele>1219.69</ele>
   </trkpt>
   <trkpt lat="45.64032" lon="6.22081">
    <ele>1217.84</ele>
   </trkpt>
   <trkpt lat="45.64049000000001" lon="6.2205200000000005">
    <ele>1217.1000000000001</ele>
   </trkpt>
   <trkpt lat="45.64038" lon="6.219900000000001">
    <ele>1217.6</ele>
   </trkpt>
   <trkpt lat="45.64036" lon="6.21973">
    <ele>1217.78</ele>
   </trkpt>
   <trkpt lat="45.639976671919555" lon="6.218956656156164">
    <ele>1226.19</ele>
   </trkpt>
   <trkpt lat="45.639593338621424" lon="6.2181833228939745">
    <ele>1234.79</ele>
   </trkpt>
   <trkpt lat="45.639210000000006" lon="6.21741">
    <ele>1242.3500000000001</ele>
   </trkpt>
   <trkpt lat="45.6387250020688" lon="6.21671999401608">
    <ele>1250.72</ele>
   </trkpt>
   <trkpt lat="45.63824" lon="6.216030000000001">
    <ele>1259.68</ele>
   </trkpt>
   <trkpt lat="45.6379" lon="6.215090000000001">
    <ele>1266.3000000000002</ele>
   </trkpt>
   <trkpt lat="45.637600000000006" lon="6.2146300000000005">
    <ele>1271.74</ele>
   </trkpt>
   <trkpt lat="45.636950000000006" lon="6.214600000000001">
    <ele>1278.91</ele>
   </trkpt>
   <trkpt lat="45.63674" lon="6.21452">
    <ele>1280.82</ele>
   </trkpt>
   <trkpt lat="45.63667" lon="6.214300000000001">
    <ele>1283.5100000000002</ele>
   </trkpt>
   <trkpt lat="45.636480000000006" lon="6.2142100000000005">
    <ele>1285.97</ele>
   </trkpt>
   <trkpt lat="45.63644" lon="6.214130000000001">
    <ele>1286.54</ele>
   </trkpt>
   <trkpt lat="45.63626000165961" lon="6.213504997838214">
    <ele>1293.0600000000002</ele>
   </trkpt>
   <trkpt lat="45.63608000000001" lon="6.21288">
    <ele>1296.8500000000001</ele>
   </trkpt>
   <trkpt lat="45.63577" lon="6.21229">
    <ele>1303.23</ele>
   </trkpt>
   <trkpt lat="45.635580000000004" lon="6.211570000000001">
    <ele>1308.91</ele>
   </trkpt>
   <trkpt lat="45.63543000000001" lon="6.21119">
    <ele>1313.49</ele>
   </trkpt>
   <trkpt lat="45.635045000973776" lon="6.210739997014127">
    <ele>1317.5100000000002</ele>
   </trkpt>
   <trkpt lat="45.634660000000004" lon="6.2102900000000005">
    <ele>1322.39</ele>
   </trkpt>
   <trkpt lat="45.634570000000004" lon="6.21016">
    <ele>1323.77</ele>
   </trkpt>
   <trkpt lat="45.63449000000001" lon="6.2103">
    <ele>1328.1100000000001</ele>
   </trkpt>
   <trkpt lat="45.63423" lon="6.21053">
    <ele>1339.15</ele>
   </trkpt>
   <trkpt lat="45.634220000000006" lon="6.210610000000001">
    <ele>1342.48</ele>
   </trkpt>
   <trkpt lat="45.634130000000006" lon="6.2107">
    <ele>1346.0200000000002</ele>
   </trkpt>
   <trkpt lat="45.634040000000006" lon="6.210960000000001">
    <ele>1353.8600000000001</ele>
   </trkpt>
   <trkpt lat="45.634370000000004" lon="6.210940000000001">
    <ele>1365.69</ele>
   </trkpt>
   <trkpt lat="45.634150000000005" lon="6.2113000000000005">
    <ele>1375.8300000000002</ele>
   </trkpt>
   <trkpt lat="45.63412" lon="6.21142">
    <ele>1381.4400000000003</ele>
   </trkpt>
   <trkpt lat="45.63432" lon="6.21138">
    <ele>1391.07</ele>
   </trkpt>
   <trkpt lat="45.63448" lon="6.2115800000000005">
    <ele>1394.32</ele>
   </trkpt>
   <trkpt lat="45.634220000000006" lon="6.2118400000000005">
    <ele>1408.9600000000003</ele>
   </trkpt>
   <trkpt lat="45.634460000000004" lon="6.212000000000001">
    <ele>1415.21</ele>
   </trkpt>
   <trkpt lat="45.63449000000001" lon="6.212110000000001">
    <ele>1420.23</ele>
   </trkpt>
   <trkpt lat="45.63438000000001" lon="6.212180000000001">
    <ele>1425.46</ele>
   </trkpt>
   <trkpt lat="45.63414" lon="6.2125">
    <ele>1432.95</ele>
   </trkpt>
   <trkpt lat="45.63392" lon="6.213150000000001">
    <ele>1442.2700000000002</ele>
   </trkpt>
   <trkpt lat="45.633950000000006" lon="6.213290000000001">
    <ele>1447.8600000000001</ele>
   </trkpt>
   <trkpt lat="45.634080000000004" lon="6.2131300000000005">
    <ele>1451.42</ele>
   </trkpt>
   <trkpt lat="45.634150000000005" lon="6.213100000000001">
    <ele>1452.7500000000002</ele>
   </trkpt>
   <trkpt lat="45.63423" lon="6.213190000000001">
    <ele>1458.44</ele>
   </trkpt>
   <trkpt lat="45.634260000000005" lon="6.21344">
    <ele>1462.28</ele>
   </trkpt>
   <trkpt lat="45.63407" lon="6.2139500000000005">
    <ele>1471.87</ele>
   </trkpt>
   <trkpt lat="45.63389" lon="6.21454">
    <ele>1483.96</ele>
   </trkpt>
   <trkpt lat="45.633770000000005" lon="6.214700000000001">
    <ele>1487.45</ele>
   </trkpt>
   <trkpt lat="45.634080000000004" lon="6.21461">
    <ele>1497.3100000000002</ele>
   </trkpt>
   <trkpt lat="45.63420000000001" lon="6.214700000000001">
    <ele>1501.71</ele>
   </trkpt>
   <trkpt lat="45.634220000000006" lon="6.214860000000001">
    <ele>1501.71</ele>
   </trkpt>
   <trkpt lat="45.63420000000001" lon="6.21511">
    <ele>1506.94</ele>
   </trkpt>
   <trkpt lat="45.634150000000005" lon="6.215090000000001">
    <ele>1509.27</ele>
   </trkpt>
   <trkpt lat="45.63409" lon="6.215120000000001">
    <ele>1509.27</ele>
   </trkpt>
   <trkpt lat="45.63393000000001" lon="6.215280000000001">
    <ele>1515.6000000000001</ele>
   </trkpt>
   <trkpt lat="45.63394" lon="6.215280000000001">
    <ele>1515.7500000000002</ele>
   </trkpt>
   <trkpt lat="45.63374" lon="6.21546">
    <ele>1521.1000000000001</ele>
   </trkpt>
   <trkpt lat="45.633790000000005" lon="6.21562">
    <ele>1523.65</ele>
   </trkpt>
   <trkpt lat="45.633900000000004" lon="6.21567">
    <ele>1529.8200000000002</ele>
   </trkpt>
   <trkpt lat="45.6338" lon="6.21579">
    <ele>1532.6000000000001</ele>
   </trkpt>
   <trkpt lat="45.63362" lon="6.216060000000001">
    <ele>1539.7800000000002</ele>
   </trkpt>
   <trkpt lat="45.63327" lon="6.216200000000001">
    <ele>1544.69</ele>
   </trkpt>
   <trkpt lat="45.633010000000006" lon="6.21635">
    <ele>1549.43</ele>
   </trkpt>
   <trkpt lat="45.63297" lon="6.216480000000001">
    <ele>1556.03</ele>
   </trkpt>
   <trkpt lat="45.63286" lon="6.2171400000000006">
    <ele>1566.98</ele>
   </trkpt>
   <trkpt lat="45.63295" lon="6.21703">
    <ele>1573.5500000000002</ele>
   </trkpt>
   <trkpt lat="45.63302" lon="6.2170000000000005">
    <ele>1573.5500000000002</ele>
   </trkpt>
   <trkpt lat="45.633030000000005" lon="6.217060000000001">
    <ele>1573.5500000000002</ele>
   </trkpt>
   <trkpt lat="45.63318" lon="6.21696">
    <ele>1581.88</ele>
   </trkpt>
   <trkpt lat="45.6332" lon="6.217060000000001">
    <ele>1583.89</ele>
   </trkpt>
   <trkpt lat="45.633250000000004" lon="6.2170700000000005">
    <ele>1583.89</ele>
   </trkpt>
   <trkpt lat="45.633280000000006" lon="6.21712">
    <ele>1594.5200000000002</ele>
   </trkpt>
   <trkpt lat="45.63333" lon="6.217130000000001">
    <ele>1594.5200000000002</ele>
   </trkpt>
   <trkpt lat="45.63335000000001" lon="6.21717">
    <ele>1594.5200000000002</ele>
   </trkpt>
   <trkpt lat="45.63351" lon="6.217300000000001">
    <ele>1600.63</ele>
   </trkpt>
   <trkpt lat="45.63354" lon="6.21738">
    <ele>1604.38</ele>
   </trkpt>
   <trkpt lat="45.633500000000005" lon="6.217490000000001">
    <ele>1606.69</ele>
   </trkpt>
   <trkpt lat="45.63344" lon="6.2175400000000005">
    <ele>1608.93</ele>
   </trkpt>
   <trkpt lat="45.6334" lon="6.21766">
    <ele>1611.1200000000001</ele>
   </trkpt>
   <trkpt lat="45.63336" lon="6.2179400000000005">
    <ele>1615.4100000000003</ele>
   </trkpt>
   <trkpt lat="45.633340000000004" lon="6.218240000000001">
    <ele>1622.0100000000002</ele>
   </trkpt>
   <trkpt lat="45.63335000000001" lon="6.218540000000001">
    <ele>1630.13</ele>
   </trkpt>
   <trkpt lat="45.633370000000006" lon="6.2185500000000005">
    <ele>1630.13</ele>
   </trkpt>
   <trkpt lat="45.63336" lon="6.218590000000001">
    <ele>1634.97</ele>
   </trkpt>
   <trkpt lat="45.633390000000006" lon="6.21867">
    <ele>1634.97</ele>
   </trkpt>
   <trkpt lat="45.63338" lon="6.21874">
    <ele>1642.77</ele>
   </trkpt>
   <trkpt lat="45.63342" lon="6.2187600000000005">
    <ele>1642.77</ele>
   </trkpt>
   <trkpt lat="45.633410000000005" lon="6.218820000000001">
    <ele>1642.77</ele>
   </trkpt>
   <trkpt lat="45.633430000000004" lon="6.2188300000000005">
    <ele>1642.77</ele>
   </trkpt>
   <trkpt lat="45.63346000000001" lon="6.218940000000001">
    <ele>1642.77</ele>
   </trkpt>
   <trkpt lat="45.63345" lon="6.2191">
    <ele>1666.89</ele>
   </trkpt>
   <trkpt lat="45.633480000000006" lon="6.2191">
    <ele>1666.89</ele>
   </trkpt>
   <trkpt lat="45.63349" lon="6.21914">
    <ele>1666.89</ele>
   </trkpt>
   <trkpt lat="45.633520000000004" lon="6.219130000000001">
    <ele>1666.89</ele>
   </trkpt>
   <trkpt lat="45.6336" lon="6.21919">
    <ele>1669.43</ele>
   </trkpt>
   <trkpt lat="45.63356" lon="6.219390000000001">
    <ele>1676.0700000000002</ele>
   </trkpt>
   <trkpt lat="45.633590000000005" lon="6.219430000000001">
    <ele>1677.89</ele>
   </trkpt>
   <trkpt lat="45.63354" lon="6.21959">
    <ele>1679.52</ele>
   </trkpt>
   <trkpt lat="45.63353" lon="6.21978">
    <ele>1687.0800000000002</ele>
   </trkpt>
   <trkpt lat="45.633480000000006" lon="6.219900000000001">
    <ele>1690.63</ele>
   </trkpt>
   <trkpt lat="45.633500000000005" lon="6.21994">
    <ele>1692.6200000000001</ele>
   </trkpt>
   <trkpt lat="45.633500000000005" lon="6.21999">
    <ele>1692.6200000000001</ele>
   </trkpt>
   <trkpt lat="45.633480000000006" lon="6.220020000000001">
    <ele>1694.71</ele>
   </trkpt>
   <trkpt lat="45.63351" lon="6.22008">
    <ele>1694.71</ele>
   </trkpt>
   <trkpt lat="45.63349" lon="6.220090000000001">
    <ele>1701.17</ele>
   </trkpt>
   <trkpt lat="45.633480000000006" lon="6.220140000000001">
    <ele>1701.17</ele>
   </trkpt>
   <trkpt lat="45.63353" lon="6.22017">
    <ele>1703.17</ele>
   </trkpt>
   <trkpt lat="45.633480000000006" lon="6.2204500000000005">
    <ele>1709.21</ele>
   </trkpt>
   <trkpt lat="45.63342" lon="6.22055">
    <ele>1711.5900000000001</ele>
   </trkpt>
   <trkpt lat="45.633410000000005" lon="6.220610000000001">
    <ele>1712.8700000000001</ele>
   </trkpt>
   <trkpt lat="45.63335000000001" lon="6.22067">
    <ele>1715.98</ele>
   </trkpt>
   <trkpt lat="45.63333" lon="6.2207300000000005">
    <ele>1717.92</ele>
   </trkpt>
   <trkpt lat="45.633280000000006" lon="6.22078">
    <ele>1720.15</ele>
   </trkpt>
   <trkpt lat="45.63329" lon="6.22083">
    <ele>1722.65</ele>
   </trkpt>
   <trkpt lat="45.633250000000004" lon="6.22085">
    <ele>1722.65</ele>
   </trkpt>
   <trkpt lat="45.63324" lon="6.22093">
    <ele>1722.65</ele>
   </trkpt>
   <trkpt lat="45.63327" lon="6.221">
    <ele>1736.3400000000001</ele>
   </trkpt>
   <trkpt lat="45.63322" lon="6.221120000000001">
    <ele>1736.3400000000001</ele>
   </trkpt>
   <trkpt lat="45.633140000000004" lon="6.221220000000001">
    <ele>1746.8700000000001</ele>
   </trkpt>
   <trkpt lat="45.63315" lon="6.2212700000000005">
    <ele>1746.8700000000001</ele>
   </trkpt>
   <trkpt lat="45.63311" lon="6.2213">
    <ele>1746.8700000000001</ele>
   </trkpt>
   <trkpt lat="45.633120000000005" lon="6.221330000000001">
    <ele>1751.8000000000002</ele>
   </trkpt>
   <trkpt lat="45.633100000000006" lon="6.221360000000001">
    <ele>1751.8000000000002</ele>
   </trkpt>
   <trkpt lat="45.63311" lon="6.22137">
    <ele>1751.8000000000002</ele>
   </trkpt>
   <trkpt lat="45.63304" lon="6.2215300000000004">
    <ele>1763.06</ele>
   </trkpt>
   <trkpt lat="45.633010000000006" lon="6.22158">
    <ele>1763.06</ele>
   </trkpt>
   <trkpt lat="45.63293" lon="6.221620000000001">
    <ele>1765.5</ele>
   </trkpt>
   <trkpt lat="45.63293" lon="6.22165">
    <ele>1768.15</ele>
   </trkpt>
   <trkpt lat="45.632810000000006" lon="6.22175">
    <ele>1773.98</ele>
   </trkpt>
   <trkpt lat="45.632830000000006" lon="6.2218100000000005">
    <ele>1773.98</ele>
   </trkpt>
   <trkpt lat="45.632780000000004" lon="6.22186">
    <ele>1786.4</ele>
   </trkpt>
   <trkpt lat="45.63284" lon="6.222">
    <ele>1791.89</ele>
   </trkpt>
   <trkpt lat="45.632780000000004" lon="6.22215">
    <ele>1794.3200000000002</ele>
   </trkpt>
   <trkpt lat="45.632690000000004" lon="6.22226">
    <ele>1801.2700000000002</ele>
   </trkpt>
   <trkpt lat="45.63259" lon="6.222320000000001">
    <ele>1810.9700000000003</ele>
   </trkpt>
   <trkpt lat="45.632600000000004" lon="6.2224">
    <ele>1810.9700000000003</ele>
   </trkpt>
   <trkpt lat="45.63257" lon="6.222510000000001">
    <ele>1817.8500000000001</ele>
   </trkpt>
   <trkpt lat="45.632450000000006" lon="6.222600000000001">
    <ele>1825.64</ele>
   </trkpt>
   <trkpt lat="45.63233" lon="6.2226300000000005">
    <ele>1831.71</ele>
   </trkpt>
   <trkpt lat="45.632290000000005" lon="6.22268">
    <ele>1831.71</ele>
   </trkpt>
   <trkpt lat="45.632340000000006" lon="6.2228">
    <ele>1844.5600000000002</ele>
   </trkpt>
   <trkpt lat="45.63228" lon="6.222810000000001">
    <ele>1847.56</ele>
   </trkpt>
   <trkpt lat="45.63228" lon="6.222910000000001">
    <ele>1852.84</ele>
   </trkpt>
   <trkpt lat="45.63212" lon="6.2232">
    <ele>1864.7600000000002</ele>
   </trkpt>
   <trkpt lat="45.632020000000004" lon="6.22329">
    <ele>1870.96</ele>
   </trkpt>
   <trkpt lat="45.632090000000005" lon="6.22351">
    <ele>1885.0500000000002</ele>
   </trkpt>
   <trkpt lat="45.63219" lon="6.22355">
    <ele>1897.0500000000002</ele>
   </trkpt>
   <trkpt lat="45.632290000000005" lon="6.223630000000001">
    <ele>1902.2200000000003</ele>
   </trkpt>
   <trkpt lat="45.632310000000004" lon="6.22369">
    <ele>1904.5600000000002</ele>
   </trkpt>
   <trkpt lat="45.632250000000006" lon="6.22372">
    <ele>1906.77</ele>
   </trkpt>
   <trkpt lat="45.63226" lon="6.223750000000001">
    <ele>1908.88</ele>
   </trkpt>
   <trkpt lat="45.632220000000004" lon="6.223840000000001">
    <ele>1908.88</ele>
   </trkpt>
   <trkpt lat="45.632250000000006" lon="6.2239700000000004">
    <ele>1914.95</ele>
   </trkpt>
   <trkpt lat="45.63223000000001" lon="6.224">
    <ele>1914.95</ele>
   </trkpt>
   <trkpt lat="45.63224" lon="6.22405">
    <ele>1920.7900000000002</ele>
   </trkpt>
   <trkpt lat="45.63219" lon="6.224080000000001">
    <ele>1920.7900000000002</ele>
   </trkpt>
   <trkpt lat="45.632160000000006" lon="6.224130000000001">
    <ele>1922.8</ele>
   </trkpt>
   <trkpt lat="45.632090000000005" lon="6.22416">
    <ele>1924.95</ele>
   </trkpt>
   <trkpt lat="45.63206" lon="6.22423">
    <ele>1934.4200000000003</ele>
   </trkpt>
   <trkpt lat="45.63208" lon="6.224270000000001">
    <ele>1934.4200000000003</ele>
   </trkpt>
   <trkpt lat="45.632070000000006" lon="6.22435">
    <ele>1934.4200000000003</ele>
   </trkpt>
   <trkpt lat="45.631820000000005" lon="6.224500000000001">
    <ele>1942.8</ele>
   </trkpt>
   <trkpt lat="45.6315" lon="6.22482">
    <ele>1963.4900000000002</ele>
   </trkpt>
   <trkpt lat="45.631460000000004" lon="6.22484">
    <ele>1965.8400000000001</ele>
   </trkpt>
   <trkpt lat="45.63143" lon="6.22489">
    <ele>1968.56</ele>
   </trkpt>
   <trkpt lat="45.63138000000001" lon="6.224900000000001">
    <ele>1971.5300000000002</ele>
   </trkpt>
   <trkpt lat="45.631400000000006" lon="6.22496">
    <ele>1971.5300000000002</ele>
   </trkpt>
   <trkpt lat="45.631370000000004" lon="6.2250000000000005">
    <ele>1977.64</ele>
   </trkpt>
   <trkpt lat="45.63139" lon="6.22508">
    <ele>1983.98</ele>
   </trkpt>
   <trkpt lat="45.63127" lon="6.22512">
    <ele>1983.98</ele>
   </trkpt>
   <trkpt lat="45.63127" lon="6.22515">
    <ele>1983.98</ele>
   </trkpt>
   <trkpt lat="45.63123" lon="6.225140000000001">
    <ele>2004.6500000000003</ele>
   </trkpt>
   <trkpt lat="45.63123" lon="6.2251900000000004">
    <ele>2004.6500000000003</ele>
   </trkpt>
   <trkpt lat="45.63120000000001" lon="6.2251900000000004">
    <ele>2004.6500000000003</ele>
   </trkpt>
   <trkpt lat="45.631190000000004" lon="6.22522">
    <ele>2004.6500000000003</ele>
   </trkpt>
   <trkpt lat="45.63101" lon="6.22527">
    <ele>2019.3799999999999</ele>
   </trkpt>
   <trkpt lat="45.63098" lon="6.2253300000000005">
    <ele>2019.3799999999999</ele>
   </trkpt>
   <trkpt lat="45.631" lon="6.22541">
    <ele>2026.3600000000004</ele>
   </trkpt>
   <trkpt lat="45.630950000000006" lon="6.225440000000001">
    <ele>2032.97</ele>
   </trkpt>
   <trkpt lat="45.630900000000004" lon="6.2255400000000005">
    <ele>2032.97</ele>
   </trkpt>
   <trkpt lat="45.630860000000006" lon="6.225740000000001">
    <ele>2043.5700000000004</ele>
   </trkpt>
   <trkpt lat="45.6308" lon="6.2259">
    <ele>2058.79</ele>
   </trkpt>
   <trkpt lat="45.630810000000004" lon="6.2259400000000005">
    <ele>2062.36</ele>
   </trkpt>
   <trkpt lat="45.630790000000005" lon="6.2259400000000005">
    <ele>2062.36</ele>
   </trkpt>
   <trkpt lat="45.63078" lon="6.2260100000000005">
    <ele>2065.71</ele>
   </trkpt>
   <trkpt lat="45.63076" lon="6.22602">
    <ele>2068.8500000000004</ele>
   </trkpt>
   <trkpt lat="45.630770000000005" lon="6.226120000000001">
    <ele>2071.86</ele>
   </trkpt>
   <trkpt lat="45.63071" lon="6.226100000000001">
    <ele>2077.65</ele>
   </trkpt>
   <trkpt lat="45.63071" lon="6.22613">
    <ele>2077.65</ele>
   </trkpt>
   <trkpt lat="45.630680000000005" lon="6.226120000000001">
    <ele>2080.41</ele>
   </trkpt>
   <trkpt lat="45.63067" lon="6.226170000000001">
    <ele>2083.05</ele>
   </trkpt>
   <trkpt lat="45.63064000000001" lon="6.226170000000001">
    <ele>2083.05</ele>
   </trkpt>
   <trkpt lat="45.63062" lon="6.22625">
    <ele>2087.87</ele>
   </trkpt>
   <trkpt lat="45.63056" lon="6.226260000000001">
    <ele>2090.02</ele>
   </trkpt>
   <trkpt lat="45.63054" lon="6.226350000000001">
    <ele>2091.9700000000003</ele>
   </trkpt>
   <trkpt lat="45.63051" lon="6.22637">
    <ele>2093.7400000000002</ele>
   </trkpt>
   <trkpt lat="45.630500000000005" lon="6.226400000000001">
    <ele>2095.38</ele>
   </trkpt>
   <trkpt lat="45.63074" lon="6.2273000000000005">
    <ele>2115.6800000000003</ele>
   </trkpt>
   <trkpt lat="45.63085" lon="6.2278400000000005">
    <ele>2128.3100000000004</ele>
   </trkpt>
   <trkpt lat="45.630950000000006" lon="6.228190000000001">
    <ele>2135.59</ele>
   </trkpt>
   <trkpt lat="45.631130000000006" lon="6.228700000000001">
    <ele>2150.78</ele>
   </trkpt>
   <trkpt lat="45.63123" lon="6.22909">
    <ele>2163.16</ele>
   </trkpt>
   <trkpt lat="45.6313" lon="6.229240000000001">
    <ele>2165.34</ele>
   </trkpt>
   <trkpt lat="45.63148" lon="6.229410000000001">
    <ele>2166.04</ele>
   </trkpt>
   <trkpt lat="45.63148" lon="6.229450000000001">
    <ele>2166.04</ele>
   </trkpt>
   <trkpt lat="45.63158000000001" lon="6.22949">
    <ele>2166.4500000000003</ele>
   </trkpt>
   <trkpt lat="45.63163" lon="6.22961">
    <ele>2166.9300000000003</ele>
   </trkpt>
   <trkpt lat="45.631640000000004" lon="6.22963">
    <ele>2167.0800000000004</ele>
   </trkpt>
   <trkpt lat="45.63168" lon="6.22965">
    <ele>2167.0800000000004</ele>
   </trkpt>
   <trkpt lat="45.63174" lon="6.22979">
    <ele>2169.1900000000005</ele>
   </trkpt>
   <trkpt lat="45.63181" lon="6.229830000000001">
    <ele>2169.4600000000005</ele>
   </trkpt>
   <trkpt lat="45.63186" lon="6.229940000000001">
    <ele>2169.44</ele>
   </trkpt>
   <trkpt lat="45.63195" lon="6.230020000000001">
    <ele>2167.21</ele>
   </trkpt>
   <trkpt lat="45.632000000000005" lon="6.230130000000001">
    <ele>2163.6600000000003</ele>
   </trkpt>
   <trkpt lat="45.632000000000005" lon="6.23017">
    <ele>2163.6600000000003</ele>
   </trkpt>
   <trkpt lat="45.63196000000001" lon="6.230180000000001">
    <ele>2161.36</ele>
   </trkpt>
   <trkpt lat="45.63199" lon="6.23024">
    <ele>2158.86</ele>
   </trkpt>
   <trkpt lat="45.63197" lon="6.23026">
    <ele>2158.86</ele>
   </trkpt>
   <trkpt lat="45.63194000000001" lon="6.23026">
    <ele>2150.9</ele>
   </trkpt>
   <trkpt lat="45.6319" lon="6.230390000000001">
    <ele>2150.9</ele>
   </trkpt>
   <trkpt lat="45.6319" lon="6.23047">
    <ele>2145.3900000000003</ele>
   </trkpt>
   <trkpt lat="45.631840000000004" lon="6.230480000000001">
    <ele>2145.3900000000003</ele>
   </trkpt>
   <trkpt lat="45.63181" lon="6.23047">
    <ele>2145.3900000000003</ele>
   </trkpt>
   <trkpt lat="45.63172" lon="6.230550000000001">
    <ele>2128.39</ele>
   </trkpt>
   <trkpt lat="45.631640000000004" lon="6.230510000000001">
    <ele>2128.39</ele>
   </trkpt>
   <trkpt lat="45.631620000000005" lon="6.2305600000000005">
    <ele>2125.65</ele>
   </trkpt>
   <trkpt lat="45.63159" lon="6.23054">
    <ele>2123.0299999999997</ele>
   </trkpt>
   <trkpt lat="45.631600000000006" lon="6.23057">
    <ele>2123.0299999999997</ele>
   </trkpt>
   <trkpt lat="45.63152" lon="6.2305600000000005">
    <ele>2115.88</ele>
   </trkpt>
   <trkpt lat="45.6315" lon="6.230630000000001">
    <ele>2115.88</ele>
   </trkpt>
   <trkpt lat="45.631460000000004" lon="6.230630000000001">
    <ele>2115.88</ele>
   </trkpt>
   <trkpt lat="45.63145" lon="6.230690000000001">
    <ele>2109.4000000000005</ele>
   </trkpt>
   <trkpt lat="45.631420000000006" lon="6.230700000000001">
    <ele>2109.4000000000005</ele>
   </trkpt>
   <trkpt lat="45.631420000000006" lon="6.230740000000001">
    <ele>2109.4000000000005</ele>
   </trkpt>
   <trkpt lat="45.63139" lon="6.2307500000000005">
    <ele>2104.9700000000003</ele>
   </trkpt>
   <trkpt lat="45.63139" lon="6.2308200000000005">
    <ele>2104.9700000000003</ele>
   </trkpt>
   <trkpt lat="45.631350000000005" lon="6.2308200000000005">
    <ele>2104.9700000000003</ele>
   </trkpt>
   <trkpt lat="45.631350000000005" lon="6.230860000000001">
    <ele>2104.9700000000003</ele>
   </trkpt>
   <trkpt lat="45.6313" lon="6.23085">
    <ele>2095.81</ele>
   </trkpt>
   <trkpt lat="45.63123" lon="6.23097">
    <ele>2095.81</ele>
   </trkpt>
   <trkpt lat="45.63114" lon="6.230910000000001">
    <ele>2088.56</ele>
   </trkpt>
   <trkpt lat="45.6311" lon="6.2309">
    <ele>2088.56</ele>
   </trkpt>
   <trkpt lat="45.631080000000004" lon="6.23083">
    <ele>2078.5400000000004</ele>
   </trkpt>
   <trkpt lat="45.63105" lon="6.230810000000001">
    <ele>2078.5400000000004</ele>
   </trkpt>
   <trkpt lat="45.63101" lon="6.23085">
    <ele>2078.5400000000004</ele>
   </trkpt>
   <trkpt lat="45.63096" lon="6.230810000000001">
    <ele>2073.8</ele>
   </trkpt>
   <trkpt lat="45.630950000000006" lon="6.2308200000000005">
    <ele>2073.8</ele>
   </trkpt>
   <trkpt lat="45.63092" lon="6.230770000000001">
    <ele>2071.61</ele>
   </trkpt>
   <trkpt lat="45.63089" lon="6.23078">
    <ele>2069.57</ele>
   </trkpt>
   <trkpt lat="45.63089" lon="6.23073">
    <ele>2067.6400000000003</ele>
   </trkpt>
   <trkpt lat="45.630700000000004" lon="6.230860000000001">
    <ele>2060.3</ele>
   </trkpt>
   <trkpt lat="45.63065" lon="6.230860000000001">
    <ele>2058.3500000000004</ele>
   </trkpt>
   <trkpt lat="45.630520000000004" lon="6.231160000000001">
    <ele>2046.0700000000002</ele>
   </trkpt>
   <trkpt lat="45.63054" lon="6.231210000000001">
    <ele>2044.1800000000003</ele>
   </trkpt>
   <trkpt lat="45.63054" lon="6.231280000000001">
    <ele>2042.02</ele>
   </trkpt>
   <trkpt lat="45.63049" lon="6.231400000000001">
    <ele>2036.7100000000003</ele>
   </trkpt>
   <trkpt lat="45.630370000000006" lon="6.2313600000000005">
    <ele>2027.9700000000003</ele>
   </trkpt>
   <trkpt lat="45.63029" lon="6.231400000000001">
    <ele>2022.8900000000003</ele>
   </trkpt>
   <trkpt lat="45.63027" lon="6.23134">
    <ele>2020.5700000000002</ele>
   </trkpt>
   <trkpt lat="45.63022" lon="6.23137">
    <ele>2018.37</ele>
   </trkpt>
   <trkpt lat="45.6302" lon="6.23146">
    <ele>2014.4</ele>
   </trkpt>
   <trkpt lat="45.630140000000004" lon="6.23155">
    <ele>2012.6699999999998</ele>
   </trkpt>
   <trkpt lat="45.63011" lon="6.231700000000001">
    <ele>2008.4400000000003</ele>
   </trkpt>
   <trkpt lat="45.629960000000004" lon="6.2321800000000005">
    <ele>1995.23</ele>
   </trkpt>
   <trkpt lat="45.629920000000006" lon="6.23223">
    <ele>1995.23</ele>
   </trkpt>
   <trkpt lat="45.62991" lon="6.232360000000001">
    <ele>1992.14</ele>
   </trkpt>
   <trkpt lat="45.62986" lon="6.23249">
    <ele>1991.38</ele>
   </trkpt>
   <trkpt lat="45.62984" lon="6.232690000000001">
    <ele>1992.14</ele>
   </trkpt>
   <trkpt lat="45.6298" lon="6.23287">
    <ele>1994.4800000000002</ele>
   </trkpt>
   <trkpt lat="45.62959" lon="6.233230000000001">
    <ele>1996.5800000000002</ele>
   </trkpt>
   <trkpt lat="45.62950000000001" lon="6.233460000000001">
    <ele>1996.9900000000002</ele>
   </trkpt>
   <trkpt lat="45.62933" lon="6.233740000000001">
    <ele>1997.6200000000001</ele>
   </trkpt>
   <trkpt lat="45.62932000000001" lon="6.23381">
    <ele>1998.5500000000002</ele>
   </trkpt>
   <trkpt lat="45.629400000000004" lon="6.2339">
    <ele>2001.65</ele>
   </trkpt>
   <trkpt lat="45.629380000000005" lon="6.2339400000000005">
    <ele>2003.6599999999999</ele>
   </trkpt>
   <trkpt lat="45.62941000000001" lon="6.23406">
    <ele>2012.1700000000003</ele>
   </trkpt>
   <trkpt lat="45.629380000000005" lon="6.234280000000001">
    <ele>2016.22</ele>
   </trkpt>
   <trkpt lat="45.6293" lon="6.234540000000001">
    <ele>2024.1900000000003</ele>
   </trkpt>
   <trkpt lat="45.62935" lon="6.23456">
    <ele>2024.1900000000003</ele>
   </trkpt>
   <trkpt lat="45.62942" lon="6.23467">
    <ele>2032.68</ele>
   </trkpt>
   <trkpt lat="45.629250000000006" lon="6.235080000000001">
    <ele>2042.17</ele>
   </trkpt>
   <trkpt lat="45.62923000000001" lon="6.235200000000001">
    <ele>2050.34</ele>
   </trkpt>
   <trkpt lat="45.62917" lon="6.235290000000001">
    <ele>2053.9</ele>
   </trkpt>
   <trkpt lat="45.6289" lon="6.2355100000000006">
    <ele>2062.2000000000003</ele>
   </trkpt>
   <trkpt lat="45.6287" lon="6.235740000000001">
    <ele>2070.7200000000003</ele>
   </trkpt>
   <trkpt lat="45.62854" lon="6.235860000000001">
    <ele>2074.03</ele>
   </trkpt>
   <trkpt lat="45.62836" lon="6.2359100000000005">
    <ele>2078.0000000000005</ele>
   </trkpt>
   <trkpt lat="45.62816" lon="6.23608">
    <ele>2085.89</ele>
   </trkpt>
   <trkpt lat="45.628220000000006" lon="6.236160000000001">
    <ele>2085.89</ele>
   </trkpt>
   <trkpt lat="45.628260000000004" lon="6.236280000000001">
    <ele>2093.9400000000005</ele>
   </trkpt>
   <trkpt lat="45.62821" lon="6.23636">
    <ele>2095.84</ele>
   </trkpt>
   <trkpt lat="45.627930000000006" lon="6.236470000000001">
    <ele>2106.38</ele>
   </trkpt>
   <trkpt lat="45.627790000000005" lon="6.23655">
    <ele>2108.84</ele>
   </trkpt>
   <trkpt lat="45.62763" lon="6.23686">
    <ele>2120.03</ele>
   </trkpt>
   <trkpt lat="45.62792" lon="6.23728">
    <ele>2131.37</ele>
   </trkpt>
   <trkpt lat="45.627970000000005" lon="6.237480000000001">
    <ele>2133.84</ele>
   </trkpt>
   <trkpt lat="45.62792" lon="6.23728">
    <ele>2124.48</ele>
   </trkpt>
   <trkpt lat="45.62763" lon="6.23686">
    <ele>2117.77</ele>
   </trkpt>
   <trkpt lat="45.626850000183765" lon="6.236654997147593">
    <ele>2087.11</ele>
   </trkpt>
   <trkpt lat="45.626070000000006" lon="6.2364500000000005">
    <ele>2052.77</ele>
   </trkpt>
   <trkpt lat="45.62599" lon="6.236350000000001">
    <ele>2047.3700000000003</ele>
   </trkpt>
   <trkpt lat="45.625840000000004" lon="6.236440000000001">
    <ele>2039.05</ele>
   </trkpt>
   <trkpt lat="45.62563" lon="6.23632">
    <ele>2033.63</ele>
   </trkpt>
   <trkpt lat="45.625460000000004" lon="6.23639">
    <ele>2024.1200000000003</ele>
   </trkpt>
   <trkpt lat="45.625310000000006" lon="6.236230000000001">
    <ele>2016.76</ele>
   </trkpt>
   <trkpt lat="45.62507" lon="6.23634">
    <ele>2007.5500000000002</ele>
   </trkpt>
   <trkpt lat="45.624840000000006" lon="6.2362400000000004">
    <ele>1995.78</ele>
   </trkpt>
   <trkpt lat="45.62454" lon="6.23615">
    <ele>1985.1000000000001</ele>
   </trkpt>
   <trkpt lat="45.62418" lon="6.236000000000001">
    <ele>1975.89</ele>
   </trkpt>
   <trkpt lat="45.623760000000004" lon="6.235930000000001">
    <ele>1962.8</ele>
   </trkpt>
   <trkpt lat="45.62355" lon="6.23606">
    <ele>1951.93</ele>
   </trkpt>
   <trkpt lat="45.62342" lon="6.23592">
    <ele>1945.0</ele>
   </trkpt>
   <trkpt lat="45.62321" lon="6.23578">
    <ele>1938.89</ele>
   </trkpt>
   <trkpt lat="45.62265000000001" lon="6.23552">
    <ele>1923.8400000000001</ele>
   </trkpt>
   <trkpt lat="45.62243" lon="6.235460000000001">
    <ele>1918.88</ele>
   </trkpt>
   <trkpt lat="45.622310000000006" lon="6.2356300000000005">
    <ele>1911.88</ele>
   </trkpt>
   <trkpt lat="45.622080000000004" lon="6.235760000000001">
    <ele>1907.25</ele>
   </trkpt>
   <trkpt lat="45.62187" lon="6.23566">
    <ele>1900.53</ele>
   </trkpt>
   <trkpt lat="45.62181" lon="6.23545">
    <ele>1894.53</ele>
   </trkpt>
   <trkpt lat="45.621930000000006" lon="6.235060000000001">
    <ele>1882.63</ele>
   </trkpt>
   <trkpt lat="45.62203" lon="6.2348300000000005">
    <ele>1875.4</ele>
   </trkpt>
   <trkpt lat="45.62167" lon="6.23458">
    <ele>1860.69</ele>
   </trkpt>
   <trkpt lat="45.621320000000004" lon="6.234540000000001">
    <ele>1846.4</ele>
   </trkpt>
   <trkpt lat="45.620740000000005" lon="6.23486">
    <ele>1827.16</ele>
   </trkpt>
   <trkpt lat="45.62050000000001" lon="6.23519">
    <ele>1818.1200000000001</ele>
   </trkpt>
   <trkpt lat="45.620430000000006" lon="6.235150000000001">
    <ele>1810.7300000000002</ele>
   </trkpt>
   <trkpt lat="45.62037" lon="6.23533">
    <ele>1810.7300000000002</ele>
   </trkpt>
   <trkpt lat="45.62037" lon="6.23554">
    <ele>1803.0600000000002</ele>
   </trkpt>
   <trkpt lat="45.620250000000006" lon="6.235650000000001">
    <ele>1800.5900000000001</ele>
   </trkpt>
   <trkpt lat="45.619960000000006" lon="6.235620000000001">
    <ele>1795.4900000000002</ele>
   </trkpt>
   <trkpt lat="45.61981" lon="6.235460000000001">
    <ele>1789.47</ele>
   </trkpt>
   <trkpt lat="45.619690000000006" lon="6.235150000000001">
    <ele>1785.6100000000001</ele>
   </trkpt>
   <trkpt lat="45.619670000000006" lon="6.23517">
    <ele>1785.5</ele>
   </trkpt>
   <trkpt lat="45.61965000000001" lon="6.235270000000001">
    <ele>1785.65</ele>
   </trkpt>
   <trkpt lat="45.619510000000005" lon="6.23554">
    <ele>1788.0000000000002</ele>
   </trkpt>
   <trkpt lat="45.61923" lon="6.2358400000000005">
    <ele>1793.97</ele>
   </trkpt>
   <trkpt lat="45.61916" lon="6.23587">
    <ele>1793.97</ele>
   </trkpt>
   <trkpt lat="45.619020000000006" lon="6.236000000000001">
    <ele>1795.9300000000003</ele>
   </trkpt>
   <trkpt lat="45.6188" lon="6.2361">
    <ele>1797.22</ele>
   </trkpt>
   <trkpt lat="45.61874" lon="6.2360500000000005">
    <ele>1798.01</ele>
   </trkpt>
   <trkpt lat="45.61872" lon="6.236090000000001">
    <ele>1796.52</ele>
   </trkpt>
   <trkpt lat="45.618570000000005" lon="6.235930000000001">
    <ele>1801.8100000000002</ele>
   </trkpt>
   <trkpt lat="45.6184" lon="6.23582">
    <ele>1806.07</ele>
   </trkpt>
   <trkpt lat="45.618320000000004" lon="6.23573">
    <ele>1808.19</ele>
   </trkpt>
   <trkpt lat="45.6182" lon="6.2353700000000005">
    <ele>1813.7500000000002</ele>
   </trkpt>
   <trkpt lat="45.61806000000001" lon="6.23514">
    <ele>1815.4200000000003</ele>
   </trkpt>
   <trkpt lat="45.618" lon="6.234800000000001">
    <ele>1815.16</ele>
   </trkpt>
   <trkpt lat="45.617940000000004" lon="6.23456">
    <ele>1814.42</ele>
   </trkpt>
   <trkpt lat="45.61788000000001" lon="6.234400000000001">
    <ele>1814.69</ele>
   </trkpt>
   <trkpt lat="45.617700000000006" lon="6.2341500000000005">
    <ele>1816.92</ele>
   </trkpt>
   <trkpt lat="45.617670000000004" lon="6.233820000000001">
    <ele>1818.9100000000003</ele>
   </trkpt>
   <trkpt lat="45.61769" lon="6.23366">
    <ele>1819.2800000000002</ele>
   </trkpt>
   <trkpt lat="45.61762" lon="6.23282">
    <ele>1822.8000000000002</ele>
   </trkpt>
   <trkpt lat="45.6176" lon="6.232690000000001">
    <ele>1824.64</ele>
   </trkpt>
   <trkpt lat="45.61755" lon="6.232570000000001">
    <ele>1826.6700000000003</ele>
   </trkpt>
   <trkpt lat="45.617520000000006" lon="6.232270000000001">
    <ele>1832.1000000000001</ele>
   </trkpt>
   <trkpt lat="45.61742" lon="6.23202">
    <ele>1840.3200000000002</ele>
   </trkpt>
   <trkpt lat="45.61731" lon="6.231630000000001">
    <ele>1851.16</ele>
   </trkpt>
   <trkpt lat="45.617230000000006" lon="6.231540000000001">
    <ele>1854.6200000000001</ele>
   </trkpt>
   <trkpt lat="45.617200000000004" lon="6.231420000000001">
    <ele>1857.41</ele>
   </trkpt>
   <trkpt lat="45.61719" lon="6.231280000000001">
    <ele>1859.5000000000002</ele>
   </trkpt>
   <trkpt lat="45.617200000000004" lon="6.231020000000001">
    <ele>1863.8200000000002</ele>
   </trkpt>
   <trkpt lat="45.617140000000006" lon="6.230910000000001">
    <ele>1867.3300000000002</ele>
   </trkpt>
   <trkpt lat="45.617110000000004" lon="6.23078">
    <ele>1869.76</ele>
   </trkpt>
   <trkpt lat="45.6171" lon="6.23066">
    <ele>1870.5600000000002</ele>
   </trkpt>
   <trkpt lat="45.617110000000004" lon="6.23047">
    <ele>1869.8300000000002</ele>
   </trkpt>
   <trkpt lat="45.616780000000006" lon="6.22984">
    <ele>1880.5600000000002</ele>
   </trkpt>
   <trkpt lat="45.616510000000005" lon="6.229570000000001">
    <ele>1892.89</ele>
   </trkpt>
   <trkpt lat="45.61638000000001" lon="6.229360000000001">
    <ele>1895.7800000000002</ele>
   </trkpt>
   <trkpt lat="45.61634" lon="6.229240000000001">
    <ele>1896.57</ele>
   </trkpt>
   <trkpt lat="45.61627000000001" lon="6.229150000000001">
    <ele>1897.2000000000003</ele>
   </trkpt>
   <trkpt lat="45.61621" lon="6.22902">
    <ele>1899.2000000000003</ele>
   </trkpt>
   <trkpt lat="45.6161" lon="6.22893">
    <ele>1900.7900000000002</ele>
   </trkpt>
   <trkpt lat="45.61605" lon="6.228820000000001">
    <ele>1903.5700000000002</ele>
   </trkpt>
   <trkpt lat="45.61591000000001" lon="6.22822">
    <ele>1923.73</ele>
   </trkpt>
   <trkpt lat="45.61592" lon="6.22808">
    <ele>1929.04</ele>
   </trkpt>
   <trkpt lat="45.61578" lon="6.2278">
    <ele>1938.8700000000001</ele>
   </trkpt>
   <trkpt lat="45.615700000000004" lon="6.22773">
    <ele>1942.5700000000002</ele>
   </trkpt>
   <trkpt lat="45.61563" lon="6.227460000000001">
    <ele>1952.2700000000002</ele>
   </trkpt>
   <trkpt lat="45.61549" lon="6.22728">
    <ele>1958.97</ele>
   </trkpt>
   <trkpt lat="45.6154" lon="6.227040000000001">
    <ele>1969.1300000000003</ele>
   </trkpt>
   <trkpt lat="45.61535000000001" lon="6.2267600000000005">
    <ele>1978.53</ele>
   </trkpt>
   <trkpt lat="45.61536" lon="6.22663">
    <ele>1983.6000000000001</ele>
   </trkpt>
   <trkpt lat="45.61543" lon="6.226470000000001">
    <ele>1993.5500000000002</ele>
   </trkpt>
   <trkpt lat="45.615460000000006" lon="6.22634">
    <ele>1993.5500000000002</ele>
   </trkpt>
   <trkpt lat="45.615370000000006" lon="6.226330000000001">
    <ele>1994.16</ele>
   </trkpt>
   <trkpt lat="45.615280000000006" lon="6.2263">
    <ele>1995.69</ele>
   </trkpt>
   <trkpt lat="45.615300000000005" lon="6.226170000000001">
    <ele>2000.48</ele>
   </trkpt>
   <trkpt lat="45.61524000000001" lon="6.226070000000001">
    <ele>2003.05</ele>
   </trkpt>
   <trkpt lat="45.61531" lon="6.22597">
    <ele>2006.9500000000003</ele>
   </trkpt>
   <trkpt lat="45.615280000000006" lon="6.225510000000001">
    <ele>2016.91</ele>
   </trkpt>
   <trkpt lat="45.61542" lon="6.22548">
    <ele>2015.26</ele>
   </trkpt>
   <trkpt lat="45.61491" lon="6.22524">
    <ele>2015.32</ele>
   </trkpt>
   <trkpt lat="45.61450000000001" lon="6.22421">
    <ele>1996.89</ele>
   </trkpt>
   <trkpt lat="45.614340000000006" lon="6.223920000000001">
    <ele>1987.3700000000001</ele>
   </trkpt>
   <trkpt lat="45.61430000000001" lon="6.22379">
    <ele>1983.7600000000002</ele>
   </trkpt>
   <trkpt lat="45.614290000000004" lon="6.2235000000000005">
    <ele>1981.99</ele>
   </trkpt>
   <trkpt lat="45.61428" lon="6.2233600000000004">
    <ele>1980.66</ele>
   </trkpt>
   <trkpt lat="45.61422" lon="6.22325">
    <ele>1979.5200000000002</ele>
   </trkpt>
   <trkpt lat="45.61415" lon="6.223140000000001">
    <ele>1978.41</ele>
   </trkpt>
   <trkpt lat="45.61384" lon="6.222860000000001">
    <ele>1972.97</ele>
   </trkpt>
   <trkpt lat="45.613670000000006" lon="6.222670000000001">
    <ele>1970.7200000000003</ele>
   </trkpt>
   <trkpt lat="45.61339" lon="6.22243">
    <ele>1965.3700000000001</ele>
   </trkpt>
   <trkpt lat="45.613290000000006" lon="6.22238">
    <ele>1963.3500000000001</ele>
   </trkpt>
   <trkpt lat="45.61319" lon="6.222300000000001">
    <ele>1962.4500000000003</ele>
   </trkpt>
   <trkpt lat="45.61305" lon="6.222040000000001">
    <ele>1962.2700000000002</ele>
   </trkpt>
   <trkpt lat="45.61291000000001" lon="6.221830000000001">
    <ele>1960.67</ele>
   </trkpt>
   <trkpt lat="45.61281" lon="6.22161">
    <ele>1958.2400000000002</ele>
   </trkpt>
   <trkpt lat="45.61254" lon="6.22137">
    <ele>1951.4700000000003</ele>
   </trkpt>
   <trkpt lat="45.61242" lon="6.221050000000001">
    <ele>1944.43</ele>
   </trkpt>
   <trkpt lat="45.612260000000006" lon="6.22085">
    <ele>1940.05</ele>
   </trkpt>
   <trkpt lat="45.61215000000001" lon="6.220750000000001">
    <ele>1938.91</ele>
   </trkpt>
   <trkpt lat="45.612100000000005" lon="6.22064">
    <ele>1937.43</ele>
   </trkpt>
   <trkpt lat="45.61204" lon="6.220540000000001">
    <ele>1936.3700000000001</ele>
   </trkpt>
   <trkpt lat="45.61196" lon="6.22048">
    <ele>1935.3700000000001</ele>
   </trkpt>
   <trkpt lat="45.611670000000004" lon="6.220370000000001">
    <ele>1933.6200000000001</ele>
   </trkpt>
   <trkpt lat="45.6116" lon="6.220280000000001">
    <ele>1932.0700000000002</ele>
   </trkpt>
   <trkpt lat="45.611450000000005" lon="6.21996">
    <ele>1925.15</ele>
   </trkpt>
   <trkpt lat="45.61133" lon="6.2195100000000005">
    <ele>1918.71</ele>
   </trkpt>
   <trkpt lat="45.61124" lon="6.2194">
    <ele>1917.7400000000002</ele>
   </trkpt>
   <trkpt lat="45.611140000000006" lon="6.219360000000001">
    <ele>1917.5000000000002</ele>
   </trkpt>
   <trkpt lat="45.61102" lon="6.21928">
    <ele>1915.76</ele>
   </trkpt>
   <trkpt lat="45.61097" lon="6.219010000000001">
    <ele>1910.2800000000002</ele>
   </trkpt>
   <trkpt lat="45.61093" lon="6.21888">
    <ele>1907.18</ele>
   </trkpt>
   <trkpt lat="45.61079" lon="6.2186">
    <ele>1902.7500000000002</ele>
   </trkpt>
   <trkpt lat="45.61075" lon="6.218450000000001">
    <ele>1899.8500000000001</ele>
   </trkpt>
   <trkpt lat="45.61074000000001" lon="6.21832">
    <ele>1896.89</ele>
   </trkpt>
   <trkpt lat="45.61068" lon="6.218210000000001">
    <ele>1894.0400000000002</ele>
   </trkpt>
   <trkpt lat="45.61057" lon="6.217790000000001">
    <ele>1886.68</ele>
   </trkpt>
   <trkpt lat="45.610510000000005" lon="6.21748">
    <ele>1881.5000000000002</ele>
   </trkpt>
   <trkpt lat="45.610400000000006" lon="6.21724">
    <ele>1878.3</ele>
   </trkpt>
   <trkpt lat="45.610290000000006" lon="6.21675">
    <ele>1873.5000000000002</ele>
   </trkpt>
   <trkpt lat="45.610150000000004" lon="6.21633">
    <ele>1868.9700000000003</ele>
   </trkpt>
   <trkpt lat="45.60999" lon="6.216030000000001">
    <ele>1867.3300000000002</ele>
   </trkpt>
   <trkpt lat="45.6099" lon="6.2155700000000005">
    <ele>1865.46</ele>
   </trkpt>
   <trkpt lat="45.60972" lon="6.21508">
    <ele>1858.7300000000002</ele>
   </trkpt>
   <trkpt lat="45.60967" lon="6.214950000000001">
    <ele>1858.5500000000002</ele>
   </trkpt>
   <trkpt lat="45.60947" lon="6.21459">
    <ele>1857.89</ele>
   </trkpt>
   <trkpt lat="45.60934" lon="6.21431">
    <ele>1859.3700000000001</ele>
   </trkpt>
   <trkpt lat="45.60927" lon="6.213990000000001">
    <ele>1858.44</ele>
   </trkpt>
   <trkpt lat="45.6092" lon="6.21386">
    <ele>1858.54</ele>
   </trkpt>
   <trkpt lat="45.60909" lon="6.213540000000001">
    <ele>1852.7300000000002</ele>
   </trkpt>
   <trkpt lat="45.608920000000005" lon="6.2132000000000005">
    <ele>1850.15</ele>
   </trkpt>
   <trkpt lat="45.60878" lon="6.213">
    <ele>1851.65</ele>
   </trkpt>
   <trkpt lat="45.60875" lon="6.21285">
    <ele>1851.9500000000003</ele>
   </trkpt>
   <trkpt lat="45.608700000000006" lon="6.212720000000001">
    <ele>1852.69</ele>
   </trkpt>
   <trkpt lat="45.60831" lon="6.212000000000001">
    <ele>1884.5</ele>
   </trkpt>
   <trkpt lat="45.608290000000004" lon="6.211860000000001">
    <ele>1890.6</ele>
   </trkpt>
   <trkpt lat="45.608160000000005" lon="6.21161">
    <ele>1903.93</ele>
   </trkpt>
   <trkpt lat="45.608090000000004" lon="6.211340000000001">
    <ele>1918.2500000000002</ele>
   </trkpt>
   <trkpt lat="45.60804" lon="6.2112300000000005">
    <ele>1921.79</ele>
   </trkpt>
   <trkpt lat="45.60793" lon="6.210990000000001">
    <ele>1923.85</ele>
   </trkpt>
   <trkpt lat="45.607820000000004" lon="6.21079">
    <ele>1931.1200000000001</ele>
   </trkpt>
   <trkpt lat="45.607730000000004" lon="6.2106900000000005">
    <ele>1934.2400000000002</ele>
   </trkpt>
   <trkpt lat="45.607670000000006" lon="6.2106">
    <ele>1937.75</ele>
   </trkpt>
   <trkpt lat="45.60764" lon="6.21044">
    <ele>1942.3000000000002</ele>
   </trkpt>
   <trkpt lat="45.607580000000006" lon="6.210260000000001">
    <ele>1946.7600000000002</ele>
   </trkpt>
   <trkpt lat="45.607530000000004" lon="6.20988">
    <ele>1951.45</ele>
   </trkpt>
   <trkpt lat="45.60743" lon="6.20943">
    <ele>1954.97</ele>
   </trkpt>
   <trkpt lat="45.607470000000006" lon="6.20929">
    <ele>1956.23</ele>
   </trkpt>
   <trkpt lat="45.607530000000004" lon="6.20915">
    <ele>1957.69</ele>
   </trkpt>
   <trkpt lat="45.607600000000005" lon="6.20887">
    <ele>1959.1100000000001</ele>
   </trkpt>
   <trkpt lat="45.60775" lon="6.20849">
    <ele>1963.8500000000001</ele>
   </trkpt>
   <trkpt lat="45.60779" lon="6.20823">
    <ele>1970.3300000000002</ele>
   </trkpt>
   <trkpt lat="45.6077" lon="6.20809">
    <ele>1974.38</ele>
   </trkpt>
   <trkpt lat="45.60763" lon="6.20783">
    <ele>1981.72</ele>
   </trkpt>
   <trkpt lat="45.60779" lon="6.20746">
    <ele>1995.6200000000001</ele>
   </trkpt>
   <trkpt lat="45.60774000000001" lon="6.207350000000001">
    <ele>1999.8300000000002</ele>
   </trkpt>
   <trkpt lat="45.6077" lon="6.207210000000001">
    <ele>2003.88</ele>
   </trkpt>
   <trkpt lat="45.60757" lon="6.206930000000001">
    <ele>2006.8200000000002</ele>
   </trkpt>
   <trkpt lat="45.60741" lon="6.206690000000001">
    <ele>2001.44</ele>
   </trkpt>
   <trkpt lat="45.60732" lon="6.206620000000001">
    <ele>2001.44</ele>
   </trkpt>
   <trkpt lat="45.60725" lon="6.20652">
    <ele>2000.1299999999999</ele>
   </trkpt>
   <trkpt lat="45.60716" lon="6.20643">
    <ele>1999.1200000000001</ele>
   </trkpt>
   <trkpt lat="45.60705" lon="6.206370000000001">
    <ele>1999.03</ele>
   </trkpt>
   <trkpt lat="45.60689000000001" lon="6.206230000000001">
    <ele>1998.2100000000003</ele>
   </trkpt>
   <trkpt lat="45.606820000000006" lon="6.206130000000001">
    <ele>1997.6000000000001</ele>
   </trkpt>
   <trkpt lat="45.606660000000005" lon="6.20596">
    <ele>1995.91</ele>
   </trkpt>
   <trkpt lat="45.60658" lon="6.20582">
    <ele>1994.39</ele>
   </trkpt>
   <trkpt lat="45.60656" lon="6.20568">
    <ele>1990.73</ele>
   </trkpt>
   <trkpt lat="45.606480000000005" lon="6.205550000000001">
    <ele>1988.5400000000002</ele>
   </trkpt>
   <trkpt lat="45.606300000000005" lon="6.20539">
    <ele>1990.0700000000002</ele>
   </trkpt>
   <trkpt lat="45.6062" lon="6.20528">
    <ele>1989.17</ele>
   </trkpt>
   <trkpt lat="45.60611" lon="6.20502">
    <ele>1984.2800000000002</ele>
   </trkpt>
   <trkpt lat="45.60602" lon="6.20492">
    <ele>1984.41</ele>
   </trkpt>
   <trkpt lat="45.60591" lon="6.2046600000000005">
    <ele>1980.8000000000002</ele>
   </trkpt>
   <trkpt lat="45.60584" lon="6.204560000000001">
    <ele>1979.95</ele>
   </trkpt>
   <trkpt lat="45.60582" lon="6.204420000000001">
    <ele>1976.71</ele>
   </trkpt>
   <trkpt lat="45.60582" lon="6.204300000000001">
    <ele>1970.8700000000001</ele>
   </trkpt>
   <trkpt lat="45.60575" lon="6.2041900000000005">
    <ele>1970.0000000000002</ele>
   </trkpt>
   <trkpt lat="45.60559000000001" lon="6.204070000000001">
    <ele>1973.18</ele>
   </trkpt>
   <trkpt lat="45.60542" lon="6.203880000000001">
    <ele>1971.8500000000001</ele>
   </trkpt>
   <trkpt lat="45.605320000000006" lon="6.203830000000001">
    <ele>1973.13</ele>
   </trkpt>
   <trkpt lat="45.6052" lon="6.203690000000001">
    <ele>1972.5</ele>
   </trkpt>
   <trkpt lat="45.605140000000006" lon="6.203570000000001">
    <ele>1970.5500000000002</ele>
   </trkpt>
   <trkpt lat="45.605050000000006" lon="6.203480000000001">
    <ele>1971.1900000000003</ele>
   </trkpt>
   <trkpt lat="45.60497" lon="6.203430000000001">
    <ele>1972.7500000000002</ele>
   </trkpt>
   <trkpt lat="45.60488" lon="6.20333">
    <ele>1972.43</ele>
   </trkpt>
   <trkpt lat="45.60483000000001" lon="6.20319">
    <ele>1970.2700000000002</ele>
   </trkpt>
   <trkpt lat="45.60474000000001" lon="6.203130000000001">
    <ele>1971.72</ele>
   </trkpt>
   <trkpt lat="45.60455" lon="6.202780000000001">
    <ele>1969.72</ele>
   </trkpt>
   <trkpt lat="45.604440000000004" lon="6.202540000000001">
    <ele>1966.1000000000001</ele>
   </trkpt>
   <trkpt lat="45.60436000000001" lon="6.202280000000001">
    <ele>1964.91</ele>
   </trkpt>
   <trkpt lat="45.6043" lon="6.20216">
    <ele>1963.39</ele>
   </trkpt>
   <trkpt lat="45.604260000000004" lon="6.20202">
    <ele>1960.97</ele>
   </trkpt>
   <trkpt lat="45.60417" lon="6.201930000000001">
    <ele>1960.89</ele>
   </trkpt>
   <trkpt lat="45.60417" lon="6.201790000000001">
    <ele>1958.8100000000002</ele>
   </trkpt>
   <trkpt lat="45.604130000000005" lon="6.20166">
    <ele>1957.66</ele>
   </trkpt>
   <trkpt lat="45.604020000000006" lon="6.201530000000001">
    <ele>1958.1800000000003</ele>
   </trkpt>
   <trkpt lat="45.60401" lon="6.2014000000000005">
    <ele>1957.15</ele>
   </trkpt>
   <trkpt lat="45.60392" lon="6.20129">
    <ele>1957.71</ele>
   </trkpt>
   <trkpt lat="45.60389000000001" lon="6.20117">
    <ele>1957.38</ele>
   </trkpt>
   <trkpt lat="45.60389000000001" lon="6.2010000000000005">
    <ele>1956.41</ele>
   </trkpt>
   <trkpt lat="45.60374" lon="6.20063">
    <ele>1956.97</ele>
   </trkpt>
   <trkpt lat="45.60372" lon="6.20042">
    <ele>1956.64</ele>
   </trkpt>
   <trkpt lat="45.60374" lon="6.200290000000001">
    <ele>1955.78</ele>
   </trkpt>
   <trkpt lat="45.6037" lon="6.20012">
    <ele>1957.2</ele>
   </trkpt>
   <trkpt lat="45.603640000000006" lon="6.20002">
    <ele>1959.0200000000002</ele>
   </trkpt>
   <trkpt lat="45.60369" lon="6.199770000000001">
    <ele>1958.1000000000001</ele>
   </trkpt>
   <trkpt lat="45.603660000000005" lon="6.199630000000001">
    <ele>1958.8500000000001</ele>
   </trkpt>
   <trkpt lat="45.603570000000005" lon="6.199520000000001">
    <ele>1962.4800000000002</ele>
   </trkpt>
   <trkpt lat="45.60358" lon="6.1992400000000005">
    <ele>1957.01</ele>
   </trkpt>
   <trkpt lat="45.603480000000005" lon="6.199210000000001">
    <ele>1960.7900000000002</ele>
   </trkpt>
   <trkpt lat="45.60343" lon="6.1991000000000005">
    <ele>1959.69</ele>
   </trkpt>
   <trkpt lat="45.603410000000004" lon="6.19897">
    <ele>1956.8</ele>
   </trkpt>
   <trkpt lat="45.603120000000004" lon="6.198200000000001">
    <ele>1945.8500000000001</ele>
   </trkpt>
   <trkpt lat="45.60311" lon="6.198060000000001">
    <ele>1942.0100000000002</ele>
   </trkpt>
   <trkpt lat="45.60316" lon="6.197940000000001">
    <ele>1936.3000000000002</ele>
   </trkpt>
   <trkpt lat="45.60324000000001" lon="6.197870000000001">
    <ele>1929.3000000000002</ele>
   </trkpt>
   <trkpt lat="45.603300000000004" lon="6.197760000000001">
    <ele>1922.2400000000002</ele>
   </trkpt>
   <trkpt lat="45.603280000000005" lon="6.19761">
    <ele>1916.0100000000002</ele>
   </trkpt>
   <trkpt lat="45.60322" lon="6.197500000000001">
    <ele>1914.43</ele>
   </trkpt>
   <trkpt lat="45.603320000000004" lon="6.1974100000000005">
    <ele>1902.5700000000002</ele>
   </trkpt>
   <trkpt lat="45.60333000000001" lon="6.1972700000000005">
    <ele>1895.5000000000002</ele>
   </trkpt>
   <trkpt lat="45.60336" lon="6.197150000000001">
    <ele>1886.6200000000001</ele>
   </trkpt>
   <trkpt lat="45.603570000000005" lon="6.197080000000001">
    <ele>1869.2400000000002</ele>
   </trkpt>
   <trkpt lat="45.60363" lon="6.196980000000001">
    <ele>1861.02</ele>
   </trkpt>
   <trkpt lat="45.60360000000001" lon="6.19685">
    <ele>1856.5300000000002</ele>
   </trkpt>
   <trkpt lat="45.603680000000004" lon="6.1967300000000005">
    <ele>1846.2600000000002</ele>
   </trkpt>
   <trkpt lat="45.603770000000004" lon="6.19671">
    <ele>1840.64</ele>
   </trkpt>
   <trkpt lat="45.60380000000001" lon="6.19657">
    <ele>1833.7</ele>
   </trkpt>
   <trkpt lat="45.60380000000001" lon="6.196420000000001">
    <ele>1828.38</ele>
   </trkpt>
   <trkpt lat="45.603840000000005" lon="6.1961200000000005">
    <ele>1815.0800000000002</ele>
   </trkpt>
   <trkpt lat="45.603930000000005" lon="6.19606">
    <ele>1807.4200000000003</ele>
   </trkpt>
   <trkpt lat="45.604000000000006" lon="6.195970000000001">
    <ele>1794.31</ele>
   </trkpt>
   <trkpt lat="45.6041" lon="6.19594">
    <ele>1794.31</ele>
   </trkpt>
   <trkpt lat="45.604200000000006" lon="6.1958400000000005">
    <ele>1786.0000000000002</ele>
   </trkpt>
   <trkpt lat="45.604220000000005" lon="6.195720000000001">
    <ele>1778.66</ele>
   </trkpt>
   <trkpt lat="45.60428" lon="6.19561">
    <ele>1773.09</ele>
   </trkpt>
   <trkpt lat="45.604350000000004" lon="6.19552">
    <ele>1764.67</ele>
   </trkpt>
   <trkpt lat="45.604380000000006" lon="6.19538">
    <ele>1757.7</ele>
   </trkpt>
   <trkpt lat="45.60446" lon="6.19531">
    <ele>1748.3200000000002</ele>
   </trkpt>
   <trkpt lat="45.604560000000006" lon="6.19528">
    <ele>1741.33</ele>
   </trkpt>
   <trkpt lat="45.60475" lon="6.195340000000001">
    <ele>1732.22</ele>
   </trkpt>
   <trkpt lat="45.60493" lon="6.19521">
    <ele>1717.2900000000002</ele>
   </trkpt>
   <trkpt lat="45.605000000000004" lon="6.19512">
    <ele>1706.38</ele>
   </trkpt>
   <trkpt lat="45.6051" lon="6.19507">
    <ele>1698.64</ele>
   </trkpt>
   <trkpt lat="45.60526" lon="6.194920000000001">
    <ele>1685.3300000000002</ele>
   </trkpt>
   <trkpt lat="45.6054" lon="6.1945500000000004">
    <ele>1667.0800000000002</ele>
   </trkpt>
   <trkpt lat="45.605470000000004" lon="6.194450000000001">
    <ele>1662.5</ele>
   </trkpt>
   <trkpt lat="45.605560000000004" lon="6.19441">
    <ele>1656.16</ele>
   </trkpt>
   <trkpt lat="45.60571" lon="6.1942">
    <ele>1643.5300000000002</ele>
   </trkpt>
   <trkpt lat="45.605810000000005" lon="6.1942">
    <ele>1636.2800000000002</ele>
   </trkpt>
   <trkpt lat="45.60589" lon="6.194140000000001">
    <ele>1631.28</ele>
   </trkpt>
   <trkpt lat="45.605990000000006" lon="6.194120000000001">
    <ele>1624.75</ele>
   </trkpt>
   <trkpt lat="45.606480000000005" lon="6.19385">
    <ele>1594.6200000000001</ele>
   </trkpt>
   <trkpt lat="45.60656" lon="6.19376">
    <ele>1591.01</ele>
   </trkpt>
   <trkpt lat="45.606640000000006" lon="6.19369">
    <ele>1591.01</ele>
   </trkpt>
   <trkpt lat="45.607020000000006" lon="6.19352">
    <ele>1573.17</ele>
   </trkpt>
   <trkpt lat="45.607130000000005" lon="6.193460000000001">
    <ele>1573.17</ele>
   </trkpt>
   <trkpt lat="45.607330000000005" lon="6.19331">
    <ele>1561.05</ele>
   </trkpt>
   <trkpt lat="45.607400000000005" lon="6.193200000000001">
    <ele>1555.7800000000002</ele>
   </trkpt>
   <trkpt lat="45.6075" lon="6.193160000000001">
    <ele>1552.2300000000002</ele>
   </trkpt>
   <trkpt lat="45.607710000000004" lon="6.19322">
    <ele>1543.3300000000002</ele>
   </trkpt>
   <trkpt lat="45.607800000000005" lon="6.19315">
    <ele>1543.3300000000002</ele>
   </trkpt>
   <trkpt lat="45.60788" lon="6.19305">
    <ele>1536.1</ele>
   </trkpt>
   <trkpt lat="45.607960000000006" lon="6.19298">
    <ele>1536.1</ele>
   </trkpt>
   <trkpt lat="45.608180000000004" lon="6.1929300000000005">
    <ele>1526.48</ele>
   </trkpt>
   <trkpt lat="45.608270000000005" lon="6.192850000000001">
    <ele>1522.82</ele>
   </trkpt>
   <trkpt lat="45.608410000000006" lon="6.19261">
    <ele>1511.65</ele>
   </trkpt>
   <trkpt lat="45.608610000000006" lon="6.1925300000000005">
    <ele>1508.3300000000002</ele>
   </trkpt>
   <trkpt lat="45.608740000000004" lon="6.192290000000001">
    <ele>1497.0100000000002</ele>
   </trkpt>
   <trkpt lat="45.60877000000001" lon="6.192150000000001">
    <ele>1493.8300000000002</ele>
   </trkpt>
   <trkpt lat="45.60878" lon="6.19202">
    <ele>1493.8300000000002</ele>
   </trkpt>
   <trkpt lat="45.60884" lon="6.191890000000001">
    <ele>1487.92</ele>
   </trkpt>
   <trkpt lat="45.608880000000006" lon="6.191730000000001">
    <ele>1482.72</ele>
   </trkpt>
   <trkpt lat="45.608990000000006" lon="6.191490000000001">
    <ele>1470.3300000000002</ele>
   </trkpt>
   <trkpt lat="45.609030000000004" lon="6.1911700000000005">
    <ele>1461.7000000000003</ele>
   </trkpt>
   <trkpt lat="45.60907" lon="6.19104">
    <ele>1461.7000000000003</ele>
   </trkpt>
   <trkpt lat="45.60911" lon="6.190390000000001">
    <ele>1450.4</ele>
   </trkpt>
   <trkpt lat="45.609350000000006" lon="6.1904200000000005">
    <ele>1447.81</ele>
   </trkpt>
   <trkpt lat="45.60953000000001" lon="6.1904">
    <ele>1446.3300000000002</ele>
   </trkpt>
   <trkpt lat="45.60981" lon="6.190270000000001">
    <ele>1443.5800000000002</ele>
   </trkpt>
   <trkpt lat="45.60989000000001" lon="6.19021">
    <ele>1443.27</ele>
   </trkpt>
   <trkpt lat="45.610170000000004" lon="6.18984">
    <ele>1440.0400000000002</ele>
   </trkpt>
   <trkpt lat="45.6103" lon="6.189620000000001">
    <ele>1438.8100000000002</ele>
   </trkpt>
   <trkpt lat="45.610200000000006" lon="6.18935">
    <ele>1439.0200000000002</ele>
   </trkpt>
   <trkpt lat="45.610220000000005" lon="6.18923">
    <ele>1439.27</ele>
   </trkpt>
   <trkpt lat="45.610380000000006" lon="6.188720000000001">
    <ele>1440.86</ele>
   </trkpt>
   <trkpt lat="45.61045000000001" lon="6.1885900000000005">
    <ele>1444.98</ele>
   </trkpt>
   <trkpt lat="45.610350000000004" lon="6.188510000000001">
    <ele>1445.27</ele>
   </trkpt>
   <trkpt lat="45.6103" lon="6.188510000000001">
    <ele>1445.27</ele>
   </trkpt>
   <trkpt lat="45.61027000000001" lon="6.188370000000001">
    <ele>1447.3100000000002</ele>
   </trkpt>
   <trkpt lat="45.61052" lon="6.1881200000000005">
    <ele>1449.88</ele>
   </trkpt>
   <trkpt lat="45.610620000000004" lon="6.187970000000001">
    <ele>1451.8500000000001</ele>
   </trkpt>
   <trkpt lat="45.610670000000006" lon="6.18777">
    <ele>1452.7</ele>
   </trkpt>
   <trkpt lat="45.610690000000005" lon="6.187550000000001">
    <ele>1452.7</ele>
   </trkpt>
   <trkpt lat="45.610850000000006" lon="6.18716">
    <ele>1458.14</ele>
   </trkpt>
   <trkpt lat="45.610850000000006" lon="6.18707">
    <ele>1458.14</ele>
   </trkpt>
   <trkpt lat="45.610910000000004" lon="6.18698">
    <ele>1458.14</ele>
   </trkpt>
   <trkpt lat="45.61119" lon="6.1869000000000005">
    <ele>1461.27</ele>
   </trkpt>
   <trkpt lat="45.611360000000005" lon="6.186750000000001">
    <ele>1463.23</ele>
   </trkpt>
   <trkpt lat="45.61139000000001" lon="6.18665">
    <ele>1464.3799999999999</ele>
   </trkpt>
   <trkpt lat="45.61139000000001" lon="6.186570000000001">
    <ele>1464.3799999999999</ele>
   </trkpt>
   <trkpt lat="45.611340000000006" lon="6.18648">
    <ele>1465.0500000000002</ele>
   </trkpt>
   <trkpt lat="45.61117" lon="6.18634">
    <ele>1467.18</ele>
   </trkpt>
   <trkpt lat="45.61097" lon="6.18627">
    <ele>1469.41</ele>
   </trkpt>
   <trkpt lat="45.610800000000005" lon="6.18613">
    <ele>1471.74</ele>
   </trkpt>
   <trkpt lat="45.610240000000005" lon="6.18555">
    <ele>1477.67</ele>
   </trkpt>
   <trkpt lat="45.610020000000006" lon="6.18529">
    <ele>1483.4600000000003</ele>
   </trkpt>
   <trkpt lat="45.60989000000001" lon="6.1852100000000005">
    <ele>1483.4600000000003</ele>
   </trkpt>
   <trkpt lat="45.60947" lon="6.18501">
    <ele>1487.38</ele>
   </trkpt>
   <trkpt lat="45.60929" lon="6.184850000000001">
    <ele>1490.65</ele>
   </trkpt>
   <trkpt lat="45.609140000000004" lon="6.184760000000001">
    <ele>1492.9</ele>
   </trkpt>
   <trkpt lat="45.60897000000001" lon="6.184620000000001">
    <ele>1496.75</ele>
   </trkpt>
   <trkpt lat="45.60866" lon="6.18451">
    <ele>1499.47</ele>
   </trkpt>
   <trkpt lat="45.608380000000004" lon="6.1844600000000005">
    <ele>1502.82</ele>
   </trkpt>
   <trkpt lat="45.60811" lon="6.1843">
    <ele>1507.18</ele>
   </trkpt>
   <trkpt lat="45.607940000000006" lon="6.18416">
    <ele>1507.18</ele>
   </trkpt>
   <trkpt lat="45.607620000000004" lon="6.183960000000001">
    <ele>1511.45</ele>
   </trkpt>
   <trkpt lat="45.60683" lon="6.18369">
    <ele>1519.22</ele>
   </trkpt>
   <trkpt lat="45.60647" lon="6.18365">
    <ele>1525.3200000000002</ele>
   </trkpt>
   <trkpt lat="45.60633000000001" lon="6.18372">
    <ele>1528.28</ele>
   </trkpt>
   <trkpt lat="45.606190000000005" lon="6.18372">
    <ele>1529.3400000000001</ele>
   </trkpt>
   <trkpt lat="45.605970000000006" lon="6.18365">
    <ele>1532.5900000000001</ele>
   </trkpt>
   <trkpt lat="45.6058" lon="6.18365">
    <ele>1534.25</ele>
   </trkpt>
   <trkpt lat="45.605540000000005" lon="6.183540000000001">
    <ele>1536.58</ele>
   </trkpt>
   <trkpt lat="45.60535" lon="6.18341">
    <ele>1537.91</ele>
   </trkpt>
   <trkpt lat="45.605290000000004" lon="6.183400000000001">
    <ele>1538.52</ele>
   </trkpt>
   <trkpt lat="45.60506" lon="6.18327">
    <ele>1539.6200000000001</ele>
   </trkpt>
   <trkpt lat="45.604780000000005" lon="6.183190000000001">
    <ele>1542.61</ele>
   </trkpt>
   <trkpt lat="45.60448" lon="6.183190000000001">
    <ele>1547.1200000000001</ele>
   </trkpt>
   <trkpt lat="45.604000000000006" lon="6.183160000000001">
    <ele>1552.0200000000002</ele>
   </trkpt>
   <trkpt lat="45.603750000000005" lon="6.183210000000001">
    <ele>1558.45</ele>
   </trkpt>
   <trkpt lat="45.603530000000006" lon="6.183190000000001">
    <ele>1562.8300000000002</ele>
   </trkpt>
   <trkpt lat="45.60324000000001" lon="6.183090000000001">
    <ele>1568.3200000000002</ele>
   </trkpt>
   <trkpt lat="45.60257000000001" lon="6.182910000000001">
    <ele>1578.8200000000002</ele>
   </trkpt>
   <trkpt lat="45.602410000000006" lon="6.1829">
    <ele>1585.1000000000001</ele>
   </trkpt>
   <trkpt lat="45.60208" lon="6.18282">
    <ele>1590.2800000000002</ele>
   </trkpt>
   <trkpt lat="45.60132" lon="6.182390000000001">
    <ele>1601.13</ele>
   </trkpt>
   <trkpt lat="45.60096" lon="6.18238">
    <ele>1609.6000000000001</ele>
   </trkpt>
   <trkpt lat="45.60083" lon="6.182340000000001">
    <ele>1609.6000000000001</ele>
   </trkpt>
   <trkpt lat="45.600280000000005" lon="6.182040000000001">
    <ele>1626.47</ele>
   </trkpt>
   <trkpt lat="45.60009" lon="6.181800000000001">
    <ele>1629.8600000000001</ele>
   </trkpt>
   <trkpt lat="45.6" lon="6.1816">
    <ele>1631.75</ele>
   </trkpt>
   <trkpt lat="45.59993" lon="6.18149">
    <ele>1633.3000000000002</ele>
   </trkpt>
   <trkpt lat="45.59944" lon="6.1811300000000005">
    <ele>1643.16</ele>
   </trkpt>
   <trkpt lat="45.599090000000004" lon="6.180910000000001">
    <ele>1650.29</ele>
   </trkpt>
   <trkpt lat="45.59843" lon="6.1803300000000005">
    <ele>1664.73</ele>
   </trkpt>
   <trkpt lat="45.59825000000001" lon="6.1801900000000005">
    <ele>1666.97</ele>
   </trkpt>
   <trkpt lat="45.597950000000004" lon="6.18008">
    <ele>1676.66</ele>
   </trkpt>
   <trkpt lat="45.597300000000004" lon="6.1799800000000005">
    <ele>1692.6000000000001</ele>
   </trkpt>
   <trkpt lat="45.59709" lon="6.179970000000001">
    <ele>1697.2300000000002</ele>
   </trkpt>
   <trkpt lat="45.59705" lon="6.179930000000001">
    <ele>1698.3400000000001</ele>
   </trkpt>
   <trkpt lat="45.59691" lon="6.179900000000001">
    <ele>1702.4800000000002</ele>
   </trkpt>
   <trkpt lat="45.5968" lon="6.179830000000001">
    <ele>1705.71</ele>
   </trkpt>
   <trkpt lat="45.596740000000004" lon="6.179760000000001">
    <ele>1705.71</ele>
   </trkpt>
   <trkpt lat="45.596700000000006" lon="6.179760000000001">
    <ele>1707.9700000000003</ele>
   </trkpt>
   <trkpt lat="45.59658" lon="6.1796500000000005">
    <ele>1711.38</ele>
   </trkpt>
   <trkpt lat="45.59658" lon="6.179640000000001">
    <ele>1711.38</ele>
   </trkpt>
   <trkpt lat="45.59705500059173" lon="6.179315002661496">
    <ele>1698.2</ele>
   </trkpt>
   <trkpt lat="45.597530000000006" lon="6.178990000000001">
    <ele>1692.97</ele>
   </trkpt>
   <trkpt lat="45.59808" lon="6.178750000000001">
    <ele>1698.7</ele>
   </trkpt>
   <trkpt lat="45.598220000000005" lon="6.17851">
    <ele>1703.65</ele>
   </trkpt>
   <trkpt lat="45.59826" lon="6.17832">
    <ele>1709.9400000000003</ele>
   </trkpt>
   <trkpt lat="45.59835" lon="6.17823">
    <ele>1713.0500000000002</ele>
   </trkpt>
   <trkpt lat="45.59857" lon="6.178260000000001">
    <ele>1716.14</ele>
   </trkpt>
   <trkpt lat="45.59866" lon="6.178190000000001">
    <ele>1719.27</ele>
   </trkpt>
   <trkpt lat="45.59872000000001" lon="6.17802">
    <ele>1724.63</ele>
   </trkpt>
   <trkpt lat="45.598710000000004" lon="6.17783">
    <ele>1731.95</ele>
   </trkpt>
   <trkpt lat="45.598760000000006" lon="6.177560000000001">
    <ele>1742.49</ele>
   </trkpt>
   <trkpt lat="45.59875" lon="6.177350000000001">
    <ele>1751.0500000000002</ele>
   </trkpt>
   <trkpt lat="45.59868" lon="6.177230000000001">
    <ele>1754.8400000000001</ele>
   </trkpt>
   <trkpt lat="45.598580000000005" lon="6.1771400000000005">
    <ele>1756.5000000000002</ele>
   </trkpt>
   <trkpt lat="45.59855" lon="6.177020000000001">
    <ele>1762.7400000000002</ele>
   </trkpt>
   <trkpt lat="45.598910000000004" lon="6.17684">
    <ele>1769.7800000000002</ele>
   </trkpt>
   <trkpt lat="45.59931" lon="6.176520000000001">
    <ele>1781.0500000000002</ele>
   </trkpt>
   <trkpt lat="45.59946" lon="6.176360000000001">
    <ele>1790.73</ele>
   </trkpt>
   <trkpt lat="45.599680000000006" lon="6.1763">
    <ele>1801.23</ele>
   </trkpt>
   <trkpt lat="45.59975" lon="6.176240000000001">
    <ele>1806.58</ele>
   </trkpt>
   <trkpt lat="45.599790000000006" lon="6.17619">
    <ele>1806.58</ele>
   </trkpt>
   <trkpt lat="45.59973" lon="6.17614">
    <ele>1810.9700000000003</ele>
   </trkpt>
   <trkpt lat="45.59978" lon="6.176100000000001">
    <ele>1813.6100000000001</ele>
   </trkpt>
   <trkpt lat="45.599810000000005" lon="6.17595">
    <ele>1819.7500000000002</ele>
   </trkpt>
   <trkpt lat="45.599740000000004" lon="6.17586">
    <ele>1830.07</ele>
   </trkpt>
   <trkpt lat="45.600060000000006" lon="6.17562">
    <ele>1848.15</ele>
   </trkpt>
   <trkpt lat="45.600150000000006" lon="6.175610000000001">
    <ele>1852.2600000000002</ele>
   </trkpt>
   <trkpt lat="45.600300000000004" lon="6.175510000000001">
    <ele>1859.5600000000002</ele>
   </trkpt>
   <trkpt lat="45.600440000000006" lon="6.175350000000001">
    <ele>1868.51</ele>
   </trkpt>
   <trkpt lat="45.60047" lon="6.175260000000001">
    <ele>1878.64</ele>
   </trkpt>
   <trkpt lat="45.600530000000006" lon="6.175260000000001">
    <ele>1881.91</ele>
   </trkpt>
   <trkpt lat="45.60052" lon="6.17515">
    <ele>1887.82</ele>
   </trkpt>
   <trkpt lat="45.600550000000005" lon="6.17515">
    <ele>1887.82</ele>
   </trkpt>
   <trkpt lat="45.600590000000004" lon="6.17506">
    <ele>1895.72</ele>
   </trkpt>
   <trkpt lat="45.600660000000005" lon="6.17504">
    <ele>1898.5</ele>
   </trkpt>
   <trkpt lat="45.60074" lon="6.174910000000001">
    <ele>1901.45</ele>
   </trkpt>
   <trkpt lat="45.60072" lon="6.17485">
    <ele>1910.68</ele>
   </trkpt>
   <trkpt lat="45.600820000000006" lon="6.1747700000000005">
    <ele>1919.24</ele>
   </trkpt>
   <trkpt lat="45.60079" lon="6.17471">
    <ele>1919.24</ele>
   </trkpt>
   <trkpt lat="45.60081" lon="6.174670000000001">
    <ele>1919.24</ele>
   </trkpt>
   <trkpt lat="45.60079" lon="6.17466">
    <ele>1919.24</ele>
   </trkpt>
   <trkpt lat="45.60080000000001" lon="6.174620000000001">
    <ele>1919.24</ele>
   </trkpt>
   <trkpt lat="45.60076" lon="6.17457">
    <ele>1934.1200000000001</ele>
   </trkpt>
   <trkpt lat="45.60078" lon="6.174510000000001">
    <ele>1934.1200000000001</ele>
   </trkpt>
   <trkpt lat="45.60071000000001" lon="6.174440000000001">
    <ele>1940.5</ele>
   </trkpt>
   <trkpt lat="45.600750000000005" lon="6.17433">
    <ele>1940.5</ele>
   </trkpt>
   <trkpt lat="45.600680000000004" lon="6.174150000000001">
    <ele>1953.9</ele>
   </trkpt>
   <trkpt lat="45.600680000000004" lon="6.17403">
    <ele>1960.3100000000002</ele>
   </trkpt>
   <trkpt lat="45.60063" lon="6.173940000000001">
    <ele>1966.44</ele>
   </trkpt>
   <trkpt lat="45.600570000000005" lon="6.17377">
    <ele>1975.2900000000002</ele>
   </trkpt>
   <trkpt lat="45.60061" lon="6.17372">
    <ele>1975.5300000000002</ele>
   </trkpt>
   <trkpt lat="45.600660000000005" lon="6.173680000000001">
    <ele>1976.0600000000002</ele>
   </trkpt>
   <trkpt lat="45.60080000000001" lon="6.17379">
    <ele>1976.15</ele>
   </trkpt>
   <trkpt lat="45.60092" lon="6.173970000000001">
    <ele>1973.3300000000002</ele>
   </trkpt>
   <trkpt lat="45.60105" lon="6.17396">
    <ele>1972.25</ele>
   </trkpt>
   <trkpt lat="45.6011" lon="6.174">
    <ele>1972.25</ele>
   </trkpt>
   <trkpt lat="45.60132" lon="6.174060000000001">
    <ele>1972.1200000000001</ele>
   </trkpt>
   <trkpt lat="45.601420000000005" lon="6.174040000000001">
    <ele>1970.3300000000002</ele>
   </trkpt>
   <trkpt lat="45.60152" lon="6.17407">
    <ele>1968.1800000000003</ele>
   </trkpt>
   <trkpt lat="45.601600000000005" lon="6.17414">
    <ele>1965.1900000000003</ele>
   </trkpt>
   <trkpt lat="45.601670000000006" lon="6.174290000000001">
    <ele>1960.13</ele>
   </trkpt>
   <trkpt lat="45.60173" lon="6.174290000000001">
    <ele>1958.6900000000003</ele>
   </trkpt>
   <trkpt lat="45.602070000000005" lon="6.174510000000001">
    <ele>1947.21</ele>
   </trkpt>
   <trkpt lat="45.602250000000005" lon="6.174530000000001">
    <ele>1945.89</ele>
   </trkpt>
   <trkpt lat="45.602340000000005" lon="6.174580000000001">
    <ele>1945.19</ele>
   </trkpt>
   <trkpt lat="45.60235" lon="6.174460000000001">
    <ele>1945.19</ele>
   </trkpt>
   <trkpt lat="45.602320000000006" lon="6.174440000000001">
    <ele>1945.19</ele>
   </trkpt>
   <trkpt lat="45.602320000000006" lon="6.17438">
    <ele>1931.92</ele>
   </trkpt>
   <trkpt lat="45.60235" lon="6.17431">
    <ele>1931.92</ele>
   </trkpt>
   <trkpt lat="45.60233" lon="6.174250000000001">
    <ele>1931.92</ele>
   </trkpt>
   <trkpt lat="45.602450000000005" lon="6.174290000000001">
    <ele>1927.63</ele>
   </trkpt>
   <trkpt lat="45.602450000000005" lon="6.1742300000000006">
    <ele>1921.52</ele>
   </trkpt>
   <trkpt lat="45.60249" lon="6.1742300000000006">
    <ele>1921.52</ele>
   </trkpt>
   <trkpt lat="45.602500000000006" lon="6.17419">
    <ele>1921.52</ele>
   </trkpt>
   <trkpt lat="45.602450000000005" lon="6.17407">
    <ele>1915.75</ele>
   </trkpt>
   <trkpt lat="45.60248000000001" lon="6.174040000000001">
    <ele>1913.69</ele>
   </trkpt>
   <trkpt lat="45.60246" lon="6.17398">
    <ele>1913.69</ele>
   </trkpt>
   <trkpt lat="45.60239000000001" lon="6.17398">
    <ele>1909.0000000000002</ele>
   </trkpt>
   <trkpt lat="45.6024" lon="6.173680000000001">
    <ele>1896.94</ele>
   </trkpt>
   <trkpt lat="45.602250000000005" lon="6.17344">
    <ele>1887.1200000000001</ele>
   </trkpt>
   <trkpt lat="45.60224" lon="6.17321">
    <ele>1878.3700000000001</ele>
   </trkpt>
   <trkpt lat="45.6022" lon="6.173030000000001">
    <ele>1872.2900000000002</ele>
   </trkpt>
   <trkpt lat="45.602270000000004" lon="6.17288">
    <ele>1865.8700000000001</ele>
   </trkpt>
   <trkpt lat="45.602250000000005" lon="6.1728000000000005">
    <ele>1863.8200000000002</ele>
   </trkpt>
   <trkpt lat="45.60229" lon="6.172770000000001">
    <ele>1863.8200000000002</ele>
   </trkpt>
   <trkpt lat="45.60229" lon="6.172700000000001">
    <ele>1855.96</ele>
   </trkpt>
   <trkpt lat="45.602250000000005" lon="6.17271">
    <ele>1855.96</ele>
   </trkpt>
   <trkpt lat="45.6022" lon="6.17255">
    <ele>1852.0600000000002</ele>
   </trkpt>
   <trkpt lat="45.60210000000001" lon="6.172420000000001">
    <ele>1846.0</ele>
   </trkpt>
   <trkpt lat="45.602070000000005" lon="6.172320000000001">
    <ele>1842.1000000000001</ele>
   </trkpt>
   <trkpt lat="45.60202" lon="6.17227">
    <ele>1840.21</ele>
   </trkpt>
   <trkpt lat="45.602000000000004" lon="6.172180000000001">
    <ele>1838.4000000000003</ele>
   </trkpt>
   <trkpt lat="45.60195" lon="6.17208">
    <ele>1835.2400000000002</ele>
   </trkpt>
   <trkpt lat="45.6019" lon="6.17203">
    <ele>1833.86</ele>
   </trkpt>
   <trkpt lat="45.60188" lon="6.171950000000001">
    <ele>1829.94</ele>
   </trkpt>
   <trkpt lat="45.60174000000001" lon="6.17175">
    <ele>1826.4900000000002</ele>
   </trkpt>
   <trkpt lat="45.601670000000006" lon="6.1717200000000005">
    <ele>1824.8000000000002</ele>
   </trkpt>
   <trkpt lat="45.60128" lon="6.1711100000000005">
    <ele>1811.2700000000002</ele>
   </trkpt>
   <trkpt lat="45.601240000000004" lon="6.1709000000000005">
    <ele>1806.67</ele>
   </trkpt>
   <trkpt lat="45.60118000000001" lon="6.17079">
    <ele>1801.1800000000003</ele>
   </trkpt>
   <trkpt lat="45.60117" lon="6.1707">
    <ele>1799.1800000000003</ele>
   </trkpt>
   <trkpt lat="45.60114" lon="6.170640000000001">
    <ele>1795.0400000000002</ele>
   </trkpt>
   <trkpt lat="45.601150000000004" lon="6.170610000000001">
    <ele>1795.0400000000002</ele>
   </trkpt>
   <trkpt lat="45.60112" lon="6.170590000000001">
    <ele>1795.0400000000002</ele>
   </trkpt>
   <trkpt lat="45.60108" lon="6.17041">
    <ele>1788.39</ele>
   </trkpt>
   <trkpt lat="45.6011" lon="6.170140000000001">
    <ele>1778.69</ele>
   </trkpt>
   <trkpt lat="45.60108" lon="6.17001">
    <ele>1769.36</ele>
   </trkpt>
   <trkpt lat="45.601130000000005" lon="6.169790000000001">
    <ele>1759.69</ele>
   </trkpt>
   <trkpt lat="45.60107000000001" lon="6.169440000000001">
    <ele>1753.43</ele>
   </trkpt>
   <trkpt lat="45.601040000000005" lon="6.169370000000001">
    <ele>1748.14</ele>
   </trkpt>
   <trkpt lat="45.60108" lon="6.169250000000001">
    <ele>1744.43</ele>
   </trkpt>
   <trkpt lat="45.60107000000001" lon="6.16919">
    <ele>1744.43</ele>
   </trkpt>
   <trkpt lat="45.60098000000001" lon="6.1690700000000005">
    <ele>1741.96</ele>
   </trkpt>
   <trkpt lat="45.60087" lon="6.16908">
    <ele>1739.7300000000002</ele>
   </trkpt>
   <trkpt lat="45.600620000000006" lon="6.169040000000001">
    <ele>1735.2800000000002</ele>
   </trkpt>
   <trkpt lat="45.600550000000005" lon="6.169060000000001">
    <ele>1731.1900000000003</ele>
   </trkpt>
   <trkpt lat="45.600460000000005" lon="6.16912">
    <ele>1731.1900000000003</ele>
   </trkpt>
   <trkpt lat="45.600440000000006" lon="6.169110000000001">
    <ele>1731.1900000000003</ele>
   </trkpt>
   <trkpt lat="45.600530000000006" lon="6.168920000000001">
    <ele>1726.96</ele>
   </trkpt>
   <trkpt lat="45.60065" lon="6.168780000000001">
    <ele>1724.14</ele>
   </trkpt>
   <trkpt lat="45.600910000000006" lon="6.16854">
    <ele>1716.7500000000002</ele>
   </trkpt>
   <trkpt lat="45.601020000000005" lon="6.168480000000001">
    <ele>1714.9900000000002</ele>
   </trkpt>
   <trkpt lat="45.601310000000005" lon="6.168480000000001">
    <ele>1708.8700000000001</ele>
   </trkpt>
   <trkpt lat="45.601150000000004" lon="6.16823">
    <ele>1702.8100000000002</ele>
   </trkpt>
   <trkpt lat="45.60107000000001" lon="6.168150000000001">
    <ele>1702.8100000000002</ele>
   </trkpt>
   <trkpt lat="45.600970000000004" lon="6.16811">
    <ele>1697.3300000000002</ele>
   </trkpt>
   <trkpt lat="45.60072" lon="6.16809">
    <ele>1694.43</ele>
   </trkpt>
   <trkpt lat="45.60079" lon="6.168">
    <ele>1693.3700000000001</ele>
   </trkpt>
   <trkpt lat="45.60101" lon="6.167800000000001">
    <ele>1686.15</ele>
   </trkpt>
   <trkpt lat="45.60137" lon="6.16767">
    <ele>1678.66</ele>
   </trkpt>
   <trkpt lat="45.601470000000006" lon="6.16769">
    <ele>1675.43</ele>
   </trkpt>
   <trkpt lat="45.601530000000004" lon="6.167750000000001">
    <ele>1673.3700000000001</ele>
   </trkpt>
   <trkpt lat="45.601690000000005" lon="6.16779">
    <ele>1669.55</ele>
   </trkpt>
   <trkpt lat="45.601580000000006" lon="6.167510000000001">
    <ele>1665.6000000000001</ele>
   </trkpt>
   <trkpt lat="45.60146" lon="6.167330000000001">
    <ele>1661.9</ele>
   </trkpt>
   <trkpt lat="45.601330000000004" lon="6.1671700000000005">
    <ele>1657.5400000000002</ele>
   </trkpt>
   <trkpt lat="45.60128" lon="6.16715">
    <ele>1657.5400000000002</ele>
   </trkpt>
   <trkpt lat="45.601240000000004" lon="6.167160000000001">
    <ele>1657.5400000000002</ele>
   </trkpt>
   <trkpt lat="45.60123" lon="6.167140000000001">
    <ele>1655.7400000000002</ele>
   </trkpt>
   <trkpt lat="45.601380000000006" lon="6.16706">
    <ele>1655.7400000000002</ele>
   </trkpt>
   <trkpt lat="45.60145000000001" lon="6.16706">
    <ele>1655.7400000000002</ele>
   </trkpt>
   <trkpt lat="45.60181" lon="6.1671700000000005">
    <ele>1645.28</ele>
   </trkpt>
   <trkpt lat="45.60184" lon="6.167160000000001">
    <ele>1641.7</ele>
   </trkpt>
   <trkpt lat="45.60184" lon="6.16713">
    <ele>1641.7</ele>
   </trkpt>
   <trkpt lat="45.60168" lon="6.166900000000001">
    <ele>1636.66</ele>
   </trkpt>
   <trkpt lat="45.60157" lon="6.16664">
    <ele>1633.94</ele>
   </trkpt>
   <trkpt lat="45.601510000000005" lon="6.1665600000000005">
    <ele>1631.48</ele>
   </trkpt>
   <trkpt lat="45.601420000000005" lon="6.1665">
    <ele>1629.7400000000002</ele>
   </trkpt>
   <trkpt lat="45.601310000000005" lon="6.1665">
    <ele>1627.7700000000002</ele>
   </trkpt>
   <trkpt lat="45.60137" lon="6.16643">
    <ele>1624.53</ele>
   </trkpt>
   <trkpt lat="45.60155" lon="6.16631">
    <ele>1622.45</ele>
   </trkpt>
   <trkpt lat="45.60163000000001" lon="6.166290000000001">
    <ele>1618.5200000000002</ele>
   </trkpt>
   <trkpt lat="45.6017" lon="6.16628">
    <ele>1618.5200000000002</ele>
   </trkpt>
   <trkpt lat="45.60210000000001" lon="6.16636">
    <ele>1608.38</ele>
   </trkpt>
   <trkpt lat="45.601870000000005" lon="6.165920000000001">
    <ele>1601.3300000000002</ele>
   </trkpt>
   <trkpt lat="45.601800000000004" lon="6.16586">
    <ele>1597.88</ele>
   </trkpt>
   <trkpt lat="45.60161" lon="6.165800000000001">
    <ele>1594.68</ele>
   </trkpt>
   <trkpt lat="45.60125" lon="6.16577">
    <ele>1588.5200000000002</ele>
   </trkpt>
   <trkpt lat="45.60128" lon="6.16572">
    <ele>1587.5700000000002</ele>
   </trkpt>
   <trkpt lat="45.601670000000006" lon="6.165470000000001">
    <ele>1580.0800000000002</ele>
   </trkpt>
   <trkpt lat="45.602160000000005" lon="6.165260000000001">
    <ele>1572.1200000000001</ele>
   </trkpt>
   <trkpt lat="45.60237" lon="6.16514">
    <ele>1567.39</ele>
   </trkpt>
   <trkpt lat="45.602380000000004" lon="6.16511">
    <ele>1567.39</ele>
   </trkpt>
   <trkpt lat="45.60222" lon="6.16506">
    <ele>1564.3600000000001</ele>
   </trkpt>
   <trkpt lat="45.60183000000001" lon="6.165000000000001">
    <ele>1557.25</ele>
   </trkpt>
   <trkpt lat="45.601510000000005" lon="6.164980000000001">
    <ele>1551.2800000000002</ele>
   </trkpt>
   <trkpt lat="45.60116000000001" lon="6.16499">
    <ele>1545.95</ele>
   </trkpt>
   <trkpt lat="45.60103" lon="6.164960000000001">
    <ele>1543.39</ele>
   </trkpt>
   <trkpt lat="45.600930000000005" lon="6.164980000000001">
    <ele>1543.39</ele>
   </trkpt>
   <trkpt lat="45.600910000000006" lon="6.16497">
    <ele>1543.39</ele>
   </trkpt>
   <trkpt lat="45.60092" lon="6.164930000000001">
    <ele>1539.2700000000002</ele>
   </trkpt>
   <trkpt lat="45.601110000000006" lon="6.164860000000001">
    <ele>1537.5100000000002</ele>
   </trkpt>
   <trkpt lat="45.601490000000005" lon="6.164580000000001">
    <ele>1529.77</ele>
   </trkpt>
   <trkpt lat="45.60175" lon="6.16441">
    <ele>1524.5700000000002</ele>
   </trkpt>
   <trkpt lat="45.60204" lon="6.16429">
    <ele>1520.68</ele>
   </trkpt>
   <trkpt lat="45.60277000000001" lon="6.16408">
    <ele>1508.13</ele>
   </trkpt>
   <trkpt lat="45.603170000000006" lon="6.16401">
    <ele>1498.97</ele>
   </trkpt>
   <trkpt lat="45.603460000000005" lon="6.164000000000001">
    <ele>1495.78</ele>
   </trkpt>
   <trkpt lat="45.603550000000006" lon="6.164020000000001">
    <ele>1493.2500000000002</ele>
   </trkpt>
   <trkpt lat="45.603640000000006" lon="6.164070000000001">
    <ele>1491.2800000000002</ele>
   </trkpt>
   <trkpt lat="45.603570000000005" lon="6.16399">
    <ele>1488.91</ele>
   </trkpt>
   <trkpt lat="45.60365" lon="6.163810000000001">
    <ele>1481.26</ele>
   </trkpt>
   <trkpt lat="45.60369" lon="6.16368">
    <ele>1471.7600000000002</ele>
   </trkpt>
   <trkpt lat="45.60376" lon="6.163570000000001">
    <ele>1465.21</ele>
   </trkpt>
   <trkpt lat="45.60385" lon="6.163550000000001">
    <ele>1458.7800000000002</ele>
   </trkpt>
   <trkpt lat="45.603950000000005" lon="6.1634400000000005">
    <ele>1457.7300000000002</ele>
   </trkpt>
   <trkpt lat="45.60394" lon="6.163290000000001">
    <ele>1451.4600000000003</ele>
   </trkpt>
   <trkpt lat="45.60387" lon="6.163">
    <ele>1437.5500000000002</ele>
   </trkpt>
   <trkpt lat="45.603910000000006" lon="6.16288">
    <ele>1432.49</ele>
   </trkpt>
   <trkpt lat="45.60367" lon="6.16225">
    <ele>1395.93</ele>
   </trkpt>
   <trkpt lat="45.603950000000005" lon="6.16197">
    <ele>1392.5700000000002</ele>
   </trkpt>
   <trkpt lat="45.60414" lon="6.16173">
    <ele>1386.8700000000001</ele>
   </trkpt>
   <trkpt lat="45.604530000000004" lon="6.16115">
    <ele>1376.65</ele>
   </trkpt>
   <trkpt lat="45.60474000000001" lon="6.1610000000000005">
    <ele>1372.38</ele>
   </trkpt>
   <trkpt lat="45.60481" lon="6.160900000000001">
    <ele>1370.89</ele>
   </trkpt>
   <trkpt lat="45.60493" lon="6.16056">
    <ele>1358.4</ele>
   </trkpt>
   <trkpt lat="45.6049" lon="6.16047">
    <ele>1358.4</ele>
   </trkpt>
   <trkpt lat="45.604910000000004" lon="6.160310000000001">
    <ele>1354.0100000000002</ele>
   </trkpt>
   <trkpt lat="45.60515" lon="6.16035">
    <ele>1350.68</ele>
   </trkpt>
   <trkpt lat="45.60530000000001" lon="6.160340000000001">
    <ele>1349.32</ele>
   </trkpt>
   <trkpt lat="45.605430000000005" lon="6.160240000000001">
    <ele>1352.1200000000001</ele>
   </trkpt>
   <trkpt lat="45.605500000000006" lon="6.1604600000000005">
    <ele>1349.8600000000001</ele>
   </trkpt>
   <trkpt lat="45.60559000000001" lon="6.16056">
    <ele>1346.67</ele>
   </trkpt>
   <trkpt lat="45.60577000000001" lon="6.160800000000001">
    <ele>1339.91</ele>
   </trkpt>
   <trkpt lat="45.60589" lon="6.160830000000001">
    <ele>1335.26</ele>
   </trkpt>
   <trkpt lat="45.605990000000006" lon="6.160570000000001">
    <ele>1322.7300000000002</ele>
   </trkpt>
   <trkpt lat="45.60624000000001" lon="6.160710000000001">
    <ele>1318.93</ele>
   </trkpt>
   <trkpt lat="45.60654" lon="6.160990000000001">
    <ele>1313.13</ele>
   </trkpt>
   <trkpt lat="45.606730000000006" lon="6.16122">
    <ele>1305.15</ele>
   </trkpt>
   <trkpt lat="45.60680000000001" lon="6.161390000000001">
    <ele>1301.25</ele>
   </trkpt>
   <trkpt lat="45.60678" lon="6.16155">
    <ele>1298.1200000000001</ele>
   </trkpt>
   <trkpt lat="45.60680000000001" lon="6.16171">
    <ele>1296.38</ele>
   </trkpt>
   <trkpt lat="45.606860000000005" lon="6.161910000000001">
    <ele>1293.5500000000002</ele>
   </trkpt>
   <trkpt lat="45.6069" lon="6.161980000000001">
    <ele>1292.96</ele>
   </trkpt>
   <trkpt lat="45.60699" lon="6.161980000000001">
    <ele>1291.4</ele>
   </trkpt>
   <trkpt lat="45.60762500021191" lon="6.161730002854023">
    <ele>1285.95</ele>
   </trkpt>
   <trkpt lat="45.60826" lon="6.16148">
    <ele>1280.6000000000001</ele>
   </trkpt>
   <trkpt lat="45.608470000000004" lon="6.16143">
    <ele>1278.1</ele>
   </trkpt>
   <trkpt lat="45.60875" lon="6.16148">
    <ele>1274.21</ele>
   </trkpt>
   <trkpt lat="45.60898" lon="6.161670000000001">
    <ele>1269.5200000000002</ele>
   </trkpt>
   <trkpt lat="45.60915000000001" lon="6.16194">
    <ele>1262.76</ele>
   </trkpt>
   <trkpt lat="45.60933000000001" lon="6.16213">
    <ele>1255.3200000000002</ele>
   </trkpt>
   <trkpt lat="45.60942000000001" lon="6.162120000000001">
    <ele>1255.3200000000002</ele>
   </trkpt>
   <trkpt lat="45.609500000000004" lon="6.162030000000001">
    <ele>1255.3200000000002</ele>
   </trkpt>
   <trkpt lat="45.60962000000001" lon="6.161860000000001">
    <ele>1243.06</ele>
   </trkpt>
   <trkpt lat="45.609730000000006" lon="6.16148">
    <ele>1236.58</ele>
   </trkpt>
   <trkpt lat="45.60985" lon="6.161410000000001">
    <ele>1236.58</ele>
   </trkpt>
   <trkpt lat="45.61000000000001" lon="6.161340000000001">
    <ele>1230.15</ele>
   </trkpt>
   <trkpt lat="45.61028" lon="6.16145">
    <ele>1223.0700000000002</ele>
   </trkpt>
   <trkpt lat="45.610380000000006" lon="6.161340000000001">
    <ele>1216.88</ele>
   </trkpt>
   <trkpt lat="45.61108" lon="6.16122">
    <ele>1203.7300000000002</ele>
   </trkpt>
   <trkpt lat="45.61157" lon="6.161060000000001">
    <ele>1190.77</ele>
   </trkpt>
   <trkpt lat="45.6122" lon="6.16065">
    <ele>1173.9700000000003</ele>
   </trkpt>
   <trkpt lat="45.612570000000005" lon="6.16044">
    <ele>1163.84</ele>
   </trkpt>
   <trkpt lat="45.612750000000005" lon="6.160430000000001">
    <ele>1159.0900000000001</ele>
   </trkpt>
   <trkpt lat="45.61307" lon="6.160570000000001">
    <ele>1149.2300000000002</ele>
   </trkpt>
   <trkpt lat="45.61323" lon="6.1604600000000005">
    <ele>1146.41</ele>
   </trkpt>
   <trkpt lat="45.6135" lon="6.160500000000001">
    <ele>1135.3200000000002</ele>
   </trkpt>
   <trkpt lat="45.613780000000006" lon="6.16047">
    <ele>1127.65</ele>
   </trkpt>
   <trkpt lat="45.614090000000004" lon="6.1604">
    <ele>1118.8</ele>
   </trkpt>
   <trkpt lat="45.614180000000005" lon="6.16077">
    <ele>1112.0700000000002</ele>
   </trkpt>
   <trkpt lat="45.61437" lon="6.160990000000001">
    <ele>1102.3200000000002</ele>
   </trkpt>
   <trkpt lat="45.61449" lon="6.16103">
    <ele>1095.15</ele>
   </trkpt>
   <trkpt lat="45.614650000000005" lon="6.16094">
    <ele>1093.46</ele>
   </trkpt>
   <trkpt lat="45.61469" lon="6.1608600000000004">
    <ele>1087.19</ele>
   </trkpt>
   <trkpt lat="45.61488000000001" lon="6.16075">
    <ele>1079.08</ele>
   </trkpt>
   <trkpt lat="45.61491" lon="6.1606700000000005">
    <ele>1079.08</ele>
   </trkpt>
   <trkpt lat="45.61502" lon="6.160290000000001">
    <ele>1063.08</ele>
   </trkpt>
   <trkpt lat="45.61496" lon="6.159960000000001">
    <ele>1054.71</ele>
   </trkpt>
   <trkpt lat="45.61486" lon="6.15965">
    <ele>1045.63</ele>
   </trkpt>
   <trkpt lat="45.61488000000001" lon="6.159260000000001">
    <ele>1037.14</ele>
   </trkpt>
   <trkpt lat="45.614810000000006" lon="6.15901">
    <ele>1034.5300000000002</ele>
   </trkpt>
   <trkpt lat="45.61449" lon="6.1586300000000005">
    <ele>1022.9700000000001</ele>
   </trkpt>
   <trkpt lat="45.61430000000001" lon="6.158440000000001">
    <ele>1012.0</ele>
   </trkpt>
   <trkpt lat="45.61421000000001" lon="6.158250000000001">
    <ele>1009.3700000000001</ele>
   </trkpt>
   <trkpt lat="45.61426" lon="6.158060000000001">
    <ele>1004.3600000000001</ele>
   </trkpt>
   <trkpt lat="45.61453" lon="6.157800000000001">
    <ele>996.3900000000001</ele>
   </trkpt>
   <trkpt lat="45.61464" lon="6.15772">
    <ele>992.7300000000001</ele>
   </trkpt>
   <trkpt lat="45.6148" lon="6.15765">
    <ele>987.35</ele>
   </trkpt>
   <trkpt lat="45.614920000000005" lon="6.15756">
    <ele>984.33</ele>
   </trkpt>
   <trkpt lat="45.61493" lon="6.157430000000001">
    <ele>977.7900000000001</ele>
   </trkpt>
   <trkpt lat="45.614900000000006" lon="6.157240000000001">
    <ele>974.7500000000001</ele>
   </trkpt>
   <trkpt lat="45.61496" lon="6.15704">
    <ele>971.9200000000001</ele>
   </trkpt>
   <trkpt lat="45.615080000000006" lon="6.15688">
    <ele>963.76</ele>
   </trkpt>
   <trkpt lat="45.61525" lon="6.156530000000001">
    <ele>958.0400000000001</ele>
   </trkpt>
   <trkpt lat="45.615280000000006" lon="6.1561900000000005">
    <ele>946.36</ele>
   </trkpt>
   <trkpt lat="45.615230000000004" lon="6.155950000000001">
    <ele>940.2900000000001</ele>
   </trkpt>
   <trkpt lat="45.61531" lon="6.1556500000000005">
    <ele>934.8700000000001</ele>
   </trkpt>
   <trkpt lat="45.61533000000001" lon="6.155270000000001">
    <ele>929.1600000000001</ele>
   </trkpt>
   <trkpt lat="45.6154" lon="6.1551100000000005">
    <ele>925.3800000000001</ele>
   </trkpt>
   <trkpt lat="45.615410000000004" lon="6.154710000000001">
    <ele>917.82</ele>
   </trkpt>
   <trkpt lat="45.61538" lon="6.15462">
    <ele>916.83</ele>
   </trkpt>
   <trkpt lat="45.61538" lon="6.1543600000000005">
    <ele>913.07</ele>
   </trkpt>
   <trkpt lat="45.61542" lon="6.15416">
    <ele>909.6400000000001</ele>
   </trkpt>
   <trkpt lat="45.615550000000006" lon="6.15387">
    <ele>901.7100000000002</ele>
   </trkpt>
   <trkpt lat="45.61569" lon="6.153740000000001">
    <ele>898.1800000000001</ele>
   </trkpt>
   <trkpt lat="45.61580000000001" lon="6.153740000000001">
    <ele>898.1800000000001</ele>
   </trkpt>
   <trkpt lat="45.61583" lon="6.153720000000001">
    <ele>892.7600000000001</ele>
   </trkpt>
   <trkpt lat="45.61581" lon="6.15345">
    <ele>891.0500000000001</ele>
   </trkpt>
   <trkpt lat="45.615770000000005" lon="6.153340000000001">
    <ele>889.47</ele>
   </trkpt>
   <trkpt lat="45.61585" lon="6.152920000000001">
    <ele>879.6600000000001</ele>
   </trkpt>
   <trkpt lat="45.61589" lon="6.15282">
    <ele>879.6600000000001</ele>
   </trkpt>
   <trkpt lat="45.61598" lon="6.1527400000000005">
    <ele>877.5100000000001</ele>
   </trkpt>
   <trkpt lat="45.616110000000006" lon="6.15216">
    <ele>868.5600000000001</ele>
   </trkpt>
   <trkpt lat="45.61637" lon="6.151840000000001">
    <ele>861.4000000000001</ele>
   </trkpt>
   <trkpt lat="45.61659" lon="6.1517800000000005">
    <ele>849.55</ele>
   </trkpt>
   <trkpt lat="45.616870000000006" lon="6.151770000000001">
    <ele>842.2400000000001</ele>
   </trkpt>
   <trkpt lat="45.61708" lon="6.151660000000001">
    <ele>838.46</ele>
   </trkpt>
   <trkpt lat="45.61721000000001" lon="6.15165">
    <ele>836.0400000000001</ele>
   </trkpt>
   <trkpt lat="45.61739" lon="6.1513100000000005">
    <ele>832.4</ele>
   </trkpt>
   <trkpt lat="45.61769" lon="6.150930000000001">
    <ele>824.94</ele>
   </trkpt>
   <trkpt lat="45.617850000000004" lon="6.15066">
    <ele>821.6300000000001</ele>
   </trkpt>
   <trkpt lat="45.617940000000004" lon="6.15047">
    <ele>819.23</ele>
   </trkpt>
   <trkpt lat="45.61798" lon="6.15031">
    <ele>816.6000000000001</ele>
   </trkpt>
   <trkpt lat="45.61798" lon="6.14993">
    <ele>814.7800000000001</ele>
   </trkpt>
   <trkpt lat="45.61810000227066" lon="6.149210001485402">
    <ele>809.1800000000001</ele>
   </trkpt>
   <trkpt lat="45.61822" lon="6.148490000000001">
    <ele>800.46</ele>
   </trkpt>
   <trkpt lat="45.6184" lon="6.14801">
    <ele>795.84</ele>
   </trkpt>
   <trkpt lat="45.61847" lon="6.147290000000001">
    <ele>790.5200000000001</ele>
   </trkpt>
   <trkpt lat="45.61826000000001" lon="6.14672">
    <ele>787.57</ele>
   </trkpt>
   <trkpt lat="45.61788000000001" lon="6.14646">
    <ele>784.45</ele>
   </trkpt>
   <trkpt lat="45.61777000000001" lon="6.146310000000001">
    <ele>783.8600000000001</ele>
   </trkpt>
   <trkpt lat="45.617340000000006" lon="6.145980000000001">
    <ele>781.4200000000001</ele>
   </trkpt>
   <trkpt lat="45.61724" lon="6.14594">
    <ele>781.02</ele>
   </trkpt>
   <trkpt lat="45.6169" lon="6.1459">
    <ele>780.4200000000001</ele>
   </trkpt>
   <trkpt lat="45.61679" lon="6.14585">
    <ele>780.4700000000001</ele>
   </trkpt>
   <trkpt lat="45.616550000000004" lon="6.14559">
    <ele>780.7700000000001</ele>
   </trkpt>
   <trkpt lat="45.616440000000004" lon="6.145390000000001">
    <ele>780.6500000000001</ele>
   </trkpt>
   <trkpt lat="45.616260000000004" lon="6.144710000000001">
    <ele>781.3100000000001</ele>
   </trkpt>
  </trkseg>
 </trk>
</gpx>
