<?xml version="1.0" encoding="UTF-8"?>
<gpx creator="StravaGPX" version="1.1" xmlns="http://www.topografix.com/GPX/1/1" xmlns:xsi="http://www.w3.org/2001/XMLSchema-instance" xsi:schemaLocation="http://www.topografix.com/GPX/1/1 http://www.topografix.com/GPX/1/1/gpx.xsd">
 <metadata>
  <name>14 2000 section 1</name>
  <author>
   <name>emilien Marion</name>
   <link href="https://www.strava.com/athletes/79224240"/>
  </author>
  <copyright author="OpenStreetMap contributors">
   <year>2020</year>
   <license>https://www.openstreetmap.org/copyright</license>
  </copyright>
  <link href="https://www.strava.com/routes/3492912802193286972"/>
 </metadata>
 <trk>
  <name>14 2000 section 1</name>
  <link href="https://www.strava.com/routes/3492912802193286972"/>
  <type>running</type>
  <trkseg>
   <trkpt lat="45.73691" lon="6.368950000000001">
    <ele>1193.14</ele>
   </trkpt>
   <trkpt lat="45.73678" lon="6.36852">
    <ele>1193.44</ele>
   </trkpt>
   <trkpt lat="45.736580000000004" lon="6.36819">
    <ele>1194.4800000000002</ele>
   </trkpt>
   <trkpt lat="45.736520000000006" lon="6.368040000000001">
    <ele>1194.44</ele>
   </trkpt>
   <trkpt lat="45.736430000000006" lon="6.367890000000001">
    <ele>1194.15</ele>
   </trkpt>
   <trkpt lat="45.736230000000006" lon="6.367570000000001">
    <ele>1192.8899999999999</ele>
   </trkpt>
   <trkpt lat="45.736160000000005" lon="6.367500000000001">
    <ele>1192.8899999999999</ele>
   </trkpt>
   <trkpt lat="45.73603000000001" lon="6.3674800000000005">
    <ele>1192.1200000000001</ele>
   </trkpt>
   <trkpt lat="45.7359" lon="6.367500000000001">
    <ele>1191.2500000000002</ele>
   </trkpt>
   <trkpt lat="45.73574000000001" lon="6.3675500000000005">
    <ele>1189.17</ele>
   </trkpt>
   <trkpt lat="45.73552" lon="6.367730000000001">
    <ele>1186.1000000000001</ele>
   </trkpt>
   <trkpt lat="45.735420000000005" lon="6.367710000000001">
    <ele>1186.41</ele>
   </trkpt>
   <trkpt lat="45.735350000000004" lon="6.367660000000001">
    <ele>1186.6000000000001</ele>
   </trkpt>
   <trkpt lat="45.735240000000005" lon="6.367470000000001">
    <ele>1186.44</ele>
   </trkpt>
   <trkpt lat="45.73503" lon="6.3672200000000005">
    <ele>1187.04</ele>
   </trkpt>
   <trkpt lat="45.734730000000006" lon="6.36709">
    <ele>1192.6100000000001</ele>
   </trkpt>
   <trkpt lat="45.734370000000006" lon="6.36664">
    <ele>1199.1900000000003</ele>
   </trkpt>
   <trkpt lat="45.733900000000006" lon="6.36629">
    <ele>1202.52</ele>
   </trkpt>
   <trkpt lat="45.73362" lon="6.36605">
    <ele>1210.22</ele>
   </trkpt>
   <trkpt lat="45.733160000000005" lon="6.3658">
    <ele>1215.4600000000003</ele>
   </trkpt>
   <trkpt lat="45.732730000000004" lon="6.36589">
    <ele>1221.46</ele>
   </trkpt>
   <trkpt lat="45.732310000000005" lon="6.36542">
    <ele>1227.16</ele>
   </trkpt>
   <trkpt lat="45.732200000000006" lon="6.365360000000001">
    <ele>1229.88</ele>
   </trkpt>
   <trkpt lat="45.73214" lon="6.36537">
    <ele>1230.7</ele>
   </trkpt>
   <trkpt lat="45.73208" lon="6.3653200000000005">
    <ele>1231.98</ele>
   </trkpt>
   <trkpt lat="45.73203" lon="6.36516">
    <ele>1232.7700000000002</ele>
   </trkpt>
   <trkpt lat="45.732000000000006" lon="6.36483">
    <ele>1235.5</ele>
   </trkpt>
   <trkpt lat="45.731910000000006" lon="6.364750000000001">
    <ele>1235.5</ele>
   </trkpt>
   <trkpt lat="45.731820000000006" lon="6.364920000000001">
    <ele>1237.26</ele>
   </trkpt>
   <trkpt lat="45.73174" lon="6.36488">
    <ele>1238.39</ele>
   </trkpt>
   <trkpt lat="45.73169" lon="6.364890000000001">
    <ele>1239.98</ele>
   </trkpt>
   <trkpt lat="45.731640000000006" lon="6.36495">
    <ele>1241.03</ele>
   </trkpt>
   <trkpt lat="45.7316" lon="6.364960000000001">
    <ele>1242.2600000000002</ele>
   </trkpt>
   <trkpt lat="45.73151000000001" lon="6.36493">
    <ele>1245.2500000000002</ele>
   </trkpt>
   <trkpt lat="45.73151000000001" lon="6.36488">
    <ele>1245.2500000000002</ele>
   </trkpt>
   <trkpt lat="45.731460000000006" lon="6.364890000000001">
    <ele>1245.2500000000002</ele>
   </trkpt>
   <trkpt lat="45.73136" lon="6.36483">
    <ele>1253.63</ele>
   </trkpt>
   <trkpt lat="45.731410000000004" lon="6.3646400000000005">
    <ele>1253.63</ele>
   </trkpt>
   <trkpt lat="45.731370000000005" lon="6.364630000000001">
    <ele>1261.68</ele>
   </trkpt>
   <trkpt lat="45.731350000000006" lon="6.36455">
    <ele>1261.68</ele>
   </trkpt>
   <trkpt lat="45.73136" lon="6.3645000000000005">
    <ele>1261.68</ele>
   </trkpt>
   <trkpt lat="45.73134" lon="6.36441">
    <ele>1264.8000000000002</ele>
   </trkpt>
   <trkpt lat="45.731370000000005" lon="6.36408">
    <ele>1272.18</ele>
   </trkpt>
   <trkpt lat="45.73134" lon="6.36385">
    <ele>1277.15</ele>
   </trkpt>
   <trkpt lat="45.73118" lon="6.36404">
    <ele>1281.2400000000002</ele>
   </trkpt>
   <trkpt lat="45.731080000000006" lon="6.364050000000001">
    <ele>1283.4</ele>
   </trkpt>
   <trkpt lat="45.731030000000004" lon="6.36408">
    <ele>1285.73</ele>
   </trkpt>
   <trkpt lat="45.730940000000004" lon="6.3641000000000005">
    <ele>1289.44</ele>
   </trkpt>
   <trkpt lat="45.731" lon="6.363910000000001">
    <ele>1292.0900000000001</ele>
   </trkpt>
   <trkpt lat="45.731010000000005" lon="6.36359">
    <ele>1300.8300000000002</ele>
   </trkpt>
   <trkpt lat="45.73107" lon="6.36331">
    <ele>1305.42</ele>
   </trkpt>
   <trkpt lat="45.73102" lon="6.36291">
    <ele>1319.53</ele>
   </trkpt>
   <trkpt lat="45.73091" lon="6.363020000000001">
    <ele>1323.0300000000002</ele>
   </trkpt>
   <trkpt lat="45.730760000000004" lon="6.363090000000001">
    <ele>1330.1900000000003</ele>
   </trkpt>
   <trkpt lat="45.73068000000001" lon="6.36305">
    <ele>1330.1900000000003</ele>
   </trkpt>
   <trkpt lat="45.73064" lon="6.362970000000001">
    <ele>1331.62</ele>
   </trkpt>
   <trkpt lat="45.730610000000006" lon="6.36265">
    <ele>1341.7100000000003</ele>
   </trkpt>
   <trkpt lat="45.73051" lon="6.362500000000001">
    <ele>1345.5400000000002</ele>
   </trkpt>
   <trkpt lat="45.730500000000006" lon="6.36242">
    <ele>1345.5400000000002</ele>
   </trkpt>
   <trkpt lat="45.73044" lon="6.362380000000001">
    <ele>1355.3200000000002</ele>
   </trkpt>
   <trkpt lat="45.730450000000005" lon="6.362290000000001">
    <ele>1355.3200000000002</ele>
   </trkpt>
   <trkpt lat="45.7304" lon="6.362260000000001">
    <ele>1355.3200000000002</ele>
   </trkpt>
   <trkpt lat="45.730360000000005" lon="6.362080000000001">
    <ele>1367.64</ele>
   </trkpt>
   <trkpt lat="45.73031" lon="6.36195">
    <ele>1367.64</ele>
   </trkpt>
   <trkpt lat="45.73024" lon="6.36188">
    <ele>1371.4</ele>
   </trkpt>
   <trkpt lat="45.730160000000005" lon="6.361860000000001">
    <ele>1376.5500000000002</ele>
   </trkpt>
   <trkpt lat="45.73015" lon="6.36183">
    <ele>1376.5500000000002</ele>
   </trkpt>
   <trkpt lat="45.73012000000001" lon="6.36183">
    <ele>1378.3700000000001</ele>
   </trkpt>
   <trkpt lat="45.73008" lon="6.361720000000001">
    <ele>1380.3200000000002</ele>
   </trkpt>
   <trkpt lat="45.7301" lon="6.361700000000001">
    <ele>1384.54</ele>
   </trkpt>
   <trkpt lat="45.72999" lon="6.36136">
    <ele>1393.16</ele>
   </trkpt>
   <trkpt lat="45.72999" lon="6.361300000000001">
    <ele>1393.16</ele>
   </trkpt>
   <trkpt lat="45.72992000000001" lon="6.361180000000001">
    <ele>1399.2900000000002</ele>
   </trkpt>
   <trkpt lat="45.72993" lon="6.361160000000001">
    <ele>1399.2900000000002</ele>
   </trkpt>
   <trkpt lat="45.729820000000004" lon="6.36101">
    <ele>1403.99</ele>
   </trkpt>
   <trkpt lat="45.72977" lon="6.3609800000000005">
    <ele>1405.46</ele>
   </trkpt>
   <trkpt lat="45.72974000000001" lon="6.36089">
    <ele>1408.0900000000001</ele>
   </trkpt>
   <trkpt lat="45.729670000000006" lon="6.360860000000001">
    <ele>1411.71</ele>
   </trkpt>
   <trkpt lat="45.729530000000004" lon="6.36103">
    <ele>1415.51</ele>
   </trkpt>
   <trkpt lat="45.72939" lon="6.361000000000001">
    <ele>1419.67</ele>
   </trkpt>
   <trkpt lat="45.72923" lon="6.360720000000001">
    <ele>1427.0500000000002</ele>
   </trkpt>
   <trkpt lat="45.72925" lon="6.36075">
    <ele>1427.0500000000002</ele>
   </trkpt>
   <trkpt lat="45.72909000000001" lon="6.36056">
    <ele>1433.22</ele>
   </trkpt>
   <trkpt lat="45.7289" lon="6.360250000000001">
    <ele>1440.97</ele>
   </trkpt>
   <trkpt lat="45.728840000000005" lon="6.360220000000001">
    <ele>1447.47</ele>
   </trkpt>
   <trkpt lat="45.728820000000006" lon="6.360150000000001">
    <ele>1447.47</ele>
   </trkpt>
   <trkpt lat="45.728770000000004" lon="6.36012">
    <ele>1450.86</ele>
   </trkpt>
   <trkpt lat="45.728770000000004" lon="6.360060000000001">
    <ele>1452.63</ele>
   </trkpt>
   <trkpt lat="45.72869" lon="6.360010000000001">
    <ele>1456.29</ele>
   </trkpt>
   <trkpt lat="45.72871000000001" lon="6.359960000000001">
    <ele>1456.29</ele>
   </trkpt>
   <trkpt lat="45.728660000000005" lon="6.359940000000001">
    <ele>1456.29</ele>
   </trkpt>
   <trkpt lat="45.728680000000004" lon="6.359850000000001">
    <ele>1465.78</ele>
   </trkpt>
   <trkpt lat="45.728640000000006" lon="6.3598300000000005">
    <ele>1465.78</ele>
   </trkpt>
   <trkpt lat="45.72862000000001" lon="6.359680000000001">
    <ele>1465.78</ele>
   </trkpt>
   <trkpt lat="45.72858" lon="6.35967">
    <ele>1473.5800000000002</ele>
   </trkpt>
   <trkpt lat="45.728590000000004" lon="6.359590000000001">
    <ele>1473.5800000000002</ele>
   </trkpt>
   <trkpt lat="45.72856" lon="6.3595500000000005">
    <ele>1473.5800000000002</ele>
   </trkpt>
   <trkpt lat="45.72858" lon="6.359500000000001">
    <ele>1473.5800000000002</ele>
   </trkpt>
   <trkpt lat="45.72856" lon="6.35944">
    <ele>1481.5900000000001</ele>
   </trkpt>
   <trkpt lat="45.728570000000005" lon="6.35939">
    <ele>1481.5900000000001</ele>
   </trkpt>
   <trkpt lat="45.728530000000006" lon="6.3593">
    <ele>1485.44</ele>
   </trkpt>
   <trkpt lat="45.72849" lon="6.3593">
    <ele>1485.44</ele>
   </trkpt>
   <trkpt lat="45.728500000000004" lon="6.35927">
    <ele>1485.44</ele>
   </trkpt>
   <trkpt lat="45.728410000000004" lon="6.359170000000001">
    <ele>1490.5900000000001</ele>
   </trkpt>
   <trkpt lat="45.728370000000005" lon="6.35918">
    <ele>1490.5900000000001</ele>
   </trkpt>
   <trkpt lat="45.728190000000005" lon="6.35913">
    <ele>1500.41</ele>
   </trkpt>
   <trkpt lat="45.7282" lon="6.35909">
    <ele>1500.41</ele>
   </trkpt>
   <trkpt lat="45.72807" lon="6.358980000000001">
    <ele>1509.48</ele>
   </trkpt>
   <trkpt lat="45.72796" lon="6.35883">
    <ele>1509.48</ele>
   </trkpt>
   <trkpt lat="45.727920000000005" lon="6.358750000000001">
    <ele>1509.48</ele>
   </trkpt>
   <trkpt lat="45.727940000000004" lon="6.35871">
    <ele>1522.7400000000002</ele>
   </trkpt>
   <trkpt lat="45.72789" lon="6.3586800000000006">
    <ele>1522.7400000000002</ele>
   </trkpt>
   <trkpt lat="45.72789" lon="6.358630000000001">
    <ele>1522.7400000000002</ele>
   </trkpt>
   <trkpt lat="45.727850000000004" lon="6.35862">
    <ele>1522.7400000000002</ele>
   </trkpt>
   <trkpt lat="45.72789" lon="6.358510000000001">
    <ele>1522.7400000000002</ele>
   </trkpt>
   <trkpt lat="45.72777000000001" lon="6.358370000000001">
    <ele>1529.9</ele>
   </trkpt>
   <trkpt lat="45.727740000000004" lon="6.35817">
    <ele>1541.49</ele>
   </trkpt>
   <trkpt lat="45.72771" lon="6.358160000000001">
    <ele>1541.49</ele>
   </trkpt>
   <trkpt lat="45.727720000000005" lon="6.3581">
    <ele>1541.49</ele>
   </trkpt>
   <trkpt lat="45.72769" lon="6.35808">
    <ele>1541.49</ele>
   </trkpt>
   <trkpt lat="45.72771" lon="6.35801">
    <ele>1541.49</ele>
   </trkpt>
   <trkpt lat="45.72766" lon="6.357970000000001">
    <ele>1541.49</ele>
   </trkpt>
   <trkpt lat="45.727630000000005" lon="6.357880000000001">
    <ele>1554.7700000000002</ele>
   </trkpt>
   <trkpt lat="45.7276" lon="6.35787">
    <ele>1554.7700000000002</ele>
   </trkpt>
   <trkpt lat="45.72758" lon="6.3578">
    <ele>1554.7700000000002</ele>
   </trkpt>
   <trkpt lat="45.727450000000005" lon="6.35768">
    <ele>1558.7000000000003</ele>
   </trkpt>
   <trkpt lat="45.727470000000004" lon="6.35763">
    <ele>1558.7000000000003</ele>
   </trkpt>
   <trkpt lat="45.727360000000004" lon="6.357520000000001">
    <ele>1566.72</ele>
   </trkpt>
   <trkpt lat="45.72739000000001" lon="6.35744">
    <ele>1570.54</ele>
   </trkpt>
   <trkpt lat="45.72711" lon="6.3571800000000005">
    <ele>1580.6200000000001</ele>
   </trkpt>
   <trkpt lat="45.72710000000001" lon="6.357100000000001">
    <ele>1588.0700000000002</ele>
   </trkpt>
   <trkpt lat="45.72693" lon="6.356870000000001">
    <ele>1596.15</ele>
   </trkpt>
   <trkpt lat="45.72683000000001" lon="6.35695">
    <ele>1599.5700000000002</ele>
   </trkpt>
   <trkpt lat="45.726780000000005" lon="6.356870000000001">
    <ele>1599.5700000000002</ele>
   </trkpt>
   <trkpt lat="45.72673" lon="6.356870000000001">
    <ele>1606.5600000000002</ele>
   </trkpt>
   <trkpt lat="45.72674000000001" lon="6.356800000000001">
    <ele>1606.5600000000002</ele>
   </trkpt>
   <trkpt lat="45.726620000000004" lon="6.356730000000001">
    <ele>1615.5100000000002</ele>
   </trkpt>
   <trkpt lat="45.726560000000006" lon="6.356750000000001">
    <ele>1615.5100000000002</ele>
   </trkpt>
   <trkpt lat="45.726510000000005" lon="6.35644">
    <ele>1618.8500000000001</ele>
   </trkpt>
   <trkpt lat="45.726510000000005" lon="6.35634">
    <ele>1625.1700000000003</ele>
   </trkpt>
   <trkpt lat="45.726530000000004" lon="6.35625">
    <ele>1626.8300000000002</ele>
   </trkpt>
   <trkpt lat="45.726510000000005" lon="6.35613">
    <ele>1626.8300000000002</ele>
   </trkpt>
   <trkpt lat="45.72645000000001" lon="6.35608">
    <ele>1633.79</ele>
   </trkpt>
   <trkpt lat="45.726440000000004" lon="6.3560300000000005">
    <ele>1633.79</ele>
   </trkpt>
   <trkpt lat="45.72637" lon="6.35599">
    <ele>1636.95</ele>
   </trkpt>
   <trkpt lat="45.726420000000005" lon="6.35585">
    <ele>1638.3700000000001</ele>
   </trkpt>
   <trkpt lat="45.7265" lon="6.35578">
    <ele>1643.68</ele>
   </trkpt>
   <trkpt lat="45.72657" lon="6.355670000000001">
    <ele>1643.68</ele>
   </trkpt>
   <trkpt lat="45.72648" lon="6.35561">
    <ele>1650.5100000000002</ele>
   </trkpt>
   <trkpt lat="45.72639" lon="6.355480000000001">
    <ele>1653.1000000000001</ele>
   </trkpt>
   <trkpt lat="45.7263" lon="6.355410000000001">
    <ele>1656.88</ele>
   </trkpt>
   <trkpt lat="45.726110000000006" lon="6.35531">
    <ele>1661.01</ele>
   </trkpt>
   <trkpt lat="45.726090000000006" lon="6.355250000000001">
    <ele>1664.0400000000002</ele>
   </trkpt>
   <trkpt lat="45.726040000000005" lon="6.355230000000001">
    <ele>1665.49</ele>
   </trkpt>
   <trkpt lat="45.72612" lon="6.3551400000000005">
    <ele>1668.1500000000003</ele>
   </trkpt>
   <trkpt lat="45.725910000000006" lon="6.355040000000001">
    <ele>1673.16</ele>
   </trkpt>
   <trkpt lat="45.725950000000005" lon="6.354870000000001">
    <ele>1677.31</ele>
   </trkpt>
   <trkpt lat="45.725880000000004" lon="6.35486">
    <ele>1682.74</ele>
   </trkpt>
   <trkpt lat="45.725910000000006" lon="6.35477">
    <ele>1682.74</ele>
   </trkpt>
   <trkpt lat="45.72585" lon="6.354760000000001">
    <ele>1682.74</ele>
   </trkpt>
   <trkpt lat="45.72572" lon="6.354590000000001">
    <ele>1689.6700000000003</ele>
   </trkpt>
   <trkpt lat="45.72581" lon="6.354500000000001">
    <ele>1692.05</ele>
   </trkpt>
   <trkpt lat="45.725530000000006" lon="6.3543400000000005">
    <ele>1698.89</ele>
   </trkpt>
   <trkpt lat="45.72547" lon="6.354360000000001">
    <ele>1704.0100000000002</ele>
   </trkpt>
   <trkpt lat="45.725390000000004" lon="6.35432">
    <ele>1704.0100000000002</ele>
   </trkpt>
   <trkpt lat="45.725500000000004" lon="6.354">
    <ele>1715.2500000000002</ele>
   </trkpt>
   <trkpt lat="45.725570000000005" lon="6.35393">
    <ele>1722.7</ele>
   </trkpt>
   <trkpt lat="45.725570000000005" lon="6.353870000000001">
    <ele>1722.7</ele>
   </trkpt>
   <trkpt lat="45.72560000000001" lon="6.353860000000001">
    <ele>1728.19</ele>
   </trkpt>
   <trkpt lat="45.725660000000005" lon="6.3537300000000005">
    <ele>1734.01</ele>
   </trkpt>
   <trkpt lat="45.725730000000006" lon="6.35364">
    <ele>1734.01</ele>
   </trkpt>
   <trkpt lat="45.72571000000001" lon="6.353560000000001">
    <ele>1734.01</ele>
   </trkpt>
   <trkpt lat="45.725770000000004" lon="6.353490000000001">
    <ele>1752.0300000000002</ele>
   </trkpt>
   <trkpt lat="45.725730000000006" lon="6.35339">
    <ele>1752.0300000000002</ele>
   </trkpt>
   <trkpt lat="45.725770000000004" lon="6.353350000000001">
    <ele>1752.0300000000002</ele>
   </trkpt>
   <trkpt lat="45.725750000000005" lon="6.35327">
    <ele>1764.5300000000002</ele>
   </trkpt>
   <trkpt lat="45.725770000000004" lon="6.353180000000001">
    <ele>1764.5300000000002</ele>
   </trkpt>
   <trkpt lat="45.725730000000006" lon="6.35306">
    <ele>1770.52</ele>
   </trkpt>
   <trkpt lat="45.72578" lon="6.3531200000000005">
    <ele>1778.13</ele>
   </trkpt>
   <trkpt lat="45.725770000000004" lon="6.35301">
    <ele>1778.13</ele>
   </trkpt>
   <trkpt lat="45.72579" lon="6.35299">
    <ele>1782.8700000000001</ele>
   </trkpt>
   <trkpt lat="45.72574" lon="6.3528">
    <ele>1787.15</ele>
   </trkpt>
   <trkpt lat="45.72561" lon="6.35254">
    <ele>1796.21</ele>
   </trkpt>
   <trkpt lat="45.72563" lon="6.3523700000000005">
    <ele>1800.27</ele>
   </trkpt>
   <trkpt lat="45.72560000000001" lon="6.35226">
    <ele>1802.45</ele>
   </trkpt>
   <trkpt lat="45.72551000000001" lon="6.352130000000001">
    <ele>1806.72</ele>
   </trkpt>
   <trkpt lat="45.72545" lon="6.352010000000001">
    <ele>1808.51</ele>
   </trkpt>
   <trkpt lat="45.72543" lon="6.351920000000001">
    <ele>1814.27</ele>
   </trkpt>
   <trkpt lat="45.72545" lon="6.351870000000001">
    <ele>1816.0200000000002</ele>
   </trkpt>
   <trkpt lat="45.72545" lon="6.3516900000000005">
    <ele>1818.8400000000001</ele>
   </trkpt>
   <trkpt lat="45.72542000000001" lon="6.35153">
    <ele>1821.8200000000002</ele>
   </trkpt>
   <trkpt lat="45.72536" lon="6.351430000000001">
    <ele>1823.9</ele>
   </trkpt>
   <trkpt lat="45.72531" lon="6.35123">
    <ele>1827.9600000000003</ele>
   </trkpt>
   <trkpt lat="45.72532" lon="6.351140000000001">
    <ele>1829.66</ele>
   </trkpt>
   <trkpt lat="45.725260000000006" lon="6.350930000000001">
    <ele>1836.2500000000002</ele>
   </trkpt>
   <trkpt lat="45.72518" lon="6.350860000000001">
    <ele>1838.5900000000001</ele>
   </trkpt>
   <trkpt lat="45.72511" lon="6.350750000000001">
    <ele>1841.73</ele>
   </trkpt>
   <trkpt lat="45.725080000000005" lon="6.350530000000001">
    <ele>1845.39</ele>
   </trkpt>
   <trkpt lat="45.725030000000004" lon="6.35048">
    <ele>1848.7700000000002</ele>
   </trkpt>
   <trkpt lat="45.724990000000005" lon="6.35038">
    <ele>1853.2100000000003</ele>
   </trkpt>
   <trkpt lat="45.72498" lon="6.35024">
    <ele>1858.14</ele>
   </trkpt>
   <trkpt lat="45.72502" lon="6.35022">
    <ele>1860.3200000000002</ele>
   </trkpt>
   <trkpt lat="45.725010000000005" lon="6.350020000000001">
    <ele>1863.6800000000003</ele>
   </trkpt>
   <trkpt lat="45.72491" lon="6.349900000000001">
    <ele>1867.8400000000001</ele>
   </trkpt>
   <trkpt lat="45.72482" lon="6.34984">
    <ele>1872.54</ele>
   </trkpt>
   <trkpt lat="45.72482" lon="6.34973">
    <ele>1875.3700000000001</ele>
   </trkpt>
   <trkpt lat="45.7248" lon="6.349690000000001">
    <ele>1876.63</ele>
   </trkpt>
   <trkpt lat="45.72467" lon="6.3496500000000005">
    <ele>1880.0500000000002</ele>
   </trkpt>
   <trkpt lat="45.72458" lon="6.349500000000001">
    <ele>1882.5600000000002</ele>
   </trkpt>
   <trkpt lat="45.72446" lon="6.349430000000001">
    <ele>1883.89</ele>
   </trkpt>
   <trkpt lat="45.72435" lon="6.349200000000001">
    <ele>1889.1100000000001</ele>
   </trkpt>
   <trkpt lat="45.724380000000004" lon="6.34919">
    <ele>1890.75</ele>
   </trkpt>
   <trkpt lat="45.72446" lon="6.34928">
    <ele>1892.54</ele>
   </trkpt>
   <trkpt lat="45.72449" lon="6.34926">
    <ele>1896.3700000000001</ele>
   </trkpt>
   <trkpt lat="45.72453" lon="6.3493">
    <ele>1896.3700000000001</ele>
   </trkpt>
   <trkpt lat="45.724560000000004" lon="6.34928">
    <ele>1900.36</ele>
   </trkpt>
   <trkpt lat="45.72453" lon="6.3491100000000005">
    <ele>1904.4600000000003</ele>
   </trkpt>
   <trkpt lat="45.72455" lon="6.349100000000001">
    <ele>1904.4600000000003</ele>
   </trkpt>
   <trkpt lat="45.72458" lon="6.34914">
    <ele>1908.7600000000002</ele>
   </trkpt>
   <trkpt lat="45.724610000000006" lon="6.349130000000001">
    <ele>1908.7600000000002</ele>
   </trkpt>
   <trkpt lat="45.724560000000004" lon="6.3489700000000004">
    <ele>1917.8400000000001</ele>
   </trkpt>
   <trkpt lat="45.72469" lon="6.349060000000001">
    <ele>1921.91</ele>
   </trkpt>
   <trkpt lat="45.724900000000005" lon="6.34916">
    <ele>1930.91</ele>
   </trkpt>
   <trkpt lat="45.72504000000001" lon="6.3491800000000005">
    <ele>1935.6000000000001</ele>
   </trkpt>
   <trkpt lat="45.725150000000006" lon="6.34916">
    <ele>1949.0</ele>
   </trkpt>
   <trkpt lat="45.72516" lon="6.3491100000000005">
    <ele>1949.0</ele>
   </trkpt>
   <trkpt lat="45.72504000000001" lon="6.348910000000001">
    <ele>1958.5500000000002</ele>
   </trkpt>
   <trkpt lat="45.72514" lon="6.348870000000001">
    <ele>1962.3000000000002</ele>
   </trkpt>
   <trkpt lat="45.725170000000006" lon="6.348870000000001">
    <ele>1962.3000000000002</ele>
   </trkpt>
   <trkpt lat="45.725170000000006" lon="6.34874">
    <ele>1962.46</ele>
   </trkpt>
   <trkpt lat="45.7252" lon="6.348700000000001">
    <ele>1962.39</ele>
   </trkpt>
   <trkpt lat="45.725390000000004" lon="6.3487800000000005">
    <ele>1961.5600000000002</ele>
   </trkpt>
   <trkpt lat="45.725350000000006" lon="6.348660000000001">
    <ele>1961.3300000000002</ele>
   </trkpt>
   <trkpt lat="45.72542000000001" lon="6.3487100000000005">
    <ele>1961.3700000000001</ele>
   </trkpt>
   <trkpt lat="45.72542000000001" lon="6.348660000000001">
    <ele>1961.51</ele>
   </trkpt>
   <trkpt lat="45.72549" lon="6.348680000000001">
    <ele>1961.96</ele>
   </trkpt>
   <trkpt lat="45.72549" lon="6.34862">
    <ele>1962.16</ele>
   </trkpt>
   <trkpt lat="45.725550000000005" lon="6.348630000000001">
    <ele>1962.2700000000002</ele>
   </trkpt>
   <trkpt lat="45.72552" lon="6.348540000000001">
    <ele>1962.2100000000003</ele>
   </trkpt>
   <trkpt lat="45.72561" lon="6.348560000000001">
    <ele>1962.8100000000002</ele>
   </trkpt>
   <trkpt lat="45.72569000000001" lon="6.34865">
    <ele>1964.64</ele>
   </trkpt>
   <trkpt lat="45.725840000000005" lon="6.34867">
    <ele>1968.7900000000002</ele>
   </trkpt>
   <trkpt lat="45.72589000000001" lon="6.3487100000000005">
    <ele>1969.75</ele>
   </trkpt>
   <trkpt lat="45.72596" lon="6.34872">
    <ele>1971.51</ele>
   </trkpt>
   <trkpt lat="45.72618000000001" lon="6.34888">
    <ele>1975.6700000000003</ele>
   </trkpt>
   <trkpt lat="45.726310000000005" lon="6.349060000000001">
    <ele>1978.69</ele>
   </trkpt>
   <trkpt lat="45.726400000000005" lon="6.34912">
    <ele>1979.27</ele>
   </trkpt>
   <trkpt lat="45.726620000000004" lon="6.34923">
    <ele>1986.6100000000001</ele>
   </trkpt>
   <trkpt lat="45.72686" lon="6.349270000000001">
    <ele>1998.6800000000003</ele>
   </trkpt>
   <trkpt lat="45.72708" lon="6.349550000000001">
    <ele>2003.0700000000002</ele>
   </trkpt>
   <trkpt lat="45.727450000000005" lon="6.34989">
    <ele>2002.9500000000003</ele>
   </trkpt>
   <trkpt lat="45.727900000000005" lon="6.35017">
    <ele>2019.0800000000002</ele>
   </trkpt>
   <trkpt lat="45.728260000000006" lon="6.350460000000001">
    <ele>2023.48</ele>
   </trkpt>
   <trkpt lat="45.7284" lon="6.350630000000001">
    <ele>2024.07</ele>
   </trkpt>
   <trkpt lat="45.728500000000004" lon="6.350700000000001">
    <ele>2022.88</ele>
   </trkpt>
   <trkpt lat="45.72865" lon="6.35069">
    <ele>2021.2500000000002</ele>
   </trkpt>
   <trkpt lat="45.728790000000004" lon="6.35064">
    <ele>2021.51</ele>
   </trkpt>
   <trkpt lat="45.72905" lon="6.350720000000001">
    <ele>2026.51</ele>
   </trkpt>
   <trkpt lat="45.72908" lon="6.350750000000001">
    <ele>2027.31</ele>
   </trkpt>
   <trkpt lat="45.729150000000004" lon="6.350740000000001">
    <ele>2028.69</ele>
   </trkpt>
   <trkpt lat="45.729220000000005" lon="6.3508000000000004">
    <ele>2028.69</ele>
   </trkpt>
   <trkpt lat="45.729290000000006" lon="6.350910000000001">
    <ele>2031.21</ele>
   </trkpt>
   <trkpt lat="45.72932" lon="6.35092">
    <ele>2031.21</ele>
   </trkpt>
   <trkpt lat="45.72948" lon="6.35113">
    <ele>2036.7100000000003</ele>
   </trkpt>
   <trkpt lat="45.729530000000004" lon="6.351190000000001">
    <ele>2038.25</ele>
   </trkpt>
   <trkpt lat="45.72932" lon="6.35092">
    <ele>2032.01</ele>
   </trkpt>
   <trkpt lat="45.729290000000006" lon="6.350910000000001">
    <ele>2031.21</ele>
   </trkpt>
   <trkpt lat="45.729220000000005" lon="6.3508000000000004">
    <ele>2030.5</ele>
   </trkpt>
   <trkpt lat="45.729150000000004" lon="6.350740000000001">
    <ele>2028.69</ele>
   </trkpt>
   <trkpt lat="45.72908" lon="6.350750000000001">
    <ele>2027.31</ele>
   </trkpt>
   <trkpt lat="45.72905" lon="6.350720000000001">
    <ele>2026.51</ele>
   </trkpt>
   <trkpt lat="45.728790000000004" lon="6.35064">
    <ele>2021.51</ele>
   </trkpt>
   <trkpt lat="45.72865" lon="6.35069">
    <ele>2021.2500000000002</ele>
   </trkpt>
   <trkpt lat="45.728500000000004" lon="6.350700000000001">
    <ele>2022.88</ele>
   </trkpt>
   <trkpt lat="45.7284" lon="6.350630000000001">
    <ele>2024.07</ele>
   </trkpt>
   <trkpt lat="45.728260000000006" lon="6.350460000000001">
    <ele>2023.48</ele>
   </trkpt>
   <trkpt lat="45.727900000000005" lon="6.35017">
    <ele>2019.0800000000002</ele>
   </trkpt>
   <trkpt lat="45.727450000000005" lon="6.34989">
    <ele>2002.9500000000003</ele>
   </trkpt>
   <trkpt lat="45.72751" lon="6.34949">
    <ele>1982.46</ele>
   </trkpt>
   <trkpt lat="45.72764" lon="6.349480000000001">
    <ele>1971.95</ele>
   </trkpt>
   <trkpt lat="45.727560000000004" lon="6.349360000000001">
    <ele>1966.97</ele>
   </trkpt>
   <trkpt lat="45.727430000000005" lon="6.349310000000001">
    <ele>1960.64</ele>
   </trkpt>
   <trkpt lat="45.727540000000005" lon="6.34919">
    <ele>1955.01</ele>
   </trkpt>
   <trkpt lat="45.727430000000005" lon="6.34914">
    <ele>1950.92</ele>
   </trkpt>
   <trkpt lat="45.72757000000001" lon="6.34902">
    <ele>1942.0100000000002</ele>
   </trkpt>
   <trkpt lat="45.727500000000006" lon="6.348960000000001">
    <ele>1939.69</ele>
   </trkpt>
   <trkpt lat="45.727540000000005" lon="6.348940000000001">
    <ele>1932.2800000000002</ele>
   </trkpt>
   <trkpt lat="45.727470000000004" lon="6.34886">
    <ele>1929.8500000000001</ele>
   </trkpt>
   <trkpt lat="45.727590000000006" lon="6.348730000000001">
    <ele>1923.22</ele>
   </trkpt>
   <trkpt lat="45.72768000000001" lon="6.348750000000001">
    <ele>1919.3500000000001</ele>
   </trkpt>
   <trkpt lat="45.727990000000005" lon="6.348450000000001">
    <ele>1907.28</ele>
   </trkpt>
   <trkpt lat="45.728010000000005" lon="6.348350000000001">
    <ele>1905.5900000000001</ele>
   </trkpt>
   <trkpt lat="45.727790000000006" lon="6.3484300000000005">
    <ele>1895.1700000000003</ele>
   </trkpt>
   <trkpt lat="45.727720000000005" lon="6.3483600000000004">
    <ele>1891.0500000000002</ele>
   </trkpt>
   <trkpt lat="45.72791" lon="6.348070000000001">
    <ele>1881.8300000000002</ele>
   </trkpt>
   <trkpt lat="45.72811" lon="6.34768">
    <ele>1872.3100000000002</ele>
   </trkpt>
   <trkpt lat="45.727970000000006" lon="6.34754">
    <ele>1868.2800000000002</ele>
   </trkpt>
   <trkpt lat="45.727990000000005" lon="6.3474">
    <ele>1859.5700000000002</ele>
   </trkpt>
   <trkpt lat="45.72823" lon="6.347150000000001">
    <ele>1839.23</ele>
   </trkpt>
   <trkpt lat="45.72804000000001" lon="6.347080000000001">
    <ele>1831.8700000000001</ele>
   </trkpt>
   <trkpt lat="45.72822" lon="6.34689">
    <ele>1824.3500000000001</ele>
   </trkpt>
   <trkpt lat="45.72795000000001" lon="6.346900000000001">
    <ele>1811.2700000000002</ele>
   </trkpt>
   <trkpt lat="45.728080000000006" lon="6.34672">
    <ele>1800.99</ele>
   </trkpt>
   <trkpt lat="45.728120000000004" lon="6.346780000000001">
    <ele>1800.99</ele>
   </trkpt>
   <trkpt lat="45.728030000000004" lon="6.34672">
    <ele>1802.9800000000002</ele>
   </trkpt>
   <trkpt lat="45.728060000000006" lon="6.34656">
    <ele>1787.19</ele>
   </trkpt>
   <trkpt lat="45.72815000000001" lon="6.34649">
    <ele>1787.19</ele>
   </trkpt>
   <trkpt lat="45.72827" lon="6.3465300000000004">
    <ele>1783.14</ele>
   </trkpt>
   <trkpt lat="45.728390000000005" lon="6.3465300000000004">
    <ele>1778.0600000000002</ele>
   </trkpt>
   <trkpt lat="45.728500000000004" lon="6.346520000000001">
    <ele>1776.5100000000002</ele>
   </trkpt>
   <trkpt lat="45.72862000000001" lon="6.346470000000001">
    <ele>1770.39</ele>
   </trkpt>
   <trkpt lat="45.728730000000006" lon="6.346450000000001">
    <ele>1770.39</ele>
   </trkpt>
   <trkpt lat="45.72881" lon="6.34637">
    <ele>1767.9600000000003</ele>
   </trkpt>
   <trkpt lat="45.7289" lon="6.346220000000001">
    <ele>1748.38</ele>
   </trkpt>
   <trkpt lat="45.72901" lon="6.3462000000000005">
    <ele>1748.38</ele>
   </trkpt>
   <trkpt lat="45.729130000000005" lon="6.3462000000000005">
    <ele>1741.8700000000001</ele>
   </trkpt>
   <trkpt lat="45.729330000000004" lon="6.3460600000000005">
    <ele>1721.69</ele>
   </trkpt>
   <trkpt lat="45.72923" lon="6.3460600000000005">
    <ele>1721.69</ele>
   </trkpt>
   <trkpt lat="45.72907000000001" lon="6.34604">
    <ele>1731.7300000000002</ele>
   </trkpt>
   <trkpt lat="45.72919" lon="6.345940000000001">
    <ele>1720.9200000000003</ele>
   </trkpt>
   <trkpt lat="45.729130000000005" lon="6.345840000000001">
    <ele>1720.9200000000003</ele>
   </trkpt>
   <trkpt lat="45.729220000000005" lon="6.34576">
    <ele>1707.6700000000003</ele>
   </trkpt>
   <trkpt lat="45.72909000000001" lon="6.345700000000001">
    <ele>1706.3700000000001</ele>
   </trkpt>
   <trkpt lat="45.72899" lon="6.34564">
    <ele>1706.3700000000001</ele>
   </trkpt>
   <trkpt lat="45.7291" lon="6.3456">
    <ele>1705.14</ele>
   </trkpt>
   <trkpt lat="45.729040000000005" lon="6.345470000000001">
    <ele>1700.0300000000002</ele>
   </trkpt>
   <trkpt lat="45.729150000000004" lon="6.34543">
    <ele>1687.1200000000001</ele>
   </trkpt>
   <trkpt lat="45.72908" lon="6.345320000000001">
    <ele>1678.56</ele>
   </trkpt>
   <trkpt lat="45.72921" lon="6.3453800000000005">
    <ele>1668.19</ele>
   </trkpt>
   <trkpt lat="45.729380000000006" lon="6.345280000000001">
    <ele>1664.68</ele>
   </trkpt>
   <trkpt lat="45.729240000000004" lon="6.345230000000001">
    <ele>1659.1000000000001</ele>
   </trkpt>
   <trkpt lat="45.72909000000001" lon="6.3450500000000005">
    <ele>1650.0400000000002</ele>
   </trkpt>
   <trkpt lat="45.72905" lon="6.34489">
    <ele>1645.68</ele>
   </trkpt>
   <trkpt lat="45.729220000000005" lon="6.344740000000001">
    <ele>1632.23</ele>
   </trkpt>
   <trkpt lat="45.72959" lon="6.344570000000001">
    <ele>1617.5000000000002</ele>
   </trkpt>
   <trkpt lat="45.72968" lon="6.34449">
    <ele>1613.04</ele>
   </trkpt>
   <trkpt lat="45.729960000000005" lon="6.3443000000000005">
    <ele>1602.1200000000001</ele>
   </trkpt>
   <trkpt lat="45.72999" lon="6.344250000000001">
    <ele>1602.1200000000001</ele>
   </trkpt>
   <trkpt lat="45.72999" lon="6.34419">
    <ele>1600.47</ele>
   </trkpt>
   <trkpt lat="45.730030000000006" lon="6.344110000000001">
    <ele>1596.8600000000001</ele>
   </trkpt>
   <trkpt lat="45.730180000000004" lon="6.3439700000000006">
    <ele>1591.1000000000001</ele>
   </trkpt>
   <trkpt lat="45.730250000000005" lon="6.343940000000001">
    <ele>1583.6000000000001</ele>
   </trkpt>
   <trkpt lat="45.73028" lon="6.3439000000000005">
    <ele>1583.6000000000001</ele>
   </trkpt>
   <trkpt lat="45.73021000000001" lon="6.34381">
    <ele>1583.6000000000001</ele>
   </trkpt>
   <trkpt lat="45.730270000000004" lon="6.34372">
    <ele>1575.77</ele>
   </trkpt>
   <trkpt lat="45.730360000000005" lon="6.3436900000000005">
    <ele>1572.1100000000001</ele>
   </trkpt>
   <trkpt lat="45.730380000000004" lon="6.343640000000001">
    <ele>1572.1100000000001</ele>
   </trkpt>
   <trkpt lat="45.73012000000001" lon="6.343660000000001">
    <ele>1566.3400000000001</ele>
   </trkpt>
   <trkpt lat="45.729910000000004" lon="6.3436">
    <ele>1555.2100000000003</ele>
   </trkpt>
   <trkpt lat="45.730030000000006" lon="6.343500000000001">
    <ele>1555.2100000000003</ele>
   </trkpt>
   <trkpt lat="45.729910000000004" lon="6.343450000000001">
    <ele>1555.2100000000003</ele>
   </trkpt>
   <trkpt lat="45.72981" lon="6.3434800000000005">
    <ele>1546.51</ele>
   </trkpt>
   <trkpt lat="45.72974000000001" lon="6.343540000000001">
    <ele>1546.51</ele>
   </trkpt>
   <trkpt lat="45.729490000000006" lon="6.34346">
    <ele>1537.2700000000002</ele>
   </trkpt>
   <trkpt lat="45.7297" lon="6.34327">
    <ele>1533.0400000000002</ele>
   </trkpt>
   <trkpt lat="45.72955" lon="6.34327">
    <ele>1531.95</ele>
   </trkpt>
   <trkpt lat="45.72966" lon="6.34313">
    <ele>1526.1200000000001</ele>
   </trkpt>
   <trkpt lat="45.72948" lon="6.34306">
    <ele>1522.7100000000003</ele>
   </trkpt>
   <trkpt lat="45.729710000000004" lon="6.34285">
    <ele>1514.0000000000002</ele>
   </trkpt>
   <trkpt lat="45.729420000000005" lon="6.3427500000000006">
    <ele>1508.73</ele>
   </trkpt>
   <trkpt lat="45.7297" lon="6.342530000000001">
    <ele>1501.5</ele>
   </trkpt>
   <trkpt lat="45.729440000000004" lon="6.34243">
    <ele>1491.65</ele>
   </trkpt>
   <trkpt lat="45.729710000000004" lon="6.342250000000001">
    <ele>1481.33</ele>
   </trkpt>
   <trkpt lat="45.72981" lon="6.342230000000001">
    <ele>1480.02</ele>
   </trkpt>
   <trkpt lat="45.72983000000001" lon="6.34217">
    <ele>1474.47</ele>
   </trkpt>
   <trkpt lat="45.729670000000006" lon="6.342130000000001">
    <ele>1473.0200000000002</ele>
   </trkpt>
   <trkpt lat="45.72954000000001" lon="6.342040000000001">
    <ele>1469.95</ele>
   </trkpt>
   <trkpt lat="45.72955" lon="6.34198">
    <ele>1461.8300000000002</ele>
   </trkpt>
   <trkpt lat="45.72963" lon="6.34194">
    <ele>1461.8300000000002</ele>
   </trkpt>
   <trkpt lat="45.729670000000006" lon="6.34189">
    <ele>1458.72</ele>
   </trkpt>
   <trkpt lat="45.729580000000006" lon="6.34182">
    <ele>1457.27</ele>
   </trkpt>
   <trkpt lat="45.72945000000001" lon="6.34175">
    <ele>1452.13</ele>
   </trkpt>
   <trkpt lat="45.72937" lon="6.341670000000001">
    <ele>1449.98</ele>
   </trkpt>
   <trkpt lat="45.729380000000006" lon="6.341600000000001">
    <ele>1449.01</ele>
   </trkpt>
   <trkpt lat="45.72983000000001" lon="6.34142">
    <ele>1438.8</ele>
   </trkpt>
   <trkpt lat="45.73015" lon="6.341270000000001">
    <ele>1428.9</ele>
   </trkpt>
   <trkpt lat="45.73024" lon="6.34119">
    <ele>1428.9</ele>
   </trkpt>
   <trkpt lat="45.730160000000005" lon="6.34114">
    <ele>1419.71</ele>
   </trkpt>
   <trkpt lat="45.730250000000005" lon="6.34105">
    <ele>1417.7700000000002</ele>
   </trkpt>
   <trkpt lat="45.730160000000005" lon="6.341060000000001">
    <ele>1411.76</ele>
   </trkpt>
   <trkpt lat="45.73012000000001" lon="6.3410400000000005">
    <ele>1411.76</ele>
   </trkpt>
   <trkpt lat="45.73011" lon="6.340980000000001">
    <ele>1409.89</ele>
   </trkpt>
   <trkpt lat="45.73026" lon="6.34074">
    <ele>1399.85</ele>
   </trkpt>
   <trkpt lat="45.73062" lon="6.34036">
    <ele>1388.14</ele>
   </trkpt>
   <trkpt lat="45.73075" lon="6.340280000000001">
    <ele>1380.46</ele>
   </trkpt>
   <trkpt lat="45.730900000000005" lon="6.340140000000001">
    <ele>1375.48</ele>
   </trkpt>
   <trkpt lat="45.73106000000001" lon="6.340020000000001">
    <ele>1368.48</ele>
   </trkpt>
   <trkpt lat="45.73116" lon="6.339810000000001">
    <ele>1363.8700000000001</ele>
   </trkpt>
   <trkpt lat="45.731300000000005" lon="6.3396300000000005">
    <ele>1354.36</ele>
   </trkpt>
   <trkpt lat="45.731300000000005" lon="6.33959">
    <ele>1354.36</ele>
   </trkpt>
   <trkpt lat="45.73129" lon="6.3396300000000005">
    <ele>1354.36</ele>
   </trkpt>
   <trkpt lat="45.731300000000005" lon="6.3395600000000005">
    <ele>1353.39</ele>
   </trkpt>
   <trkpt lat="45.731170000000006" lon="6.339510000000001">
    <ele>1349.28</ele>
   </trkpt>
   <trkpt lat="45.73115000000001" lon="6.33945">
    <ele>1346.51</ele>
   </trkpt>
   <trkpt lat="45.731170000000006" lon="6.33933">
    <ele>1346.51</ele>
   </trkpt>
   <trkpt lat="45.73127" lon="6.339180000000001">
    <ele>1339.3799999999999</ele>
   </trkpt>
   <trkpt lat="45.73127" lon="6.339110000000001">
    <ele>1338.15</ele>
   </trkpt>
   <trkpt lat="45.731080000000006" lon="6.338940000000001">
    <ele>1332.1900000000003</ele>
   </trkpt>
   <trkpt lat="45.731030000000004" lon="6.338830000000001">
    <ele>1328.18</ele>
   </trkpt>
   <trkpt lat="45.7312" lon="6.3386000000000005">
    <ele>1322.8300000000002</ele>
   </trkpt>
   <trkpt lat="45.73122" lon="6.338540000000001">
    <ele>1321.3300000000002</ele>
   </trkpt>
   <trkpt lat="45.731190000000005" lon="6.338430000000001">
    <ele>1316.7000000000003</ele>
   </trkpt>
   <trkpt lat="45.73114" lon="6.338400000000001">
    <ele>1316.7000000000003</ele>
   </trkpt>
   <trkpt lat="45.731" lon="6.338380000000001">
    <ele>1309.95</ele>
   </trkpt>
   <trkpt lat="45.73091" lon="6.33839">
    <ele>1306.28</ele>
   </trkpt>
   <trkpt lat="45.730760000000004" lon="6.33837">
    <ele>1301.4800000000002</ele>
   </trkpt>
   <trkpt lat="45.73069" lon="6.33832">
    <ele>1300.39</ele>
   </trkpt>
   <trkpt lat="45.73059000000001" lon="6.338660000000001">
    <ele>1312.4900000000002</ele>
   </trkpt>
   <trkpt lat="45.730520000000006" lon="6.338830000000001">
    <ele>1319.3000000000002</ele>
   </trkpt>
   <trkpt lat="45.730430000000005" lon="6.33886">
    <ele>1319.0300000000002</ele>
   </trkpt>
   <trkpt lat="45.73035" lon="6.339040000000001">
    <ele>1326.8700000000001</ele>
   </trkpt>
   <trkpt lat="45.73033" lon="6.339200000000001">
    <ele>1338.71</ele>
   </trkpt>
   <trkpt lat="45.730230000000006" lon="6.339530000000001">
    <ele>1354.5200000000002</ele>
   </trkpt>
   <trkpt lat="45.730030000000006" lon="6.33959">
    <ele>1357.11</ele>
   </trkpt>
   <trkpt lat="45.72973" lon="6.339580000000001">
    <ele>1349.5900000000001</ele>
   </trkpt>
   <trkpt lat="45.72965000000001" lon="6.339650000000001">
    <ele>1355.43</ele>
   </trkpt>
   <trkpt lat="45.72957" lon="6.339700000000001">
    <ele>1361.73</ele>
   </trkpt>
   <trkpt lat="45.729470000000006" lon="6.33971">
    <ele>1361.73</ele>
   </trkpt>
   <trkpt lat="45.72928" lon="6.339690000000001">
    <ele>1359.6100000000001</ele>
   </trkpt>
   <trkpt lat="45.72905" lon="6.339740000000001">
    <ele>1364.0400000000002</ele>
   </trkpt>
   <trkpt lat="45.728950000000005" lon="6.339720000000001">
    <ele>1363.89</ele>
   </trkpt>
   <trkpt lat="45.7287" lon="6.339760000000001">
    <ele>1363.9800000000002</ele>
   </trkpt>
   <trkpt lat="45.728590000000004" lon="6.339840000000001">
    <ele>1365.4400000000003</ele>
   </trkpt>
   <trkpt lat="45.728480000000005" lon="6.33985">
    <ele>1366.92</ele>
   </trkpt>
   <trkpt lat="45.7284" lon="6.339950000000001">
    <ele>1371.3500000000001</ele>
   </trkpt>
   <trkpt lat="45.72822" lon="6.34006">
    <ele>1378.56</ele>
   </trkpt>
   <trkpt lat="45.728060000000006" lon="6.340190000000001">
    <ele>1385.45</ele>
   </trkpt>
   <trkpt lat="45.727900000000005" lon="6.34006">
    <ele>1381.88</ele>
   </trkpt>
   <trkpt lat="45.72787" lon="6.33994">
    <ele>1376.64</ele>
   </trkpt>
   <trkpt lat="45.72773" lon="6.339840000000001">
    <ele>1373.22</ele>
   </trkpt>
   <trkpt lat="45.727610000000006" lon="6.339790000000001">
    <ele>1374.4</ele>
   </trkpt>
   <trkpt lat="45.727500000000006" lon="6.339790000000001">
    <ele>1380.3100000000002</ele>
   </trkpt>
   <trkpt lat="45.72739000000001" lon="6.339740000000001">
    <ele>1380.17</ele>
   </trkpt>
   <trkpt lat="45.72729" lon="6.3396300000000005">
    <ele>1381.85</ele>
   </trkpt>
   <trkpt lat="45.727230000000006" lon="6.33952">
    <ele>1379.6000000000001</ele>
   </trkpt>
   <trkpt lat="45.72717" lon="6.339200000000001">
    <ele>1369.7800000000002</ele>
   </trkpt>
   <trkpt lat="45.727120000000006" lon="6.33903">
    <ele>1363.02</ele>
   </trkpt>
   <trkpt lat="45.72701000000001" lon="6.33882">
    <ele>1361.1000000000001</ele>
   </trkpt>
   <trkpt lat="45.72695" lon="6.338640000000001">
    <ele>1358.19</ele>
   </trkpt>
   <trkpt lat="45.72686" lon="6.338430000000001">
    <ele>1353.4</ele>
   </trkpt>
   <trkpt lat="45.726800000000004" lon="6.33832">
    <ele>1353.4</ele>
   </trkpt>
   <trkpt lat="45.7267" lon="6.33818">
    <ele>1354.94</ele>
   </trkpt>
   <trkpt lat="45.726710000000004" lon="6.33804">
    <ele>1347.35</ele>
   </trkpt>
   <trkpt lat="45.726690000000005" lon="6.337890000000001">
    <ele>1342.33</ele>
   </trkpt>
   <trkpt lat="45.726620000000004" lon="6.33776">
    <ele>1340.66</ele>
   </trkpt>
   <trkpt lat="45.72636000000001" lon="6.337560000000001">
    <ele>1344.92</ele>
   </trkpt>
   <trkpt lat="45.726240000000004" lon="6.3375">
    <ele>1344.68</ele>
   </trkpt>
   <trkpt lat="45.7261" lon="6.33748">
    <ele>1346.67</ele>
   </trkpt>
   <trkpt lat="45.726000000000006" lon="6.3375200000000005">
    <ele>1348.0500000000002</ele>
   </trkpt>
   <trkpt lat="45.72605" lon="6.337350000000001">
    <ele>1342.68</ele>
   </trkpt>
   <trkpt lat="45.72616000000001" lon="6.33724">
    <ele>1335.96</ele>
   </trkpt>
   <trkpt lat="45.7263" lon="6.33713">
    <ele>1327.3000000000002</ele>
   </trkpt>
   <trkpt lat="45.726420000000005" lon="6.33708">
    <ele>1322.0700000000002</ele>
   </trkpt>
   <trkpt lat="45.72652" lon="6.337090000000001">
    <ele>1316.2500000000002</ele>
   </trkpt>
   <trkpt lat="45.726870000000005" lon="6.337280000000001">
    <ele>1310.14</ele>
   </trkpt>
   <trkpt lat="45.72692000000001" lon="6.33715">
    <ele>1302.3200000000002</ele>
   </trkpt>
   <trkpt lat="45.726890000000004" lon="6.336930000000001">
    <ele>1297.9</ele>
   </trkpt>
   <trkpt lat="45.72683000000001" lon="6.336810000000001">
    <ele>1296.3999999999999</ele>
   </trkpt>
   <trkpt lat="45.726710000000004" lon="6.336720000000001">
    <ele>1297.2100000000003</ele>
   </trkpt>
   <trkpt lat="45.726620000000004" lon="6.336670000000001">
    <ele>1298.54</ele>
   </trkpt>
   <trkpt lat="45.72646" lon="6.336620000000001">
    <ele>1299.7</ele>
   </trkpt>
   <trkpt lat="45.72636000000001" lon="6.33661">
    <ele>1302.28</ele>
   </trkpt>
   <trkpt lat="45.726470000000006" lon="6.33661">
    <ele>1298.8400000000001</ele>
   </trkpt>
   <trkpt lat="45.72668" lon="6.3364400000000005">
    <ele>1286.04</ele>
   </trkpt>
   <trkpt lat="45.726910000000004" lon="6.33635">
    <ele>1274.92</ele>
   </trkpt>
   <trkpt lat="45.727250000000005" lon="6.33652">
    <ele>1267.7200000000003</ele>
   </trkpt>
   <trkpt lat="45.72735" lon="6.336670000000001">
    <ele>1267.3500000000001</ele>
   </trkpt>
   <trkpt lat="45.727450000000005" lon="6.3367">
    <ele>1263.9</ele>
   </trkpt>
   <trkpt lat="45.72748000000001" lon="6.33654">
    <ele>1258.51</ele>
   </trkpt>
   <trkpt lat="45.72744" lon="6.3363700000000005">
    <ele>1255.8700000000001</ele>
   </trkpt>
   <trkpt lat="45.72739000000001" lon="6.3362300000000005">
    <ele>1251.8200000000002</ele>
   </trkpt>
   <trkpt lat="45.727160000000005" lon="6.33577">
    <ele>1244.7</ele>
   </trkpt>
   <trkpt lat="45.72699" lon="6.33558">
    <ele>1241.12</ele>
   </trkpt>
   <trkpt lat="45.72711" lon="6.335500000000001">
    <ele>1234.2900000000002</ele>
   </trkpt>
   <trkpt lat="45.72726" lon="6.33553">
    <ele>1231.98</ele>
   </trkpt>
   <trkpt lat="45.727340000000005" lon="6.3356200000000005">
    <ele>1231.98</ele>
   </trkpt>
   <trkpt lat="45.727430000000005" lon="6.335750000000001">
    <ele>1233.0400000000002</ele>
   </trkpt>
   <trkpt lat="45.727520000000005" lon="6.335820000000001">
    <ele>1230.7400000000002</ele>
   </trkpt>
   <trkpt lat="45.72775" lon="6.335890000000001">
    <ele>1224.21</ele>
   </trkpt>
   <trkpt lat="45.72784" lon="6.33598">
    <ele>1222.5300000000002</ele>
   </trkpt>
   <trkpt lat="45.72791" lon="6.336110000000001">
    <ele>1218.2</ele>
   </trkpt>
   <trkpt lat="45.728010000000005" lon="6.336180000000001">
    <ele>1209.2200000000003</ele>
   </trkpt>
   <trkpt lat="45.728080000000006" lon="6.33605">
    <ele>1207.6200000000001</ele>
   </trkpt>
   <trkpt lat="45.72807" lon="6.335920000000001">
    <ele>1207.33</ele>
   </trkpt>
   <trkpt lat="45.72802" lon="6.33579">
    <ele>1208.17</ele>
   </trkpt>
   <trkpt lat="45.72787" lon="6.33558">
    <ele>1205.6100000000001</ele>
   </trkpt>
   <trkpt lat="45.727740000000004" lon="6.335120000000001">
    <ele>1195.27</ele>
   </trkpt>
   <trkpt lat="45.72769" lon="6.33499">
    <ele>1195.27</ele>
   </trkpt>
   <trkpt lat="45.727590000000006" lon="6.334820000000001">
    <ele>1191.2600000000002</ele>
   </trkpt>
   <trkpt lat="45.727360000000004" lon="6.334600000000001">
    <ele>1191.77</ele>
   </trkpt>
   <trkpt lat="45.72715" lon="6.3345">
    <ele>1185.15</ele>
   </trkpt>
   <trkpt lat="45.727160000000005" lon="6.334370000000001">
    <ele>1185.15</ele>
   </trkpt>
   <trkpt lat="45.727250000000005" lon="6.33424">
    <ele>1178.7800000000002</ele>
   </trkpt>
   <trkpt lat="45.72767" lon="6.334230000000001">
    <ele>1157.6200000000001</ele>
   </trkpt>
   <trkpt lat="45.72776" lon="6.334250000000001">
    <ele>1153.68</ele>
   </trkpt>
   <trkpt lat="45.727850000000004" lon="6.33429">
    <ele>1155.3600000000001</ele>
   </trkpt>
   <trkpt lat="45.727920000000005" lon="6.3344000000000005">
    <ele>1155.3600000000001</ele>
   </trkpt>
   <trkpt lat="45.728010000000005" lon="6.334490000000001">
    <ele>1153.72</ele>
   </trkpt>
   <trkpt lat="45.72823" lon="6.3344700000000005">
    <ele>1136.0</ele>
   </trkpt>
   <trkpt lat="45.728440000000006" lon="6.33452">
    <ele>1127.15</ele>
   </trkpt>
   <trkpt lat="45.72854" lon="6.334600000000001">
    <ele>1124.44</ele>
   </trkpt>
   <trkpt lat="45.72863" lon="6.334700000000001">
    <ele>1124.8</ele>
   </trkpt>
   <trkpt lat="45.72863" lon="6.334510000000001">
    <ele>1114.9900000000002</ele>
   </trkpt>
   <trkpt lat="45.728570000000005" lon="6.33436">
    <ele>1113.41</ele>
   </trkpt>
   <trkpt lat="45.72849" lon="6.334280000000001">
    <ele>1113.41</ele>
   </trkpt>
   <trkpt lat="45.72838" lon="6.33375">
    <ele>1086.6100000000001</ele>
   </trkpt>
   <trkpt lat="45.72836" lon="6.333590000000001">
    <ele>1086.6100000000001</ele>
   </trkpt>
   <trkpt lat="45.728260000000006" lon="6.33347">
    <ele>1086.6100000000001</ele>
   </trkpt>
   <trkpt lat="45.72791" lon="6.333220000000001">
    <ele>1096.12</ele>
   </trkpt>
   <trkpt lat="45.727810000000005" lon="6.3329200000000005">
    <ele>1088.2800000000002</ele>
   </trkpt>
   <trkpt lat="45.72773" lon="6.332750000000001">
    <ele>1084.6</ele>
   </trkpt>
   <trkpt lat="45.727650000000004" lon="6.33265">
    <ele>1076.23</ele>
   </trkpt>
   <trkpt lat="45.72775" lon="6.33262">
    <ele>1076.23</ele>
   </trkpt>
   <trkpt lat="45.72787" lon="6.33267">
    <ele>1065.39</ele>
   </trkpt>
   <trkpt lat="45.72784" lon="6.332540000000001">
    <ele>1064.51</ele>
   </trkpt>
   <trkpt lat="45.72777000000001" lon="6.332440000000001">
    <ele>1064.51</ele>
   </trkpt>
   <trkpt lat="45.727650000000004" lon="6.332520000000001">
    <ele>1077.04</ele>
   </trkpt>
   <trkpt lat="45.72753" lon="6.3326400000000005">
    <ele>1095.0300000000002</ele>
   </trkpt>
   <trkpt lat="45.72742" lon="6.332590000000001">
    <ele>1095.0300000000002</ele>
   </trkpt>
   <trkpt lat="45.72728" lon="6.332560000000001">
    <ele>1095.8300000000002</ele>
   </trkpt>
   <trkpt lat="45.727180000000004" lon="6.332470000000001">
    <ele>1095.8300000000002</ele>
   </trkpt>
   <trkpt lat="45.727180000000004" lon="6.332280000000001">
    <ele>1085.43</ele>
   </trkpt>
   <trkpt lat="45.727320000000006" lon="6.33222">
    <ele>1067.59</ele>
   </trkpt>
   <trkpt lat="45.7274" lon="6.3321000000000005">
    <ele>1062.0</ele>
   </trkpt>
   <trkpt lat="45.7274" lon="6.331950000000001">
    <ele>1062.0</ele>
   </trkpt>
   <trkpt lat="45.727450000000005" lon="6.331770000000001">
    <ele>1051.56</ele>
   </trkpt>
   <trkpt lat="45.727630000000005" lon="6.331480000000001">
    <ele>1031.83</ele>
   </trkpt>
   <trkpt lat="45.72762" lon="6.33133">
    <ele>1031.83</ele>
   </trkpt>
   <trkpt lat="45.727755002494895" lon="6.330575001777304">
    <ele>1017.7500000000001</ele>
   </trkpt>
   <trkpt lat="45.72789" lon="6.329820000000001">
    <ele>1017.7500000000001</ele>
   </trkpt>
   <trkpt lat="45.72775" lon="6.329770000000001">
    <ele>1026.22</ele>
   </trkpt>
   <trkpt lat="45.727810000000005" lon="6.329630000000001">
    <ele>1021.44</ele>
   </trkpt>
   <trkpt lat="45.727830000000004" lon="6.3293800000000005">
    <ele>1022.0500000000001</ele>
   </trkpt>
   <trkpt lat="45.7278" lon="6.32917">
    <ele>1023.49</ele>
   </trkpt>
   <trkpt lat="45.727720000000005" lon="6.32901">
    <ele>1025.14</ele>
   </trkpt>
   <trkpt lat="45.727740000000004" lon="6.32887">
    <ele>1025.14</ele>
   </trkpt>
   <trkpt lat="45.727700000000006" lon="6.32868">
    <ele>1024.84</ele>
   </trkpt>
   <trkpt lat="45.72755" lon="6.32845">
    <ele>1025.6000000000001</ele>
   </trkpt>
   <trkpt lat="45.72726" lon="6.32824">
    <ele>1032.39</ele>
   </trkpt>
   <trkpt lat="45.727120000000006" lon="6.328100000000001">
    <ele>1035.41</ele>
   </trkpt>
   <trkpt lat="45.726910000000004" lon="6.328030000000001">
    <ele>1043.49</ele>
   </trkpt>
   <trkpt lat="45.72679" lon="6.327920000000001">
    <ele>1045.92</ele>
   </trkpt>
   <trkpt lat="45.72672" lon="6.327800000000001">
    <ele>1047.0900000000001</ele>
   </trkpt>
   <trkpt lat="45.72666" lon="6.327540000000001">
    <ele>1044.3200000000002</ele>
   </trkpt>
   <trkpt lat="45.72659" lon="6.32737">
    <ele>1042.19</ele>
   </trkpt>
   <trkpt lat="45.726510000000005" lon="6.3270800000000005">
    <ele>1036.98</ele>
   </trkpt>
   <trkpt lat="45.72632" lon="6.3267500000000005">
    <ele>1036.6200000000001</ele>
   </trkpt>
   <trkpt lat="45.726110000000006" lon="6.32657">
    <ele>1040.67</ele>
   </trkpt>
   <trkpt lat="45.726060000000004" lon="6.326460000000001">
    <ele>1041.6000000000001</ele>
   </trkpt>
   <trkpt lat="45.7259" lon="6.32626">
    <ele>1042.91</ele>
   </trkpt>
   <trkpt lat="45.725730000000006" lon="6.3261400000000005">
    <ele>1047.71</ele>
   </trkpt>
   <trkpt lat="45.72554" lon="6.32629">
    <ele>1057.21</ele>
   </trkpt>
   <trkpt lat="45.725370000000005" lon="6.32612">
    <ele>1056.81</ele>
   </trkpt>
   <trkpt lat="45.72524000000001" lon="6.325950000000001">
    <ele>1056.2900000000002</ele>
   </trkpt>
   <trkpt lat="45.72513000000001" lon="6.3257200000000005">
    <ele>1055.52</ele>
   </trkpt>
   <trkpt lat="45.72507" lon="6.325520000000001">
    <ele>1054.93</ele>
   </trkpt>
   <trkpt lat="45.724970000000006" lon="6.325310000000001">
    <ele>1054.51</ele>
   </trkpt>
   <trkpt lat="45.7246" lon="6.32469">
    <ele>1053.2700000000002</ele>
   </trkpt>
   <trkpt lat="45.72417" lon="6.323790000000001">
    <ele>1048.71</ele>
   </trkpt>
   <trkpt lat="45.72377" lon="6.3235">
    <ele>1043.3700000000001</ele>
   </trkpt>
   <trkpt lat="45.723490000000005" lon="6.32324">
    <ele>1039.56</ele>
   </trkpt>
   <trkpt lat="45.72326" lon="6.323160000000001">
    <ele>1037.7500000000002</ele>
   </trkpt>
   <trkpt lat="45.72296" lon="6.323200000000001">
    <ele>1033.71</ele>
   </trkpt>
   <trkpt lat="45.722820000000006" lon="6.32324">
    <ele>1031.65</ele>
   </trkpt>
   <trkpt lat="45.72242000000001" lon="6.32291">
    <ele>1025.46</ele>
   </trkpt>
   <trkpt lat="45.72214" lon="6.32282">
    <ele>1022.27</ele>
   </trkpt>
   <trkpt lat="45.72182" lon="6.322800000000001">
    <ele>1018.32</ele>
   </trkpt>
   <trkpt lat="45.721680000000006" lon="6.32282">
    <ele>1017.1600000000001</ele>
   </trkpt>
   <trkpt lat="45.72137" lon="6.322710000000001">
    <ele>1012.64</ele>
   </trkpt>
   <trkpt lat="45.72126" lon="6.322640000000001">
    <ele>1010.3900000000001</ele>
   </trkpt>
   <trkpt lat="45.72113" lon="6.32265">
    <ele>1010.3900000000001</ele>
   </trkpt>
   <trkpt lat="45.720850000000006" lon="6.322550000000001">
    <ele>1005.8900000000001</ele>
   </trkpt>
   <trkpt lat="45.72072000000001" lon="6.322310000000001">
    <ele>1003.76</ele>
   </trkpt>
   <trkpt lat="45.720490000000005" lon="6.3222700000000005">
    <ele>1001.6700000000001</ele>
   </trkpt>
   <trkpt lat="45.72004500010102" lon="6.3221399989726">
    <ele>995.44</ele>
   </trkpt>
   <trkpt lat="45.71960000000001" lon="6.322010000000001">
    <ele>988.5800000000002</ele>
   </trkpt>
   <trkpt lat="45.71934" lon="6.32197">
    <ele>985.89</ele>
   </trkpt>
   <trkpt lat="45.719150000000006" lon="6.321980000000001">
    <ele>983.84</ele>
   </trkpt>
   <trkpt lat="45.718830000000004" lon="6.322190000000001">
    <ele>980.9300000000001</ele>
   </trkpt>
   <trkpt lat="45.718380000316586" lon="6.322039998864797">
    <ele>980.11</ele>
   </trkpt>
   <trkpt lat="45.71793" lon="6.321890000000001">
    <ele>975.1</ele>
   </trkpt>
   <trkpt lat="45.717710000000004" lon="6.3218000000000005">
    <ele>974.0600000000001</ele>
   </trkpt>
   <trkpt lat="45.71728" lon="6.321750000000001">
    <ele>968.0600000000001</ele>
   </trkpt>
   <trkpt lat="45.71654000009695" lon="6.321743333157636">
    <ele>960.8900000000001</ele>
   </trkpt>
   <trkpt lat="45.715800000193475" lon="6.321736666491843">
    <ele>956.2700000000001</ele>
   </trkpt>
   <trkpt lat="45.71506" lon="6.3217300000000005">
    <ele>948.3600000000001</ele>
   </trkpt>
   <trkpt lat="45.71454000000001" lon="6.321820000000001">
    <ele>943.2</ele>
   </trkpt>
   <trkpt lat="45.71428" lon="6.32192">
    <ele>940.5000000000001</ele>
   </trkpt>
   <trkpt lat="45.71403" lon="6.322080000000001">
    <ele>937.58</ele>
   </trkpt>
   <trkpt lat="45.71361" lon="6.32244">
    <ele>932.1400000000001</ele>
   </trkpt>
   <trkpt lat="45.71304000000001" lon="6.32329">
    <ele>922.3800000000001</ele>
   </trkpt>
   <trkpt lat="45.71294" lon="6.323550000000001">
    <ele>920.4300000000001</ele>
   </trkpt>
   <trkpt lat="45.71291" lon="6.32359">
    <ele>920.07</ele>
   </trkpt>
   <trkpt lat="45.71278" lon="6.32357">
    <ele>919.4100000000001</ele>
   </trkpt>
   <trkpt lat="45.712630000000004" lon="6.323480000000001">
    <ele>919.0300000000001</ele>
   </trkpt>
   <trkpt lat="45.71272500174134" lon="6.322845001196469">
    <ele>914.51</ele>
   </trkpt>
   <trkpt lat="45.71282" lon="6.32221">
    <ele>904.32</ele>
   </trkpt>
   <trkpt lat="45.712810002021726" lon="6.32153000020081">
    <ele>898.47</ele>
   </trkpt>
   <trkpt lat="45.7128" lon="6.32085">
    <ele>893.29</ele>
   </trkpt>
   <trkpt lat="45.71314" lon="6.319920000000001">
    <ele>888.38</ele>
   </trkpt>
   <trkpt lat="45.713150000000006" lon="6.319750000000001">
    <ele>885.7700000000001</ele>
   </trkpt>
   <trkpt lat="45.71322000000001" lon="6.319420000000001">
    <ele>879.1600000000001</ele>
   </trkpt>
   <trkpt lat="45.713210000000004" lon="6.3192">
    <ele>879.1600000000001</ele>
   </trkpt>
   <trkpt lat="45.71316" lon="6.319050000000001">
    <ele>877.77</ele>
   </trkpt>
   <trkpt lat="45.71302" lon="6.319030000000001">
    <ele>877.45</ele>
   </trkpt>
   <trkpt lat="45.712860000000006" lon="6.318880000000001">
    <ele>875.95</ele>
   </trkpt>
   <trkpt lat="45.712700000000005" lon="6.31876">
    <ele>873.11</ele>
   </trkpt>
   <trkpt lat="45.71226" lon="6.318670000000001">
    <ele>870.4900000000001</ele>
   </trkpt>
   <trkpt lat="45.712210000000006" lon="6.3187500000000005">
    <ele>870.86</ele>
   </trkpt>
   <trkpt lat="45.71190000000001" lon="6.3189">
    <ele>871.09</ele>
   </trkpt>
   <trkpt lat="45.711740000000006" lon="6.318950000000001">
    <ele>871.08</ele>
   </trkpt>
   <trkpt lat="45.71155" lon="6.31892">
    <ele>870.6300000000001</ele>
   </trkpt>
   <trkpt lat="45.71141" lon="6.318880000000001">
    <ele>869.5200000000001</ele>
   </trkpt>
   <trkpt lat="45.711330000000004" lon="6.31878">
    <ele>869.5200000000001</ele>
   </trkpt>
   <trkpt lat="45.71097" lon="6.31822">
    <ele>865.16</ele>
   </trkpt>
   <trkpt lat="45.710860000000004" lon="6.317970000000001">
    <ele>863.8800000000001</ele>
   </trkpt>
   <trkpt lat="45.71074" lon="6.31744">
    <ele>861.77</ele>
   </trkpt>
   <trkpt lat="45.710460000000005" lon="6.316980000000001">
    <ele>859.77</ele>
   </trkpt>
   <trkpt lat="45.71032" lon="6.3166">
    <ele>858.95</ele>
   </trkpt>
   <trkpt lat="45.71018" lon="6.31599">
    <ele>858.74</ele>
   </trkpt>
   <trkpt lat="45.71009" lon="6.315180000000001">
    <ele>859.4200000000001</ele>
   </trkpt>
   <trkpt lat="45.71005" lon="6.315">
    <ele>859.5</ele>
   </trkpt>
   <trkpt lat="45.70994" lon="6.314870000000001">
    <ele>859.4600000000002</ele>
   </trkpt>
   <trkpt lat="45.709500000000006" lon="6.3146">
    <ele>856.6700000000001</ele>
   </trkpt>
   <trkpt lat="45.709300000000006" lon="6.314450000000001">
    <ele>855.2</ele>
   </trkpt>
   <trkpt lat="45.70922" lon="6.3142700000000005">
    <ele>852.08</ele>
   </trkpt>
   <trkpt lat="45.70918" lon="6.314050000000001">
    <ele>850.0600000000001</ele>
   </trkpt>
   <trkpt lat="45.709160000000004" lon="6.31381">
    <ele>848.1</ele>
   </trkpt>
   <trkpt lat="45.70917" lon="6.312950000000001">
    <ele>843.3900000000001</ele>
   </trkpt>
   <trkpt lat="45.70911" lon="6.31273">
    <ele>841.5300000000001</ele>
   </trkpt>
   <trkpt lat="45.708940000000005" lon="6.3123700000000005">
    <ele>838.5100000000001</ele>
   </trkpt>
   <trkpt lat="45.708650000000006" lon="6.31127">
    <ele>829.89</ele>
   </trkpt>
   <trkpt lat="45.708200000000005" lon="6.31123">
    <ele>826.6300000000001</ele>
   </trkpt>
   <trkpt lat="45.70768" lon="6.3110800000000005">
    <ele>819.13</ele>
   </trkpt>
   <trkpt lat="45.70740000000001" lon="6.311070000000001">
    <ele>816.4100000000001</ele>
   </trkpt>
   <trkpt lat="45.70718" lon="6.31118">
    <ele>814.2</ele>
   </trkpt>
   <trkpt lat="45.7068" lon="6.31123">
    <ele>811.64</ele>
   </trkpt>
   <trkpt lat="45.70604" lon="6.3112200000000005">
    <ele>804.9600000000002</ele>
   </trkpt>
   <trkpt lat="45.70588" lon="6.311140000000001">
    <ele>804.09</ele>
   </trkpt>
   <trkpt lat="45.70588" lon="6.310740000000001">
    <ele>800.21</ele>
   </trkpt>
   <trkpt lat="45.706050000000005" lon="6.309830000000001">
    <ele>791.5300000000001</ele>
   </trkpt>
   <trkpt lat="45.70606" lon="6.309430000000001">
    <ele>785.8000000000001</ele>
   </trkpt>
   <trkpt lat="45.705960000000005" lon="6.309100000000001">
    <ele>784.2500000000001</ele>
   </trkpt>
   <trkpt lat="45.705980000000004" lon="6.308330000000001">
    <ele>772.11</ele>
   </trkpt>
   <trkpt lat="45.70593" lon="6.30804">
    <ele>768.5600000000001</ele>
   </trkpt>
   <trkpt lat="45.70577" lon="6.307840000000001">
    <ele>766.58</ele>
   </trkpt>
   <trkpt lat="45.705740000000006" lon="6.30773">
    <ele>765.4300000000001</ele>
   </trkpt>
   <trkpt lat="45.70568" lon="6.307760000000001">
    <ele>765.3700000000001</ele>
   </trkpt>
   <trkpt lat="45.705630000000006" lon="6.3075">
    <ele>764.97</ele>
   </trkpt>
  </trkseg>
 </trk>
</gpx>
