<?xml version="1.0" encoding="UTF-8"?>
<gpx creator="StravaGPX" version="1.1" xmlns="http://www.topografix.com/GPX/1/1" xmlns:xsi="http://www.w3.org/2001/XMLSchema-instance" xsi:schemaLocation="http://www.topografix.com/GPX/1/1 http://www.topografix.com/GPX/1/1/gpx.xsd">
 <metadata>
  <name>Montée ravito</name>
  <author>
   <name>Emilien Marion</name>
   <link href="https://www.strava.com/athletes/79224240"/>
  </author>
  <copyright author="OpenStreetMap contributors">
   <year>2020</year>
   <license>https://www.openstreetmap.org/copyright</license>
  </copyright>
  <link href="https://www.strava.com/routes/3496199756014101774"/>
 </metadata>
 <trk>
  <name>Montée ravito</name>
  <link href="https://www.strava.com/routes/3496199756014101774"/>
  <type>trail_running</type>
  <trkseg>
   <trkpt lat="45.64576" lon="6.2371300000000005">
    <ele>1016.4600000000002</ele>
   </trkpt>
   <trkpt lat="45.64578" lon="6.23718">
    <ele>1016.6700000000002</ele>
   </trkpt>
   <trkpt lat="45.646040000000006" lon="6.237450000000001">
    <ele>1020.11</ele>
   </trkpt>
   <trkpt lat="45.64618" lon="6.237830000000001">
    <ele>1023.4300000000001</ele>
   </trkpt>
   <trkpt lat="45.64640000000001" lon="6.23803">
    <ele>1026.8600000000001</ele>
   </trkpt>
   <trkpt lat="45.64663" lon="6.23817">
    <ele>1029.83</ele>
   </trkpt>
   <trkpt lat="45.64679" lon="6.238230000000001">
    <ele>1030.69</ele>
   </trkpt>
   <trkpt lat="45.646910000000005" lon="6.23836">
    <ele>1032.74</ele>
   </trkpt>
   <trkpt lat="45.647180000000006" lon="6.23878">
    <ele>1038.74</ele>
   </trkpt>
   <trkpt lat="45.647330000000004" lon="6.239090000000001">
    <ele>1038.74</ele>
   </trkpt>
   <trkpt lat="45.64743000000001" lon="6.2391700000000005">
    <ele>1041.18</ele>
   </trkpt>
   <trkpt lat="45.647540000000006" lon="6.239330000000001">
    <ele>1041.18</ele>
   </trkpt>
   <trkpt lat="45.647600000000004" lon="6.2395000000000005">
    <ele>1042.44</ele>
   </trkpt>
   <trkpt lat="45.64761" lon="6.239800000000001">
    <ele>1044.69</ele>
   </trkpt>
   <trkpt lat="45.647740000000006" lon="6.23981">
    <ele>1047.25</ele>
   </trkpt>
   <trkpt lat="45.647960000000005" lon="6.239870000000001">
    <ele>1053.95</ele>
   </trkpt>
   <trkpt lat="45.64838" lon="6.2401800000000005">
    <ele>1063.5800000000002</ele>
   </trkpt>
   <trkpt lat="45.64904000000001" lon="6.24059">
    <ele>1088.66</ele>
   </trkpt>
   <trkpt lat="45.649440000000006" lon="6.2407900000000005">
    <ele>1100.56</ele>
   </trkpt>
   <trkpt lat="45.6497" lon="6.2410000000000005">
    <ele>1105.21</ele>
   </trkpt>
   <trkpt lat="45.64985" lon="6.240990000000001">
    <ele>1107.52</ele>
   </trkpt>
   <trkpt lat="45.650150000000004" lon="6.2409300000000005">
    <ele>1113.0500000000002</ele>
   </trkpt>
   <trkpt lat="45.650310000000005" lon="6.24082">
    <ele>1115.68</ele>
   </trkpt>
   <trkpt lat="45.650420000000004" lon="6.2408">
    <ele>1116.18</ele>
   </trkpt>
   <trkpt lat="45.65052" lon="6.2408600000000005">
    <ele>1117.31</ele>
   </trkpt>
   <trkpt lat="45.650670000000005" lon="6.24091">
    <ele>1118.09</ele>
   </trkpt>
   <trkpt lat="45.65079" lon="6.2410000000000005">
    <ele>1119.34</ele>
   </trkpt>
   <trkpt lat="45.65093" lon="6.24117">
    <ele>1120.7</ele>
   </trkpt>
   <trkpt lat="45.65108" lon="6.24124">
    <ele>1126.43</ele>
   </trkpt>
   <trkpt lat="45.65115" lon="6.241230000000001">
    <ele>1126.43</ele>
   </trkpt>
   <trkpt lat="45.651230000000005" lon="6.24115">
    <ele>1127.91</ele>
   </trkpt>
   <trkpt lat="45.651320000000005" lon="6.241110000000001">
    <ele>1129.5700000000002</ele>
   </trkpt>
   <trkpt lat="45.65149" lon="6.241230000000001">
    <ele>1130.7800000000002</ele>
   </trkpt>
   <trkpt lat="45.651700000000005" lon="6.2413300000000005">
    <ele>1132.59</ele>
   </trkpt>
   <trkpt lat="45.651790000000005" lon="6.241320000000001">
    <ele>1133.54</ele>
   </trkpt>
   <trkpt lat="45.65204000000001" lon="6.24115">
    <ele>1137.63</ele>
   </trkpt>
   <trkpt lat="45.65231000000001" lon="6.241060000000001">
    <ele>1141.2600000000002</ele>
   </trkpt>
   <trkpt lat="45.65261" lon="6.2407900000000005">
    <ele>1148.49</ele>
   </trkpt>
   <trkpt lat="45.652770000000004" lon="6.240760000000001">
    <ele>1153.31</ele>
   </trkpt>
   <trkpt lat="45.652890000000006" lon="6.240810000000001">
    <ele>1155.89</ele>
   </trkpt>
   <trkpt lat="45.65308" lon="6.2407200000000005">
    <ele>1160.0000000000002</ele>
   </trkpt>
   <trkpt lat="45.65317" lon="6.24073">
    <ele>1165.95</ele>
   </trkpt>
   <trkpt lat="45.653330000000004" lon="6.2408">
    <ele>1169.89</ele>
   </trkpt>
   <trkpt lat="45.653510000000004" lon="6.2407">
    <ele>1175.94</ele>
   </trkpt>
   <trkpt lat="45.65377" lon="6.240760000000001">
    <ele>1180.28</ele>
   </trkpt>
   <trkpt lat="45.653870000000005" lon="6.24091">
    <ele>1185.24</ele>
   </trkpt>
   <trkpt lat="45.65401000000001" lon="6.240920000000001">
    <ele>1189.3700000000001</ele>
   </trkpt>
   <trkpt lat="45.65453" lon="6.241060000000001">
    <ele>1206.1000000000001</ele>
   </trkpt>
   <trkpt lat="45.65473" lon="6.241020000000001">
    <ele>1217.68</ele>
   </trkpt>
   <trkpt lat="45.655440000000006" lon="6.24047">
    <ele>1237.8500000000001</ele>
   </trkpt>
   <trkpt lat="45.65558" lon="6.240410000000001">
    <ele>1239.47</ele>
   </trkpt>
   <trkpt lat="45.65572" lon="6.2403900000000005">
    <ele>1241.46</ele>
   </trkpt>
   <trkpt lat="45.65587000000001" lon="6.240290000000001">
    <ele>1243.1100000000001</ele>
   </trkpt>
   <trkpt lat="45.65632500021357" lon="6.240374999343358">
    <ele>1251.23</ele>
   </trkpt>
   <trkpt lat="45.656780000000005" lon="6.240460000000001">
    <ele>1258.99</ele>
   </trkpt>
   <trkpt lat="45.657230000000006" lon="6.24066">
    <ele>1268.94</ele>
   </trkpt>
   <trkpt lat="45.657880000000006" lon="6.240620000000001">
    <ele>1284.55</ele>
   </trkpt>
   <trkpt lat="45.65807" lon="6.24059">
    <ele>1287.7500000000002</ele>
   </trkpt>
   <trkpt lat="45.65869000000001" lon="6.24059">
    <ele>1300.5600000000002</ele>
   </trkpt>
   <trkpt lat="45.65881" lon="6.24056">
    <ele>1302.99</ele>
   </trkpt>
   <trkpt lat="45.659110000000005" lon="6.240640000000001">
    <ele>1305.52</ele>
   </trkpt>
   <trkpt lat="45.659240000000004" lon="6.240710000000001">
    <ele>1305.79</ele>
   </trkpt>
   <trkpt lat="45.65935" lon="6.240850000000001">
    <ele>1306.91</ele>
   </trkpt>
   <trkpt lat="45.659510000000004" lon="6.240950000000001">
    <ele>1309.39</ele>
   </trkpt>
   <trkpt lat="45.659650000000006" lon="6.24113">
    <ele>1312.6000000000001</ele>
   </trkpt>
   <trkpt lat="45.65988" lon="6.24131">
    <ele>1314.8000000000002</ele>
   </trkpt>
   <trkpt lat="45.660340000000005" lon="6.24162">
    <ele>1317.56</ele>
   </trkpt>
   <trkpt lat="45.66066000000001" lon="6.241700000000001">
    <ele>1318.18</ele>
   </trkpt>
   <trkpt lat="45.660940000000004" lon="6.241840000000001">
    <ele>1317.63</ele>
   </trkpt>
   <trkpt lat="45.6613900000237" lon="6.242009998594968">
    <ele>1319.4800000000002</ele>
   </trkpt>
   <trkpt lat="45.661840000000005" lon="6.24218">
    <ele>1324.14</ele>
   </trkpt>
   <trkpt lat="45.66216000000001" lon="6.242360000000001">
    <ele>1326.6100000000001</ele>
   </trkpt>
   <trkpt lat="45.6625" lon="6.2424800000000005">
    <ele>1330.5900000000001</ele>
   </trkpt>
   <trkpt lat="45.66317" lon="6.24244">
    <ele>1343.11</ele>
   </trkpt>
   <trkpt lat="45.663450000000005" lon="6.242380000000001">
    <ele>1346.81</ele>
   </trkpt>
   <trkpt lat="45.66367" lon="6.24223">
    <ele>1348.4900000000002</ele>
   </trkpt>
   <trkpt lat="45.663990000000005" lon="6.242050000000001">
    <ele>1358.0800000000002</ele>
   </trkpt>
   <trkpt lat="45.66427" lon="6.24204">
    <ele>1364.06</ele>
   </trkpt>
   <trkpt lat="45.664410000000004" lon="6.24199">
    <ele>1367.0900000000001</ele>
   </trkpt>
   <trkpt lat="45.664770000000004" lon="6.2420100000000005">
    <ele>1371.94</ele>
   </trkpt>
   <trkpt lat="45.66499" lon="6.241930000000001">
    <ele>1376.38</ele>
   </trkpt>
   <trkpt lat="45.66557" lon="6.242030000000001">
    <ele>1387.24</ele>
   </trkpt>
   <trkpt lat="45.66583000000001" lon="6.242050000000001">
    <ele>1391.64</ele>
   </trkpt>
   <trkpt lat="45.665980000000005" lon="6.242100000000001">
    <ele>1393.8400000000001</ele>
   </trkpt>
   <trkpt lat="45.66630000000001" lon="6.242310000000001">
    <ele>1400.66</ele>
   </trkpt>
   <trkpt lat="45.666380000000004" lon="6.24232">
    <ele>1401.3600000000001</ele>
   </trkpt>
   <trkpt lat="45.66648000000001" lon="6.24225">
    <ele>1402.66</ele>
   </trkpt>
   <trkpt lat="45.66664" lon="6.242050000000001">
    <ele>1404.29</ele>
   </trkpt>
   <trkpt lat="45.66664" lon="6.242000000000001">
    <ele>1404.88</ele>
   </trkpt>
   <trkpt lat="45.66666" lon="6.241960000000001">
    <ele>1404.88</ele>
   </trkpt>
   <trkpt lat="45.66687" lon="6.24195">
    <ele>1410.44</ele>
   </trkpt>
   <trkpt lat="45.667370000000005" lon="6.241720000000001">
    <ele>1418.2100000000003</ele>
   </trkpt>
   <trkpt lat="45.66749" lon="6.241560000000001">
    <ele>1419.51</ele>
   </trkpt>
   <trkpt lat="45.6676" lon="6.2413300000000005">
    <ele>1420.43</ele>
   </trkpt>
   <trkpt lat="45.66781" lon="6.241160000000001">
    <ele>1421.8500000000001</ele>
   </trkpt>
   <trkpt lat="45.667910000000006" lon="6.240780000000001">
    <ele>1423.45</ele>
   </trkpt>
   <trkpt lat="45.66801" lon="6.24052">
    <ele>1425.4</ele>
   </trkpt>
   <trkpt lat="45.66807000000001" lon="6.240460000000001">
    <ele>1426.74</ele>
   </trkpt>
   <trkpt lat="45.668150000000004" lon="6.240480000000001">
    <ele>1428.3400000000001</ele>
   </trkpt>
   <trkpt lat="45.668490000000006" lon="6.24096">
    <ele>1437.54</ele>
   </trkpt>
   <trkpt lat="45.66854000000001" lon="6.24098">
    <ele>1438.23</ele>
   </trkpt>
   <trkpt lat="45.66859" lon="6.240970000000001">
    <ele>1439.3700000000001</ele>
   </trkpt>
   <trkpt lat="45.668940000000006" lon="6.2405800000000005">
    <ele>1442.71</ele>
   </trkpt>
   <trkpt lat="45.66904" lon="6.24049">
    <ele>1444.08</ele>
   </trkpt>
   <trkpt lat="45.66917" lon="6.24047">
    <ele>1445.17</ele>
   </trkpt>
   <trkpt lat="45.669270000000004" lon="6.240550000000001">
    <ele>1446.64</ele>
   </trkpt>
   <trkpt lat="45.66962" lon="6.241040000000001">
    <ele>1455.45</ele>
   </trkpt>
   <trkpt lat="45.669880000000006" lon="6.241160000000001">
    <ele>1459.03</ele>
   </trkpt>
   <trkpt lat="45.670100000000005" lon="6.241370000000001">
    <ele>1464.8500000000001</ele>
   </trkpt>
   <trkpt lat="45.67016" lon="6.24138">
    <ele>1466.42</ele>
   </trkpt>
   <trkpt lat="45.670190000000005" lon="6.241350000000001">
    <ele>1466.42</ele>
   </trkpt>
   <trkpt lat="45.6702" lon="6.24131">
    <ele>1466.42</ele>
   </trkpt>
   <trkpt lat="45.67005" lon="6.240920000000001">
    <ele>1471.3500000000001</ele>
   </trkpt>
   <trkpt lat="45.67007" lon="6.24087">
    <ele>1471.3500000000001</ele>
   </trkpt>
   <trkpt lat="45.670120000000004" lon="6.2408600000000005">
    <ele>1472.8400000000001</ele>
   </trkpt>
   <trkpt lat="45.67027" lon="6.2409300000000005">
    <ele>1476.0600000000002</ele>
   </trkpt>
   <trkpt lat="45.670410000000004" lon="6.24091">
    <ele>1479.24</ele>
   </trkpt>
   <trkpt lat="45.670500000000004" lon="6.240830000000001">
    <ele>1479.24</ele>
   </trkpt>
   <trkpt lat="45.67062000000001" lon="6.240530000000001">
    <ele>1484.8600000000001</ele>
   </trkpt>
   <trkpt lat="45.670730000000006" lon="6.24035">
    <ele>1486.23</ele>
   </trkpt>
   <trkpt lat="45.67080000000001" lon="6.24016">
    <ele>1487.3200000000002</ele>
   </trkpt>
   <trkpt lat="45.670820000000006" lon="6.24005">
    <ele>1488.25</ele>
   </trkpt>
   <trkpt lat="45.67078" lon="6.23972">
    <ele>1489.0700000000002</ele>
   </trkpt>
   <trkpt lat="45.67081" lon="6.23953">
    <ele>1489.99</ele>
   </trkpt>
   <trkpt lat="45.67105" lon="6.238930000000001">
    <ele>1492.1200000000001</ele>
   </trkpt>
   <trkpt lat="45.67114" lon="6.23885">
    <ele>1493.64</ele>
   </trkpt>
   <trkpt lat="45.671820000000004" lon="6.238670000000001">
    <ele>1497.6299999999999</ele>
   </trkpt>
   <trkpt lat="45.672090000000004" lon="6.2385600000000005">
    <ele>1499.33</ele>
   </trkpt>
   <trkpt lat="45.67222" lon="6.23854">
    <ele>1500.82</ele>
   </trkpt>
   <trkpt lat="45.672470000000004" lon="6.2385600000000005">
    <ele>1504.19</ele>
   </trkpt>
   <trkpt lat="45.67278" lon="6.2384900000000005">
    <ele>1507.18</ele>
   </trkpt>
   <trkpt lat="45.67305" lon="6.23845">
    <ele>1512.24</ele>
   </trkpt>
   <trkpt lat="45.67324000000001" lon="6.238460000000001">
    <ele>1513.44</ele>
   </trkpt>
   <trkpt lat="45.67336" lon="6.238510000000001">
    <ele>1513.71</ele>
   </trkpt>
   <trkpt lat="45.673500000000004" lon="6.238650000000001">
    <ele>1515.06</ele>
   </trkpt>
   <trkpt lat="45.673680000000004" lon="6.2387500000000005">
    <ele>1516.88</ele>
   </trkpt>
   <trkpt lat="45.67396" lon="6.23887">
    <ele>1518.99</ele>
   </trkpt>
   <trkpt lat="45.67421" lon="6.238930000000001">
    <ele>1521.8400000000001</ele>
   </trkpt>
   <trkpt lat="45.6745" lon="6.2389">
    <ele>1524.69</ele>
   </trkpt>
   <trkpt lat="45.674890000000005" lon="6.238930000000001">
    <ele>1529.5900000000001</ele>
   </trkpt>
   <trkpt lat="45.67499" lon="6.23901">
    <ele>1530.0200000000002</ele>
   </trkpt>
   <trkpt lat="45.675090000000004" lon="6.2392">
    <ele>1532.28</ele>
   </trkpt>
   <trkpt lat="45.675230000000006" lon="6.23932">
    <ele>1533.8500000000001</ele>
   </trkpt>
   <trkpt lat="45.67539000000001" lon="6.23937">
    <ele>1534.49</ele>
   </trkpt>
   <trkpt lat="45.6758" lon="6.239400000000001">
    <ele>1542.91</ele>
   </trkpt>
   <trkpt lat="45.67604" lon="6.23939">
    <ele>1545.77</ele>
   </trkpt>
   <trkpt lat="45.6762" lon="6.23944">
    <ele>1549.5500000000002</ele>
   </trkpt>
   <trkpt lat="45.67651" lon="6.239420000000001">
    <ele>1555.0600000000002</ele>
   </trkpt>
   <trkpt lat="45.67663" lon="6.23948">
    <ele>1557.8500000000001</ele>
   </trkpt>
   <trkpt lat="45.67680000000001" lon="6.239490000000001">
    <ele>1561.77</ele>
   </trkpt>
   <trkpt lat="45.67703" lon="6.239420000000001">
    <ele>1567.2800000000002</ele>
   </trkpt>
   <trkpt lat="45.67781" lon="6.2392900000000004">
    <ele>1578.3700000000001</ele>
   </trkpt>
   <trkpt lat="45.678000000000004" lon="6.239140000000001">
    <ele>1581.83</ele>
   </trkpt>
   <trkpt lat="45.67828" lon="6.238840000000001">
    <ele>1591.4800000000002</ele>
   </trkpt>
   <trkpt lat="45.678380000000004" lon="6.238790000000001">
    <ele>1593.1200000000001</ele>
   </trkpt>
   <trkpt lat="45.67866" lon="6.2388200000000005">
    <ele>1597.13</ele>
   </trkpt>
   <trkpt lat="45.67887" lon="6.238770000000001">
    <ele>1599.55</ele>
   </trkpt>
   <trkpt lat="45.67897000000001" lon="6.2388200000000005">
    <ele>1601.0700000000002</ele>
   </trkpt>
   <trkpt lat="45.679030000000004" lon="6.2388900000000005">
    <ele>1601.0700000000002</ele>
   </trkpt>
   <trkpt lat="45.679100000000005" lon="6.238740000000001">
    <ele>1602.4</ele>
   </trkpt>
   <trkpt lat="45.67951" lon="6.238700000000001">
    <ele>1608.89</ele>
   </trkpt>
   <trkpt lat="45.67954" lon="6.238650000000001">
    <ele>1611.23</ele>
   </trkpt>
   <trkpt lat="45.67958" lon="6.238620000000001">
    <ele>1611.23</ele>
   </trkpt>
   <trkpt lat="45.679590000000005" lon="6.238550000000001">
    <ele>1616.1900000000003</ele>
   </trkpt>
   <trkpt lat="45.67962000000001" lon="6.2385">
    <ele>1616.1900000000003</ele>
   </trkpt>
   <trkpt lat="45.67963" lon="6.238320000000001">
    <ele>1620.91</ele>
   </trkpt>
   <trkpt lat="45.6794" lon="6.2377">
    <ele>1633.55</ele>
   </trkpt>
   <trkpt lat="45.67942" lon="6.237660000000001">
    <ele>1639.5600000000002</ele>
   </trkpt>
   <trkpt lat="45.679410000000004" lon="6.237620000000001">
    <ele>1639.5600000000002</ele>
   </trkpt>
   <trkpt lat="45.679460000000006" lon="6.2375300000000005">
    <ele>1639.5600000000002</ele>
   </trkpt>
   <trkpt lat="45.679520000000004" lon="6.237480000000001">
    <ele>1645.79</ele>
   </trkpt>
   <trkpt lat="45.67953000000001" lon="6.23744">
    <ele>1645.79</ele>
   </trkpt>
   <trkpt lat="45.679550000000006" lon="6.237430000000001">
    <ele>1645.79</ele>
   </trkpt>
   <trkpt lat="45.67953000000001" lon="6.2373400000000006">
    <ele>1645.79</ele>
   </trkpt>
   <trkpt lat="45.67962000000001" lon="6.237150000000001">
    <ele>1656.3700000000001</ele>
   </trkpt>
   <trkpt lat="45.679610000000004" lon="6.237080000000001">
    <ele>1656.3700000000001</ele>
   </trkpt>
   <trkpt lat="45.679640000000006" lon="6.237050000000001">
    <ele>1668.5500000000002</ele>
   </trkpt>
   <trkpt lat="45.67963" lon="6.236940000000001">
    <ele>1668.5500000000002</ele>
   </trkpt>
   <trkpt lat="45.67965" lon="6.23693">
    <ele>1668.5500000000002</ele>
   </trkpt>
   <trkpt lat="45.67965" lon="6.236870000000001">
    <ele>1668.5500000000002</ele>
   </trkpt>
   <trkpt lat="45.679700000000004" lon="6.23681">
    <ele>1668.5500000000002</ele>
   </trkpt>
   <trkpt lat="45.679700000000004" lon="6.236750000000001">
    <ele>1668.5500000000002</ele>
   </trkpt>
   <trkpt lat="45.67967" lon="6.23671">
    <ele>1681.0300000000002</ele>
   </trkpt>
   <trkpt lat="45.679700000000004" lon="6.23667">
    <ele>1681.0300000000002</ele>
   </trkpt>
   <trkpt lat="45.679680000000005" lon="6.23662">
    <ele>1681.0300000000002</ele>
   </trkpt>
   <trkpt lat="45.679700000000004" lon="6.2365900000000005">
    <ele>1681.0300000000002</ele>
   </trkpt>
   <trkpt lat="45.679680000000005" lon="6.23655">
    <ele>1681.0300000000002</ele>
   </trkpt>
   <trkpt lat="45.67969" lon="6.236470000000001">
    <ele>1687.42</ele>
   </trkpt>
   <trkpt lat="45.67976" lon="6.2364500000000005">
    <ele>1687.42</ele>
   </trkpt>
   <trkpt lat="45.67982000000001" lon="6.23648">
    <ele>1690.91</ele>
   </trkpt>
   <trkpt lat="45.679990000000004" lon="6.23648">
    <ele>1697.5300000000002</ele>
   </trkpt>
   <trkpt lat="45.68019" lon="6.2363100000000005">
    <ele>1707.7300000000002</ele>
   </trkpt>
   <trkpt lat="45.68028" lon="6.236300000000001">
    <ele>1711.4900000000002</ele>
   </trkpt>
   <trkpt lat="45.68034" lon="6.236260000000001">
    <ele>1716.2800000000002</ele>
   </trkpt>
   <trkpt lat="45.68037" lon="6.236210000000001">
    <ele>1716.2800000000002</ele>
   </trkpt>
   <trkpt lat="45.680460000000004" lon="6.236160000000001">
    <ele>1719.98</ele>
   </trkpt>
   <trkpt lat="45.680440000000004" lon="6.2361200000000006">
    <ele>1719.98</ele>
   </trkpt>
   <trkpt lat="45.680460000000004" lon="6.236070000000001">
    <ele>1724.11</ele>
   </trkpt>
   <trkpt lat="45.680490000000006" lon="6.23606">
    <ele>1724.11</ele>
   </trkpt>
   <trkpt lat="45.680510000000005" lon="6.23601">
    <ele>1724.11</ele>
   </trkpt>
   <trkpt lat="45.680670000000006" lon="6.23578">
    <ele>1735.3500000000001</ele>
   </trkpt>
   <trkpt lat="45.68074000000001" lon="6.23514">
    <ele>1752.3200000000002</ele>
   </trkpt>
   <trkpt lat="45.68095" lon="6.234680000000001">
    <ele>1762.76</ele>
   </trkpt>
   <trkpt lat="45.68117" lon="6.2344800000000005">
    <ele>1772.5000000000002</ele>
   </trkpt>
   <trkpt lat="45.68139" lon="6.23413">
    <ele>1783.7800000000002</ele>
   </trkpt>
   <trkpt lat="45.681540000000005" lon="6.23406">
    <ele>1795.47</ele>
   </trkpt>
   <trkpt lat="45.681850000000004" lon="6.2343">
    <ele>1809.4800000000002</ele>
   </trkpt>
   <trkpt lat="45.68193" lon="6.234380000000001">
    <ele>1808.9</ele>
   </trkpt>
  </trkseg>
 </trk>
</gpx>
