<?xml version="1.0" encoding="UTF-8"?>
<gpx creator="StravaGPX" version="1.1" xmlns="http://www.topografix.com/GPX/1/1" xmlns:xsi="http://www.w3.org/2001/XMLSchema-instance" xsi:schemaLocation="http://www.topografix.com/GPX/1/1 http://www.topografix.com/GPX/1/1/gpx.xsd">
 <metadata>
  <name>14 2000 section 2</name>
  <author>
   <name>emilien Marion</name>
   <link href="https://www.strava.com/athletes/79224240"/>
  </author>
  <copyright author="OpenStreetMap contributors">
   <year>2020</year>
   <license>https://www.openstreetmap.org/copyright</license>
  </copyright>
  <link href="https://www.strava.com/routes/3413894112491793926"/>
 </metadata>
 <trk>
  <name>14 2000 section 2</name>
  <link href="https://www.strava.com/routes/3413894112491793926"/>
  <type>trail_running</type>
  <trkseg>
   <trkpt lat="45.70617" lon="6.302390000000001">
    <ele>898.0400000000001</ele>
   </trkpt>
   <trkpt lat="45.705740000000006" lon="6.30184">
    <ele>919.8900000000001</ele>
   </trkpt>
   <trkpt lat="45.705740000000006" lon="6.301690000000001">
    <ele>925.1600000000001</ele>
   </trkpt>
   <trkpt lat="45.70557" lon="6.301520000000001">
    <ele>937.34</ele>
   </trkpt>
   <trkpt lat="45.705490000000005" lon="6.30147">
    <ele>939.64</ele>
   </trkpt>
   <trkpt lat="45.70577" lon="6.301190000000001">
    <ele>954.58</ele>
   </trkpt>
   <trkpt lat="45.70581000000001" lon="6.30111">
    <ele>955.5500000000001</ele>
   </trkpt>
   <trkpt lat="45.70581000000001" lon="6.301">
    <ele>957.2400000000001</ele>
   </trkpt>
   <trkpt lat="45.70575" lon="6.30069">
    <ele>960.6800000000001</ele>
   </trkpt>
   <trkpt lat="45.70559" lon="6.300230000000001">
    <ele>961.4100000000001</ele>
   </trkpt>
   <trkpt lat="45.705450000000006" lon="6.30008">
    <ele>960.7200000000001</ele>
   </trkpt>
   <trkpt lat="45.705360000000006" lon="6.29992">
    <ele>960.1200000000001</ele>
   </trkpt>
   <trkpt lat="45.7053" lon="6.299860000000001">
    <ele>959.84</ele>
   </trkpt>
   <trkpt lat="45.705070000000006" lon="6.299270000000001">
    <ele>963.44</ele>
   </trkpt>
   <trkpt lat="45.70492" lon="6.299">
    <ele>965.5500000000001</ele>
   </trkpt>
   <trkpt lat="45.704730000000005" lon="6.29872">
    <ele>970.2400000000001</ele>
   </trkpt>
   <trkpt lat="45.70467000000001" lon="6.298500000000001">
    <ele>974.32</ele>
   </trkpt>
   <trkpt lat="45.704860000000004" lon="6.29856">
    <ele>968.8100000000001</ele>
   </trkpt>
   <trkpt lat="45.705110000000005" lon="6.2985500000000005">
    <ele>960.5600000000001</ele>
   </trkpt>
   <trkpt lat="45.70535" lon="6.29844">
    <ele>957.2600000000001</ele>
   </trkpt>
   <trkpt lat="45.7057" lon="6.2984100000000005">
    <ele>949.98</ele>
   </trkpt>
   <trkpt lat="45.706010000000006" lon="6.29846">
    <ele>940.09</ele>
   </trkpt>
   <trkpt lat="45.706230000000005" lon="6.2983400000000005">
    <ele>933.7</ele>
   </trkpt>
   <trkpt lat="45.706300000000006" lon="6.29828">
    <ele>932.63</ele>
   </trkpt>
   <trkpt lat="45.70635" lon="6.2982000000000005">
    <ele>929.2900000000001</ele>
   </trkpt>
   <trkpt lat="45.70638" lon="6.298190000000001">
    <ele>929.2900000000001</ele>
   </trkpt>
   <trkpt lat="45.70646000000001" lon="6.29821">
    <ele>928.2900000000001</ele>
   </trkpt>
   <trkpt lat="45.70649" lon="6.29825">
    <ele>927.4100000000001</ele>
   </trkpt>
   <trkpt lat="45.70651" lon="6.298330000000001">
    <ele>925.9000000000001</ele>
   </trkpt>
   <trkpt lat="45.706570000000006" lon="6.298070000000001">
    <ele>927.5600000000001</ele>
   </trkpt>
   <trkpt lat="45.70658" lon="6.297930000000001">
    <ele>928.9300000000001</ele>
   </trkpt>
   <trkpt lat="45.70655000000001" lon="6.29788">
    <ele>929.8100000000001</ele>
   </trkpt>
   <trkpt lat="45.70651" lon="6.2978700000000005">
    <ele>930.7900000000001</ele>
   </trkpt>
   <trkpt lat="45.70638" lon="6.29797">
    <ele>933.03</ele>
   </trkpt>
   <trkpt lat="45.70629" lon="6.2980100000000006">
    <ele>936.6500000000001</ele>
   </trkpt>
   <trkpt lat="45.70615" lon="6.298030000000001">
    <ele>942.44</ele>
   </trkpt>
   <trkpt lat="45.705580000000005" lon="6.29778">
    <ele>956.62</ele>
   </trkpt>
   <trkpt lat="45.70521" lon="6.29743">
    <ele>968.61</ele>
   </trkpt>
   <trkpt lat="45.7051" lon="6.29727">
    <ele>972.3800000000001</ele>
   </trkpt>
   <trkpt lat="45.70487000000001" lon="6.29703">
    <ele>982.5100000000001</ele>
   </trkpt>
   <trkpt lat="45.704330000000006" lon="6.29663">
    <ele>999.96</ele>
   </trkpt>
   <trkpt lat="45.70425" lon="6.29654">
    <ele>1003.5500000000002</ele>
   </trkpt>
   <trkpt lat="45.70423" lon="6.29609">
    <ele>1010.58</ele>
   </trkpt>
   <trkpt lat="45.70420000000001" lon="6.2958300000000005">
    <ele>1015.5100000000001</ele>
   </trkpt>
   <trkpt lat="45.70421" lon="6.295780000000001">
    <ele>1015.5100000000001</ele>
   </trkpt>
   <trkpt lat="45.70438" lon="6.295590000000001">
    <ele>1020.7300000000001</ele>
   </trkpt>
   <trkpt lat="45.704480000000004" lon="6.295210000000001">
    <ele>1026.84</ele>
   </trkpt>
   <trkpt lat="45.70454" lon="6.29511">
    <ele>1030.1100000000001</ele>
   </trkpt>
   <trkpt lat="45.70459" lon="6.294980000000001">
    <ele>1030.1100000000001</ele>
   </trkpt>
   <trkpt lat="45.704570000000004" lon="6.29464">
    <ele>1036.25</ele>
   </trkpt>
   <trkpt lat="45.704620000000006" lon="6.294460000000001">
    <ele>1038.45</ele>
   </trkpt>
   <trkpt lat="45.70474" lon="6.294320000000001">
    <ele>1045.0900000000001</ele>
   </trkpt>
   <trkpt lat="45.70479" lon="6.294200000000001">
    <ele>1046.22</ele>
   </trkpt>
   <trkpt lat="45.70487000000001" lon="6.294130000000001">
    <ele>1049.91</ele>
   </trkpt>
   <trkpt lat="45.705020000000005" lon="6.294110000000001">
    <ele>1053.22</ele>
   </trkpt>
   <trkpt lat="45.705130000000004" lon="6.293990000000001">
    <ele>1054.93</ele>
   </trkpt>
   <trkpt lat="45.705180000000006" lon="6.293880000000001">
    <ele>1058.87</ele>
   </trkpt>
   <trkpt lat="45.70523" lon="6.29354">
    <ele>1061.46</ele>
   </trkpt>
   <trkpt lat="45.705290000000005" lon="6.293430000000001">
    <ele>1063.48</ele>
   </trkpt>
   <trkpt lat="45.70546" lon="6.2934">
    <ele>1068.87</ele>
   </trkpt>
   <trkpt lat="45.70555" lon="6.293360000000001">
    <ele>1070.7600000000002</ele>
   </trkpt>
   <trkpt lat="45.705650000000006" lon="6.29321">
    <ele>1073.43</ele>
   </trkpt>
   <trkpt lat="45.70577" lon="6.29311">
    <ele>1076.3</ele>
   </trkpt>
   <trkpt lat="45.705960000000005" lon="6.293010000000001">
    <ele>1079.4099999999999</ele>
   </trkpt>
   <trkpt lat="45.70617" lon="6.29286">
    <ele>1084.8500000000001</ele>
   </trkpt>
   <trkpt lat="45.70619000000001" lon="6.29274">
    <ele>1089.5400000000002</ele>
   </trkpt>
   <trkpt lat="45.706050000000005" lon="6.29257">
    <ele>1091.6000000000001</ele>
   </trkpt>
   <trkpt lat="45.70595" lon="6.292520000000001">
    <ele>1095.3000000000002</ele>
   </trkpt>
   <trkpt lat="45.70557" lon="6.292510000000001">
    <ele>1104.17</ele>
   </trkpt>
   <trkpt lat="45.705490000000005" lon="6.29248">
    <ele>1106.43</ele>
   </trkpt>
   <trkpt lat="45.705400000000004" lon="6.29241">
    <ele>1106.43</ele>
   </trkpt>
   <trkpt lat="45.7053" lon="6.29227">
    <ele>1111.7100000000003</ele>
   </trkpt>
   <trkpt lat="45.705220000000004" lon="6.292210000000001">
    <ele>1116.06</ele>
   </trkpt>
   <trkpt lat="45.70503" lon="6.292190000000001">
    <ele>1120.3100000000002</ele>
   </trkpt>
   <trkpt lat="45.704860000000004" lon="6.29225">
    <ele>1123.3600000000001</ele>
   </trkpt>
   <trkpt lat="45.70472" lon="6.29227">
    <ele>1125.28</ele>
   </trkpt>
   <trkpt lat="45.70463" lon="6.29222">
    <ele>1127.04</ele>
   </trkpt>
   <trkpt lat="45.704330000000006" lon="6.291980000000001">
    <ele>1132.95</ele>
   </trkpt>
   <trkpt lat="45.704280000000004" lon="6.291980000000001">
    <ele>1134.5200000000002</ele>
   </trkpt>
   <trkpt lat="45.70411000000001" lon="6.29206">
    <ele>1138.21</ele>
   </trkpt>
   <trkpt lat="45.704060000000005" lon="6.29206">
    <ele>1139.0800000000002</ele>
   </trkpt>
   <trkpt lat="45.703970000000005" lon="6.292020000000001">
    <ele>1139.89</ele>
   </trkpt>
   <trkpt lat="45.70383" lon="6.2920300000000005">
    <ele>1143.65</ele>
   </trkpt>
   <trkpt lat="45.70374" lon="6.292050000000001">
    <ele>1143.65</ele>
   </trkpt>
   <trkpt lat="45.70355000000001" lon="6.29206">
    <ele>1147.3600000000001</ele>
   </trkpt>
   <trkpt lat="45.70347" lon="6.29211">
    <ele>1149.1</ele>
   </trkpt>
   <trkpt lat="45.70342" lon="6.29211">
    <ele>1149.1</ele>
   </trkpt>
   <trkpt lat="45.70329" lon="6.292050000000001">
    <ele>1152.76</ele>
   </trkpt>
   <trkpt lat="45.703190000000006" lon="6.29204">
    <ele>1155.25</ele>
   </trkpt>
   <trkpt lat="45.70311" lon="6.29208">
    <ele>1157.0500000000002</ele>
   </trkpt>
   <trkpt lat="45.70304" lon="6.2921700000000005">
    <ele>1159.9400000000003</ele>
   </trkpt>
   <trkpt lat="45.70295" lon="6.2922">
    <ele>1160.8500000000001</ele>
   </trkpt>
   <trkpt lat="45.70277" lon="6.292190000000001">
    <ele>1164.32</ele>
   </trkpt>
   <trkpt lat="45.70272000000001" lon="6.29222">
    <ele>1165.25</ele>
   </trkpt>
   <trkpt lat="45.70261000000001" lon="6.292230000000001">
    <ele>1168.28</ele>
   </trkpt>
   <trkpt lat="45.70233" lon="6.291980000000001">
    <ele>1173.15</ele>
   </trkpt>
   <trkpt lat="45.70225000000001" lon="6.291930000000001">
    <ele>1174.5400000000002</ele>
   </trkpt>
   <trkpt lat="45.702160000000006" lon="6.291910000000001">
    <ele>1176.6000000000001</ele>
   </trkpt>
   <trkpt lat="45.702020000000005" lon="6.291930000000001">
    <ele>1180.02</ele>
   </trkpt>
   <trkpt lat="45.70181" lon="6.29204">
    <ele>1184.0900000000001</ele>
   </trkpt>
   <trkpt lat="45.70172" lon="6.292070000000001">
    <ele>1185.0800000000002</ele>
   </trkpt>
   <trkpt lat="45.70143" lon="6.2921000000000005">
    <ele>1189.68</ele>
   </trkpt>
   <trkpt lat="45.701190000000004" lon="6.2921000000000005">
    <ele>1197.47</ele>
   </trkpt>
   <trkpt lat="45.70107" lon="6.29199">
    <ele>1201.0800000000002</ele>
   </trkpt>
   <trkpt lat="45.70102000000001" lon="6.291970000000001">
    <ele>1201.0800000000002</ele>
   </trkpt>
   <trkpt lat="45.70093000000001" lon="6.291970000000001">
    <ele>1204.9</ele>
   </trkpt>
   <trkpt lat="45.70085" lon="6.292020000000001">
    <ele>1204.9</ele>
   </trkpt>
   <trkpt lat="45.70071" lon="6.292050000000001">
    <ele>1204.9</ele>
   </trkpt>
   <trkpt lat="45.700570000000006" lon="6.29204">
    <ele>1211.38</ele>
   </trkpt>
   <trkpt lat="45.70024" lon="6.291910000000001">
    <ele>1219.06</ele>
   </trkpt>
   <trkpt lat="45.700100000000006" lon="6.291910000000001">
    <ele>1221.68</ele>
   </trkpt>
   <trkpt lat="45.699920000000006" lon="6.29187">
    <ele>1224.5700000000002</ele>
   </trkpt>
   <trkpt lat="45.699540000000006" lon="6.29161">
    <ele>1236.3500000000001</ele>
   </trkpt>
   <trkpt lat="45.69942" lon="6.2915">
    <ele>1238.42</ele>
   </trkpt>
   <trkpt lat="45.69933" lon="6.29147">
    <ele>1239.53</ele>
   </trkpt>
   <trkpt lat="45.69923000000001" lon="6.291480000000001">
    <ele>1244.13</ele>
   </trkpt>
   <trkpt lat="45.69906" lon="6.291410000000001">
    <ele>1246.3300000000002</ele>
   </trkpt>
   <trkpt lat="45.69858000000001" lon="6.2910900000000005">
    <ele>1258.16</ele>
   </trkpt>
   <trkpt lat="45.69832" lon="6.29107">
    <ele>1265.2800000000002</ele>
   </trkpt>
   <trkpt lat="45.69827" lon="6.2910900000000005">
    <ele>1268.48</ele>
   </trkpt>
   <trkpt lat="45.698190000000004" lon="6.29117">
    <ele>1273.7800000000002</ele>
   </trkpt>
   <trkpt lat="45.698040000000006" lon="6.291300000000001">
    <ele>1276.96</ele>
   </trkpt>
   <trkpt lat="45.697950000000006" lon="6.291360000000001">
    <ele>1280.3300000000002</ele>
   </trkpt>
   <trkpt lat="45.69787" lon="6.291390000000001">
    <ele>1280.3300000000002</ele>
   </trkpt>
   <trkpt lat="45.69776" lon="6.291360000000001">
    <ele>1283.64</ele>
   </trkpt>
   <trkpt lat="45.69758" lon="6.291390000000001">
    <ele>1290.2</ele>
   </trkpt>
   <trkpt lat="45.69753" lon="6.291360000000001">
    <ele>1290.2</ele>
   </trkpt>
   <trkpt lat="45.69749" lon="6.291270000000001">
    <ele>1292.57</ele>
   </trkpt>
   <trkpt lat="45.69744" lon="6.29126">
    <ele>1292.57</ele>
   </trkpt>
   <trkpt lat="45.69727" lon="6.29133">
    <ele>1300.42</ele>
   </trkpt>
   <trkpt lat="45.697030000000005" lon="6.291340000000001">
    <ele>1307.5</ele>
   </trkpt>
   <trkpt lat="45.696810000000006" lon="6.2914200000000005">
    <ele>1312.69</ele>
   </trkpt>
   <trkpt lat="45.69671" lon="6.29143">
    <ele>1315.96</ele>
   </trkpt>
   <trkpt lat="45.69662" lon="6.291410000000001">
    <ele>1317.1000000000001</ele>
   </trkpt>
   <trkpt lat="45.69653" lon="6.29135">
    <ele>1322.2200000000003</ele>
   </trkpt>
   <trkpt lat="45.69651" lon="6.291290000000001">
    <ele>1322.2200000000003</ele>
   </trkpt>
   <trkpt lat="45.69651" lon="6.291150000000001">
    <ele>1324.3100000000002</ele>
   </trkpt>
   <trkpt lat="45.69657" lon="6.29082">
    <ele>1327.08</ele>
   </trkpt>
   <trkpt lat="45.69671" lon="6.29063">
    <ele>1330.43</ele>
   </trkpt>
   <trkpt lat="45.69677" lon="6.2903">
    <ele>1335.2700000000002</ele>
   </trkpt>
   <trkpt lat="45.696830000000006" lon="6.290100000000001">
    <ele>1338.98</ele>
   </trkpt>
   <trkpt lat="45.696920000000006" lon="6.28995">
    <ele>1338.98</ele>
   </trkpt>
   <trkpt lat="45.69704" lon="6.289650000000001">
    <ele>1345.39</ele>
   </trkpt>
   <trkpt lat="45.69717000000001" lon="6.28945">
    <ele>1349.29</ele>
   </trkpt>
   <trkpt lat="45.697230000000005" lon="6.289250000000001">
    <ele>1352.9</ele>
   </trkpt>
   <trkpt lat="45.697280000000006" lon="6.288740000000001">
    <ele>1365.0300000000002</ele>
   </trkpt>
   <trkpt lat="45.69736" lon="6.288530000000001">
    <ele>1369.34</ele>
   </trkpt>
   <trkpt lat="45.697430000000004" lon="6.2884">
    <ele>1370.5800000000002</ele>
   </trkpt>
   <trkpt lat="45.69745" lon="6.28819">
    <ele>1377.75</ele>
   </trkpt>
   <trkpt lat="45.69753" lon="6.28805">
    <ele>1380.4900000000002</ele>
   </trkpt>
   <trkpt lat="45.697770000000006" lon="6.28798">
    <ele>1389.5400000000002</ele>
   </trkpt>
   <trkpt lat="45.69792" lon="6.28781">
    <ele>1392.29</ele>
   </trkpt>
   <trkpt lat="45.698040000000006" lon="6.287420000000001">
    <ele>1405.0500000000002</ele>
   </trkpt>
   <trkpt lat="45.698010000000004" lon="6.28727">
    <ele>1409.82</ele>
   </trkpt>
   <trkpt lat="45.697770000000006" lon="6.2873">
    <ele>1418.19</ele>
   </trkpt>
   <trkpt lat="45.69762" lon="6.287260000000001">
    <ele>1421.43</ele>
   </trkpt>
   <trkpt lat="45.69747" lon="6.2871500000000005">
    <ele>1427.81</ele>
   </trkpt>
   <trkpt lat="45.6972" lon="6.28683">
    <ele>1439.68</ele>
   </trkpt>
   <trkpt lat="45.697140000000005" lon="6.28666">
    <ele>1450.11</ele>
   </trkpt>
   <trkpt lat="45.69711" lon="6.28645">
    <ele>1451.7600000000002</ele>
   </trkpt>
   <trkpt lat="45.69717000000001" lon="6.286340000000001">
    <ele>1454.92</ele>
   </trkpt>
   <trkpt lat="45.69726000000001" lon="6.2859300000000005">
    <ele>1464.9200000000003</ele>
   </trkpt>
   <trkpt lat="45.697390000000006" lon="6.285730000000001">
    <ele>1467.9700000000003</ele>
   </trkpt>
   <trkpt lat="45.69738" lon="6.28561">
    <ele>1479.1200000000001</ele>
   </trkpt>
   <trkpt lat="45.697230000000005" lon="6.28554">
    <ele>1479.1200000000001</ele>
   </trkpt>
   <trkpt lat="45.697160000000004" lon="6.28549">
    <ele>1483.66</ele>
   </trkpt>
   <trkpt lat="45.69717000000001" lon="6.2853">
    <ele>1487.7</ele>
   </trkpt>
   <trkpt lat="45.697320000000005" lon="6.284980000000001">
    <ele>1495.3500000000001</ele>
   </trkpt>
   <trkpt lat="45.69724" lon="6.284910000000001">
    <ele>1498.25</ele>
   </trkpt>
   <trkpt lat="45.697230000000005" lon="6.284650000000001">
    <ele>1503.13</ele>
   </trkpt>
   <trkpt lat="45.697140000000005" lon="6.2847100000000005">
    <ele>1506.64</ele>
   </trkpt>
   <trkpt lat="45.697140000000005" lon="6.284260000000001">
    <ele>1521.44</ele>
   </trkpt>
   <trkpt lat="45.697050000000004" lon="6.2842">
    <ele>1528.3500000000001</ele>
   </trkpt>
   <trkpt lat="45.696870000000004" lon="6.28427">
    <ele>1535.56</ele>
   </trkpt>
   <trkpt lat="45.69659" lon="6.284210000000001">
    <ele>1539.0</ele>
   </trkpt>
   <trkpt lat="45.69657" lon="6.28406">
    <ele>1548.8000000000002</ele>
   </trkpt>
   <trkpt lat="45.69661000000001" lon="6.283950000000001">
    <ele>1548.8000000000002</ele>
   </trkpt>
   <trkpt lat="45.69661000000001" lon="6.28382">
    <ele>1551.97</ele>
   </trkpt>
   <trkpt lat="45.696650000000005" lon="6.283650000000001">
    <ele>1554.95</ele>
   </trkpt>
   <trkpt lat="45.69648" lon="6.2834200000000004">
    <ele>1565.35</ele>
   </trkpt>
   <trkpt lat="45.696490000000004" lon="6.283010000000001">
    <ele>1578.24</ele>
   </trkpt>
   <trkpt lat="45.69643000000001" lon="6.28284">
    <ele>1581.64</ele>
   </trkpt>
   <trkpt lat="45.69651" lon="6.282330000000001">
    <ele>1594.4</ele>
   </trkpt>
   <trkpt lat="45.69662" lon="6.282260000000001">
    <ele>1594.4</ele>
   </trkpt>
   <trkpt lat="45.69659" lon="6.282030000000001">
    <ele>1608.3100000000002</ele>
   </trkpt>
   <trkpt lat="45.696600000000004" lon="6.28192">
    <ele>1608.3100000000002</ele>
   </trkpt>
   <trkpt lat="45.69657" lon="6.281680000000001">
    <ele>1611.91</ele>
   </trkpt>
   <trkpt lat="45.69666" lon="6.28138">
    <ele>1628.53</ele>
   </trkpt>
   <trkpt lat="45.69661000000001" lon="6.28115">
    <ele>1634.06</ele>
   </trkpt>
   <trkpt lat="45.69661000000001" lon="6.281040000000001">
    <ele>1634.06</ele>
   </trkpt>
   <trkpt lat="45.69653" lon="6.28091">
    <ele>1641.5600000000002</ele>
   </trkpt>
   <trkpt lat="45.69637" lon="6.280880000000001">
    <ele>1641.5600000000002</ele>
   </trkpt>
   <trkpt lat="45.696070000000006" lon="6.280970000000001">
    <ele>1660.3100000000002</ele>
   </trkpt>
   <trkpt lat="45.695870000000006" lon="6.28124">
    <ele>1669.38</ele>
   </trkpt>
   <trkpt lat="45.695800000000006" lon="6.28138">
    <ele>1673.2600000000002</ele>
   </trkpt>
   <trkpt lat="45.695690000000006" lon="6.281440000000001">
    <ele>1673.69</ele>
   </trkpt>
   <trkpt lat="45.69576000000001" lon="6.28122">
    <ele>1674.29</ele>
   </trkpt>
   <trkpt lat="45.696000000000005" lon="6.2808">
    <ele>1676.32</ele>
   </trkpt>
   <trkpt lat="45.696270000000005" lon="6.280410000000001">
    <ele>1680.7800000000002</ele>
   </trkpt>
   <trkpt lat="45.69639" lon="6.28016">
    <ele>1685.17</ele>
   </trkpt>
   <trkpt lat="45.696470000000005" lon="6.28009">
    <ele>1687.0800000000002</ele>
   </trkpt>
   <trkpt lat="45.69664" lon="6.28005">
    <ele>1688.5</ele>
   </trkpt>
   <trkpt lat="45.69688000000001" lon="6.27993">
    <ele>1693.27</ele>
   </trkpt>
   <trkpt lat="45.697030000000005" lon="6.279800000000001">
    <ele>1697.99</ele>
   </trkpt>
   <trkpt lat="45.697070000000004" lon="6.279730000000001">
    <ele>1697.99</ele>
   </trkpt>
   <trkpt lat="45.69704" lon="6.279660000000001">
    <ele>1700.47</ele>
   </trkpt>
   <trkpt lat="45.69691" lon="6.2796400000000006">
    <ele>1704.08</ele>
   </trkpt>
   <trkpt lat="45.696810000000006" lon="6.27958">
    <ele>1704.96</ele>
   </trkpt>
   <trkpt lat="45.69664" lon="6.27941">
    <ele>1709.0</ele>
   </trkpt>
   <trkpt lat="45.69657" lon="6.279310000000001">
    <ele>1710.47</ele>
   </trkpt>
   <trkpt lat="45.6965" lon="6.278980000000001">
    <ele>1713.4600000000003</ele>
   </trkpt>
   <trkpt lat="45.696540000000006" lon="6.278840000000001">
    <ele>1714.23</ele>
   </trkpt>
   <trkpt lat="45.69664" lon="6.27876">
    <ele>1714.22</ele>
   </trkpt>
   <trkpt lat="45.69686" lon="6.278650000000001">
    <ele>1713.6100000000001</ele>
   </trkpt>
   <trkpt lat="45.69691" lon="6.278580000000001">
    <ele>1713.48</ele>
   </trkpt>
   <trkpt lat="45.69697" lon="6.278110000000001">
    <ele>1715.7600000000002</ele>
   </trkpt>
   <trkpt lat="45.69691" lon="6.277920000000001">
    <ele>1717.6000000000001</ele>
   </trkpt>
   <trkpt lat="45.696920000000006" lon="6.27763">
    <ele>1718.74</ele>
   </trkpt>
   <trkpt lat="45.69689" lon="6.2774">
    <ele>1720.8600000000001</ele>
   </trkpt>
   <trkpt lat="45.69677" lon="6.277120000000001">
    <ele>1722.53</ele>
   </trkpt>
   <trkpt lat="45.696740000000005" lon="6.276940000000001">
    <ele>1724.3100000000002</ele>
   </trkpt>
   <trkpt lat="45.696740000000005" lon="6.27669">
    <ele>1726.8200000000002</ele>
   </trkpt>
   <trkpt lat="45.696670000000005" lon="6.27641">
    <ele>1731.8700000000001</ele>
   </trkpt>
   <trkpt lat="45.696720000000006" lon="6.2759100000000005">
    <ele>1738.25</ele>
   </trkpt>
   <trkpt lat="45.69675" lon="6.275830000000001">
    <ele>1739.0700000000002</ele>
   </trkpt>
   <trkpt lat="45.69682" lon="6.275830000000001">
    <ele>1740.9</ele>
   </trkpt>
   <trkpt lat="45.697030000000005" lon="6.27611">
    <ele>1747.67</ele>
   </trkpt>
   <trkpt lat="45.697100000000006" lon="6.27615">
    <ele>1748.3400000000001</ele>
   </trkpt>
   <trkpt lat="45.697140000000005" lon="6.2761000000000005">
    <ele>1748.93</ele>
   </trkpt>
   <trkpt lat="45.69713" lon="6.275900000000001">
    <ele>1751.21</ele>
   </trkpt>
   <trkpt lat="45.69717000000001" lon="6.27571">
    <ele>1753.67</ele>
   </trkpt>
   <trkpt lat="45.697160000000004" lon="6.275620000000001">
    <ele>1755.5800000000002</ele>
   </trkpt>
   <trkpt lat="45.69693" lon="6.275040000000001">
    <ele>1760.7700000000002</ele>
   </trkpt>
   <trkpt lat="45.696830000000006" lon="6.27467">
    <ele>1762.92</ele>
   </trkpt>
   <trkpt lat="45.696760000000005" lon="6.274540000000001">
    <ele>1764.3200000000002</ele>
   </trkpt>
   <trkpt lat="45.696780000000004" lon="6.274220000000001">
    <ele>1768.16</ele>
   </trkpt>
   <trkpt lat="45.69677" lon="6.273980000000001">
    <ele>1770.9</ele>
   </trkpt>
   <trkpt lat="45.696780000000004" lon="6.273860000000001">
    <ele>1772.45</ele>
   </trkpt>
   <trkpt lat="45.69684" lon="6.273750000000001">
    <ele>1773.3500000000001</ele>
   </trkpt>
   <trkpt lat="45.696920000000006" lon="6.27367">
    <ele>1776.22</ele>
   </trkpt>
   <trkpt lat="45.69693" lon="6.273600000000001">
    <ele>1778.01</ele>
   </trkpt>
   <trkpt lat="45.69690000000001" lon="6.273530000000001">
    <ele>1778.01</ele>
   </trkpt>
   <trkpt lat="45.69668" lon="6.2735">
    <ele>1781.8700000000001</ele>
   </trkpt>
   <trkpt lat="45.696630000000006" lon="6.2734700000000005">
    <ele>1783.38</ele>
   </trkpt>
   <trkpt lat="45.69662" lon="6.27341">
    <ele>1783.38</ele>
   </trkpt>
   <trkpt lat="45.69675" lon="6.273090000000001">
    <ele>1787.14</ele>
   </trkpt>
   <trkpt lat="45.696760000000005" lon="6.27249">
    <ele>1800.13</ele>
   </trkpt>
   <trkpt lat="45.69684" lon="6.2723700000000004">
    <ele>1801.91</ele>
   </trkpt>
   <trkpt lat="45.69717000000001" lon="6.27212">
    <ele>1807.92</ele>
   </trkpt>
   <trkpt lat="45.697280000000006" lon="6.272080000000001">
    <ele>1810.5300000000002</ele>
   </trkpt>
   <trkpt lat="45.69731" lon="6.27202">
    <ele>1811.3700000000001</ele>
   </trkpt>
   <trkpt lat="45.69731" lon="6.271960000000001">
    <ele>1812.3300000000002</ele>
   </trkpt>
   <trkpt lat="45.69726000000001" lon="6.271770000000001">
    <ele>1816.7400000000002</ele>
   </trkpt>
   <trkpt lat="45.697280000000006" lon="6.271680000000001">
    <ele>1816.7400000000002</ele>
   </trkpt>
   <trkpt lat="45.69744" lon="6.27158">
    <ele>1823.38</ele>
   </trkpt>
   <trkpt lat="45.697480000000006" lon="6.27158">
    <ele>1823.38</ele>
   </trkpt>
   <trkpt lat="45.69737000000001" lon="6.27137">
    <ele>1824.6000000000001</ele>
   </trkpt>
   <trkpt lat="45.697070000000004" lon="6.270980000000001">
    <ele>1834.3400000000001</ele>
   </trkpt>
   <trkpt lat="45.696940000000005" lon="6.27071">
    <ele>1840.5700000000002</ele>
   </trkpt>
   <trkpt lat="45.696760000000005" lon="6.270630000000001">
    <ele>1843.6100000000001</ele>
   </trkpt>
   <trkpt lat="45.696580000000004" lon="6.2705">
    <ele>1850.0400000000002</ele>
   </trkpt>
   <trkpt lat="45.69639" lon="6.27029">
    <ele>1858.47</ele>
   </trkpt>
   <trkpt lat="45.69614000000001" lon="6.269850000000001">
    <ele>1871.4</ele>
   </trkpt>
   <trkpt lat="45.696070000000006" lon="6.269620000000001">
    <ele>1874.27</ele>
   </trkpt>
   <trkpt lat="45.69597" lon="6.26942">
    <ele>1877.39</ele>
   </trkpt>
   <trkpt lat="45.695570000000004" lon="6.269310000000001">
    <ele>1881.22</ele>
   </trkpt>
   <trkpt lat="45.695420000000006" lon="6.26921">
    <ele>1884.6100000000001</ele>
   </trkpt>
   <trkpt lat="45.695190000000004" lon="6.2689900000000005">
    <ele>1889.9</ele>
   </trkpt>
   <trkpt lat="45.69511000000001" lon="6.268940000000001">
    <ele>1901.31</ele>
   </trkpt>
   <trkpt lat="45.694770000000005" lon="6.268840000000001">
    <ele>1907.67</ele>
   </trkpt>
   <trkpt lat="45.694700000000005" lon="6.268800000000001">
    <ele>1912.17</ele>
   </trkpt>
   <trkpt lat="45.69446000000001" lon="6.268470000000001">
    <ele>1921.19</ele>
   </trkpt>
   <trkpt lat="45.69447" lon="6.26832">
    <ele>1924.8100000000002</ele>
   </trkpt>
   <trkpt lat="45.69456" lon="6.268190000000001">
    <ele>1927.5000000000002</ele>
   </trkpt>
   <trkpt lat="45.69446000000001" lon="6.267930000000001">
    <ele>1934.95</ele>
   </trkpt>
   <trkpt lat="45.69453" lon="6.267830000000001">
    <ele>1937.4700000000003</ele>
   </trkpt>
   <trkpt lat="45.694500000000005" lon="6.26745">
    <ele>1943.0</ele>
   </trkpt>
   <trkpt lat="45.69454" lon="6.2674">
    <ele>1946.1200000000001</ele>
   </trkpt>
   <trkpt lat="45.694610000000004" lon="6.267430000000001">
    <ele>1947.2000000000003</ele>
   </trkpt>
   <trkpt lat="45.69467" lon="6.2674">
    <ele>1948.3700000000001</ele>
   </trkpt>
   <trkpt lat="45.69483" lon="6.2673700000000006">
    <ele>1955.19</ele>
   </trkpt>
   <trkpt lat="45.694880000000005" lon="6.26733">
    <ele>1955.19</ele>
   </trkpt>
   <trkpt lat="45.69498" lon="6.26731">
    <ele>1959.0900000000001</ele>
   </trkpt>
   <trkpt lat="45.695130000000006" lon="6.267150000000001">
    <ele>1965.3000000000002</ele>
   </trkpt>
   <trkpt lat="45.695280000000004" lon="6.267080000000001">
    <ele>1967.39</ele>
   </trkpt>
   <trkpt lat="45.695440000000005" lon="6.266900000000001">
    <ele>1970.8600000000001</ele>
   </trkpt>
   <trkpt lat="45.69536" lon="6.266830000000001">
    <ele>1973.44</ele>
   </trkpt>
   <trkpt lat="45.69539" lon="6.266730000000001">
    <ele>1975.0600000000002</ele>
   </trkpt>
   <trkpt lat="45.695310000000006" lon="6.266680000000001">
    <ele>1978.44</ele>
   </trkpt>
   <trkpt lat="45.695190000000004" lon="6.266710000000001">
    <ele>1981.4900000000002</ele>
   </trkpt>
   <trkpt lat="45.695130000000006" lon="6.2666900000000005">
    <ele>1985.64</ele>
   </trkpt>
   <trkpt lat="45.69509" lon="6.26656">
    <ele>1988.76</ele>
   </trkpt>
   <trkpt lat="45.695150000000005" lon="6.26644">
    <ele>1992.1000000000001</ele>
   </trkpt>
   <trkpt lat="45.695220000000006" lon="6.266360000000001">
    <ele>1995.21</ele>
   </trkpt>
   <trkpt lat="45.695330000000006" lon="6.266290000000001">
    <ele>2000.4500000000003</ele>
   </trkpt>
   <trkpt lat="45.695350000000005" lon="6.26623">
    <ele>2000.4500000000003</ele>
   </trkpt>
   <trkpt lat="45.69545" lon="6.266100000000001">
    <ele>2003.3000000000002</ele>
   </trkpt>
   <trkpt lat="45.695460000000004" lon="6.26606">
    <ele>2003.3000000000002</ele>
   </trkpt>
   <trkpt lat="45.695330000000006" lon="6.26599">
    <ele>2011.0</ele>
   </trkpt>
   <trkpt lat="45.69494" lon="6.26585">
    <ele>2022.31</ele>
   </trkpt>
   <trkpt lat="45.69482000000001" lon="6.26571">
    <ele>2028.69</ele>
   </trkpt>
   <trkpt lat="45.694610000000004" lon="6.26529">
    <ele>2043.24</ele>
   </trkpt>
   <trkpt lat="45.69454" lon="6.265230000000001">
    <ele>2045.43</ele>
   </trkpt>
   <trkpt lat="45.694280000000006" lon="6.26515">
    <ele>2050.88</ele>
   </trkpt>
   <trkpt lat="45.693940000000005" lon="6.26498">
    <ele>2064.14</ele>
   </trkpt>
   <trkpt lat="45.693690000000004" lon="6.264990000000001">
    <ele>2067.27</ele>
   </trkpt>
   <trkpt lat="45.693450000000006" lon="6.2650500000000005">
    <ele>2069.8800000000006</ele>
   </trkpt>
   <trkpt lat="45.69335" lon="6.2651200000000005">
    <ele>2072.68</ele>
   </trkpt>
   <trkpt lat="45.69323000000001" lon="6.265160000000001">
    <ele>2075.18</ele>
   </trkpt>
   <trkpt lat="45.69315" lon="6.26527">
    <ele>2079.4700000000003</ele>
   </trkpt>
   <trkpt lat="45.69315" lon="6.2653300000000005">
    <ele>2079.4700000000003</ele>
   </trkpt>
   <trkpt lat="45.693110000000004" lon="6.26538">
    <ele>2082.25</ele>
   </trkpt>
   <trkpt lat="45.69286" lon="6.265390000000001">
    <ele>2089.77</ele>
   </trkpt>
   <trkpt lat="45.69288" lon="6.26559">
    <ele>2093.92</ele>
   </trkpt>
   <trkpt lat="45.692910000000005" lon="6.26562">
    <ele>2095.24</ele>
   </trkpt>
   <trkpt lat="45.69285000000001" lon="6.265630000000001">
    <ele>2095.24</ele>
   </trkpt>
   <trkpt lat="45.692750000000004" lon="6.26559">
    <ele>2098.98</ele>
   </trkpt>
   <trkpt lat="45.69283" lon="6.26581">
    <ele>2102.92</ele>
   </trkpt>
   <trkpt lat="45.69281" lon="6.26599">
    <ele>2108.75</ele>
   </trkpt>
   <trkpt lat="45.692600000000006" lon="6.2659">
    <ele>2115.65</ele>
   </trkpt>
   <trkpt lat="45.692190000000004" lon="6.26557">
    <ele>2134.85</ele>
   </trkpt>
   <trkpt lat="45.69205" lon="6.26522">
    <ele>2122.3900000000003</ele>
   </trkpt>
   <trkpt lat="45.69205" lon="6.265510000000001">
    <ele>2103.04</ele>
   </trkpt>
   <trkpt lat="45.69196" lon="6.265460000000001">
    <ele>2103.12</ele>
   </trkpt>
   <trkpt lat="45.691860000000005" lon="6.265040000000001">
    <ele>2102.51</ele>
   </trkpt>
   <trkpt lat="45.69182000000001" lon="6.265110000000001">
    <ele>2102.43</ele>
   </trkpt>
   <trkpt lat="45.69178" lon="6.265420000000001">
    <ele>2096.4900000000002</ele>
   </trkpt>
   <trkpt lat="45.691750000000006" lon="6.265460000000001">
    <ele>2096.4900000000002</ele>
   </trkpt>
   <trkpt lat="45.691700000000004" lon="6.265320000000001">
    <ele>2096.51</ele>
   </trkpt>
   <trkpt lat="45.691660000000006" lon="6.26529">
    <ele>2096.51</ele>
   </trkpt>
   <trkpt lat="45.69165" lon="6.26543">
    <ele>2096.57</ele>
   </trkpt>
   <trkpt lat="45.69162" lon="6.26529">
    <ele>2101.77</ele>
   </trkpt>
   <trkpt lat="45.69154" lon="6.265160000000001">
    <ele>2105.6400000000003</ele>
   </trkpt>
   <trkpt lat="45.691500000000005" lon="6.265020000000001">
    <ele>2109.07</ele>
   </trkpt>
   <trkpt lat="45.691520000000004" lon="6.26487">
    <ele>2109.98</ele>
   </trkpt>
   <trkpt lat="45.691460000000006" lon="6.264780000000001">
    <ele>2110.11</ele>
   </trkpt>
   <trkpt lat="45.69147" lon="6.2647900000000005">
    <ele>2110.11</ele>
   </trkpt>
   <trkpt lat="45.691430000000004" lon="6.2647200000000005">
    <ele>2110.04</ele>
   </trkpt>
   <trkpt lat="45.6914" lon="6.26452">
    <ele>2108.6800000000003</ele>
   </trkpt>
   <trkpt lat="45.691320000000005" lon="6.26435">
    <ele>2106.13</ele>
   </trkpt>
   <trkpt lat="45.691140000000004" lon="6.2641100000000005">
    <ele>2097.82</ele>
   </trkpt>
   <trkpt lat="45.69113" lon="6.264170000000001">
    <ele>2092.2200000000003</ele>
   </trkpt>
   <trkpt lat="45.691210000000005" lon="6.264390000000001">
    <ele>2085.57</ele>
   </trkpt>
   <trkpt lat="45.69118" lon="6.26463">
    <ele>2083.3</ele>
   </trkpt>
   <trkpt lat="45.691" lon="6.265000000000001">
    <ele>2077.4</ele>
   </trkpt>
   <trkpt lat="45.69106" lon="6.26517">
    <ele>2075.04</ele>
   </trkpt>
   <trkpt lat="45.690990000000006" lon="6.2655400000000006">
    <ele>2071.81</ele>
   </trkpt>
   <trkpt lat="45.69091" lon="6.265510000000001">
    <ele>2067.59</ele>
   </trkpt>
   <trkpt lat="45.69088000000001" lon="6.265610000000001">
    <ele>2067.59</ele>
   </trkpt>
   <trkpt lat="45.69084" lon="6.265610000000001">
    <ele>2067.1600000000003</ele>
   </trkpt>
   <trkpt lat="45.69075" lon="6.264340000000001">
    <ele>2069.03</ele>
   </trkpt>
   <trkpt lat="45.690690000000004" lon="6.264240000000001">
    <ele>2068.4</ele>
   </trkpt>
   <trkpt lat="45.69039" lon="6.263890000000001">
    <ele>2066.1200000000003</ele>
   </trkpt>
   <trkpt lat="45.689870000000006" lon="6.263020000000001">
    <ele>2063.66</ele>
   </trkpt>
   <trkpt lat="45.68972" lon="6.262630000000001">
    <ele>2069.83</ele>
   </trkpt>
   <trkpt lat="45.68938000000001" lon="6.262200000000001">
    <ele>2077.1</ele>
   </trkpt>
   <trkpt lat="45.689170000000004" lon="6.2620000000000005">
    <ele>2083.06</ele>
   </trkpt>
   <trkpt lat="45.68858" lon="6.261150000000001">
    <ele>2098.36</ele>
   </trkpt>
   <trkpt lat="45.68817000000001" lon="6.260750000000001">
    <ele>2089.8100000000004</ele>
   </trkpt>
   <trkpt lat="45.68806000000001" lon="6.260680000000001">
    <ele>2084.9900000000002</ele>
   </trkpt>
   <trkpt lat="45.68782" lon="6.260650000000001">
    <ele>2075.33</ele>
   </trkpt>
   <trkpt lat="45.68770000000001" lon="6.260580000000001">
    <ele>2071.84</ele>
   </trkpt>
   <trkpt lat="45.68759000000001" lon="6.26046">
    <ele>2071.13</ele>
   </trkpt>
   <trkpt lat="45.68739" lon="6.260300000000001">
    <ele>2074.6900000000005</ele>
   </trkpt>
   <trkpt lat="45.68714000000001" lon="6.2602400000000005">
    <ele>2079.4700000000003</ele>
   </trkpt>
   <trkpt lat="45.686780000000006" lon="6.26029">
    <ele>2087.27</ele>
   </trkpt>
   <trkpt lat="45.68629000000001" lon="6.260230000000001">
    <ele>2092.82</ele>
   </trkpt>
   <trkpt lat="45.685990000000004" lon="6.26015">
    <ele>2100.09</ele>
   </trkpt>
   <trkpt lat="45.685840000000006" lon="6.26003">
    <ele>2105.77</ele>
   </trkpt>
   <trkpt lat="45.68572" lon="6.25989">
    <ele>2109.3100000000004</ele>
   </trkpt>
   <trkpt lat="45.68533" lon="6.25933">
    <ele>2117.38</ele>
   </trkpt>
   <trkpt lat="45.685050000000004" lon="6.259110000000001">
    <ele>2123.5699999999997</ele>
   </trkpt>
   <trkpt lat="45.68479000000001" lon="6.258970000000001">
    <ele>2124.8900000000003</ele>
   </trkpt>
   <trkpt lat="45.68448" lon="6.25877">
    <ele>2131.44</ele>
   </trkpt>
   <trkpt lat="45.683870000000006" lon="6.25827">
    <ele>2151.7400000000002</ele>
   </trkpt>
   <trkpt lat="45.68397" lon="6.2578000000000005">
    <ele>2140.7400000000002</ele>
   </trkpt>
   <trkpt lat="45.683580000000006" lon="6.257910000000001">
    <ele>2130.36</ele>
   </trkpt>
   <trkpt lat="45.683800000000005" lon="6.257440000000001">
    <ele>2121.13</ele>
   </trkpt>
   <trkpt lat="45.68318000000001" lon="6.257670000000001">
    <ele>2099.99</ele>
   </trkpt>
   <trkpt lat="45.68323" lon="6.2575400000000005">
    <ele>2098.37</ele>
   </trkpt>
   <trkpt lat="45.683620000000005" lon="6.25673">
    <ele>2079.0</ele>
   </trkpt>
   <trkpt lat="45.68375" lon="6.25656">
    <ele>2074.4900000000002</ele>
   </trkpt>
   <trkpt lat="45.683710000000005" lon="6.25652">
    <ele>2072.82</ele>
   </trkpt>
   <trkpt lat="45.68379" lon="6.2564400000000004">
    <ele>2064.19</ele>
   </trkpt>
   <trkpt lat="45.68377" lon="6.25637">
    <ele>2064.19</ele>
   </trkpt>
   <trkpt lat="45.68379" lon="6.256360000000001">
    <ele>2064.19</ele>
   </trkpt>
   <trkpt lat="45.683730000000004" lon="6.25605">
    <ele>2057.3900000000003</ele>
   </trkpt>
   <trkpt lat="45.68354" lon="6.2561100000000005">
    <ele>2048.5200000000004</ele>
   </trkpt>
   <trkpt lat="45.68366" lon="6.2557100000000005">
    <ele>2040.2300000000002</ele>
   </trkpt>
   <trkpt lat="45.68339" lon="6.255890000000001">
    <ele>2031.1799999999998</ele>
   </trkpt>
   <trkpt lat="45.6835" lon="6.255450000000001">
    <ele>2019.6</ele>
   </trkpt>
   <trkpt lat="45.68359" lon="6.255280000000001">
    <ele>2010.9600000000003</ele>
   </trkpt>
   <trkpt lat="45.683600000000006" lon="6.255050000000001">
    <ele>2007.7100000000003</ele>
   </trkpt>
   <trkpt lat="45.68357" lon="6.254670000000001">
    <ele>2001.1900000000003</ele>
   </trkpt>
   <trkpt lat="45.683440000000004" lon="6.25429">
    <ele>1992.9800000000002</ele>
   </trkpt>
   <trkpt lat="45.68338000000001" lon="6.25393">
    <ele>1987.15</ele>
   </trkpt>
   <trkpt lat="45.68339" lon="6.253620000000001">
    <ele>1982.8500000000001</ele>
   </trkpt>
   <trkpt lat="45.68336" lon="6.25356">
    <ele>1979.95</ele>
   </trkpt>
   <trkpt lat="45.683370000000004" lon="6.252960000000001">
    <ele>1965.6000000000001</ele>
   </trkpt>
   <trkpt lat="45.6833" lon="6.25241">
    <ele>1961.1600000000003</ele>
   </trkpt>
   <trkpt lat="45.68327" lon="6.2516300000000005">
    <ele>1952.88</ele>
   </trkpt>
   <trkpt lat="45.683330000000005" lon="6.251080000000001">
    <ele>1946.3600000000001</ele>
   </trkpt>
   <trkpt lat="45.6833" lon="6.2504800000000005">
    <ele>1941.1100000000001</ele>
   </trkpt>
   <trkpt lat="45.68338000000001" lon="6.25011">
    <ele>1936.6200000000001</ele>
   </trkpt>
   <trkpt lat="45.68347000000001" lon="6.24988">
    <ele>1932.4900000000002</ele>
   </trkpt>
   <trkpt lat="45.68348" lon="6.249790000000001">
    <ele>1932.4900000000002</ele>
   </trkpt>
   <trkpt lat="45.68352" lon="6.2497300000000005">
    <ele>1930.3400000000001</ele>
   </trkpt>
   <trkpt lat="45.68357" lon="6.249510000000001">
    <ele>1928.9900000000002</ele>
   </trkpt>
   <trkpt lat="45.683620000000005" lon="6.24943">
    <ele>1927.9700000000003</ele>
   </trkpt>
   <trkpt lat="45.683620000000005" lon="6.24936">
    <ele>1927.69</ele>
   </trkpt>
   <trkpt lat="45.683670000000006" lon="6.24929">
    <ele>1927.66</ele>
   </trkpt>
   <trkpt lat="45.683710000000005" lon="6.249160000000001">
    <ele>1928.16</ele>
   </trkpt>
   <trkpt lat="45.68403000000001" lon="6.24854">
    <ele>1931.63</ele>
   </trkpt>
   <trkpt lat="45.684090000000005" lon="6.2485100000000005">
    <ele>1931.63</ele>
   </trkpt>
   <trkpt lat="45.684200000000004" lon="6.2484">
    <ele>1931.14</ele>
   </trkpt>
   <trkpt lat="45.68441000000001" lon="6.24835">
    <ele>1925.0000000000002</ele>
   </trkpt>
   <trkpt lat="45.684450000000005" lon="6.24837">
    <ele>1925.0000000000002</ele>
   </trkpt>
   <trkpt lat="45.684490000000004" lon="6.24835">
    <ele>1922.1200000000001</ele>
   </trkpt>
   <trkpt lat="45.68450000000001" lon="6.2483">
    <ele>1922.1200000000001</ele>
   </trkpt>
   <trkpt lat="45.68453" lon="6.24828">
    <ele>1922.1200000000001</ele>
   </trkpt>
   <trkpt lat="45.684560000000005" lon="6.2481800000000005">
    <ele>1917.51</ele>
   </trkpt>
   <trkpt lat="45.68466" lon="6.24819">
    <ele>1914.6100000000001</ele>
   </trkpt>
   <trkpt lat="45.684760000000004" lon="6.248080000000001">
    <ele>1911.99</ele>
   </trkpt>
   <trkpt lat="45.684850000000004" lon="6.24802">
    <ele>1908.94</ele>
   </trkpt>
   <trkpt lat="45.68489" lon="6.24791">
    <ele>1908.21</ele>
   </trkpt>
   <trkpt lat="45.68507" lon="6.247660000000001">
    <ele>1903.63</ele>
   </trkpt>
   <trkpt lat="45.68504" lon="6.24762">
    <ele>1902.45</ele>
   </trkpt>
   <trkpt lat="45.68509" lon="6.24751">
    <ele>1898.6900000000003</ele>
   </trkpt>
   <trkpt lat="45.68478" lon="6.247490000000001">
    <ele>1889.49</ele>
   </trkpt>
   <trkpt lat="45.685050000000004" lon="6.247070000000001">
    <ele>1883.3200000000002</ele>
   </trkpt>
   <trkpt lat="45.684810000000006" lon="6.24708">
    <ele>1875.5000000000002</ele>
   </trkpt>
   <trkpt lat="45.68488000000001" lon="6.246930000000001">
    <ele>1873.1000000000001</ele>
   </trkpt>
   <trkpt lat="45.685080000000006" lon="6.246670000000001">
    <ele>1868.18</ele>
   </trkpt>
   <trkpt lat="45.68517000000001" lon="6.246510000000001">
    <ele>1864.0800000000002</ele>
   </trkpt>
   <trkpt lat="45.684900000000006" lon="6.246550000000001">
    <ele>1858.23</ele>
   </trkpt>
   <trkpt lat="45.685140000000004" lon="6.24631">
    <ele>1852.5000000000002</ele>
   </trkpt>
   <trkpt lat="45.68497000000001" lon="6.246320000000001">
    <ele>1850.71</ele>
   </trkpt>
   <trkpt lat="45.684540000000005" lon="6.24643">
    <ele>1838.89</ele>
   </trkpt>
   <trkpt lat="45.68417" lon="6.2462800000000005">
    <ele>1828.68</ele>
   </trkpt>
   <trkpt lat="45.68383" lon="6.24605">
    <ele>1822.16</ele>
   </trkpt>
   <trkpt lat="45.683530000000005" lon="6.24598">
    <ele>1818.48</ele>
   </trkpt>
   <trkpt lat="45.683350000000004" lon="6.24591">
    <ele>1814.96</ele>
   </trkpt>
   <trkpt lat="45.682990000000004" lon="6.245940000000001">
    <ele>1807.4</ele>
   </trkpt>
   <trkpt lat="45.68312" lon="6.24568">
    <ele>1803.8400000000001</ele>
   </trkpt>
   <trkpt lat="45.683530000000005" lon="6.245360000000001">
    <ele>1791.91</ele>
   </trkpt>
   <trkpt lat="45.683690000000006" lon="6.24528">
    <ele>1790.88</ele>
   </trkpt>
   <trkpt lat="45.68386" lon="6.245100000000001">
    <ele>1781.21</ele>
   </trkpt>
   <trkpt lat="45.68417" lon="6.24486">
    <ele>1775.4</ele>
   </trkpt>
   <trkpt lat="45.68432000000001" lon="6.244610000000001">
    <ele>1771.91</ele>
   </trkpt>
   <trkpt lat="45.684470000000005" lon="6.24441">
    <ele>1765.57</ele>
   </trkpt>
   <trkpt lat="45.68489" lon="6.24413">
    <ele>1756.5400000000002</ele>
   </trkpt>
   <trkpt lat="45.68478" lon="6.244020000000001">
    <ele>1750.69</ele>
   </trkpt>
   <trkpt lat="45.684870000000004" lon="6.2439800000000005">
    <ele>1749.42</ele>
   </trkpt>
   <trkpt lat="45.685" lon="6.243880000000001">
    <ele>1745.42</ele>
   </trkpt>
   <trkpt lat="45.685080000000006" lon="6.24378">
    <ele>1743.0</ele>
   </trkpt>
   <trkpt lat="45.685140000000004" lon="6.243600000000001">
    <ele>1739.96</ele>
   </trkpt>
   <trkpt lat="45.68533" lon="6.24314">
    <ele>1733.15</ele>
   </trkpt>
   <trkpt lat="45.68542" lon="6.242890000000001">
    <ele>1730.96</ele>
   </trkpt>
   <trkpt lat="45.68544000000001" lon="6.24272">
    <ele>1730.4</ele>
   </trkpt>
   <trkpt lat="45.685410000000005" lon="6.24251">
    <ele>1730.9200000000003</ele>
   </trkpt>
   <trkpt lat="45.685320000000004" lon="6.242210000000001">
    <ele>1732.3700000000001</ele>
   </trkpt>
   <trkpt lat="45.68531" lon="6.241960000000001">
    <ele>1733.6200000000001</ele>
   </trkpt>
   <trkpt lat="45.685190000000006" lon="6.24164">
    <ele>1735.7300000000002</ele>
   </trkpt>
   <trkpt lat="45.685140000000004" lon="6.2411">
    <ele>1739.45</ele>
   </trkpt>
   <trkpt lat="45.685050000000004" lon="6.240550000000001">
    <ele>1741.18</ele>
   </trkpt>
   <trkpt lat="45.68506000000001" lon="6.240220000000001">
    <ele>1741.3100000000002</ele>
   </trkpt>
   <trkpt lat="45.685140000000004" lon="6.23988">
    <ele>1741.21</ele>
   </trkpt>
   <trkpt lat="45.68526000000001" lon="6.2396400000000005">
    <ele>1742.6100000000001</ele>
   </trkpt>
   <trkpt lat="45.68518" lon="6.239240000000001">
    <ele>1745.67</ele>
   </trkpt>
   <trkpt lat="45.68522" lon="6.238790000000001">
    <ele>1749.65</ele>
   </trkpt>
   <trkpt lat="45.685120000000005" lon="6.23852">
    <ele>1750.8000000000002</ele>
   </trkpt>
   <trkpt lat="45.684990000000006" lon="6.238320000000001">
    <ele>1753.2500000000002</ele>
   </trkpt>
   <trkpt lat="45.684920000000005" lon="6.23812">
    <ele>1756.5000000000002</ele>
   </trkpt>
   <trkpt lat="45.684830000000005" lon="6.237940000000001">
    <ele>1760.0300000000002</ele>
   </trkpt>
   <trkpt lat="45.684760000000004" lon="6.237870000000001">
    <ele>1760.0300000000002</ele>
   </trkpt>
   <trkpt lat="45.684740000000005" lon="6.237780000000001">
    <ele>1761.69</ele>
   </trkpt>
   <trkpt lat="45.684450000000005" lon="6.237450000000001">
    <ele>1768.3300000000002</ele>
   </trkpt>
   <trkpt lat="45.68435" lon="6.23728">
    <ele>1769.7600000000002</ele>
   </trkpt>
   <trkpt lat="45.684160000000006" lon="6.23723">
    <ele>1773.24</ele>
   </trkpt>
   <trkpt lat="45.68399" lon="6.237150000000001">
    <ele>1774.79</ele>
   </trkpt>
   <trkpt lat="45.683870000000006" lon="6.237010000000001">
    <ele>1776.2300000000002</ele>
   </trkpt>
   <trkpt lat="45.6837" lon="6.236650000000001">
    <ele>1777.8100000000002</ele>
   </trkpt>
   <trkpt lat="45.68354" lon="6.23648">
    <ele>1778.96</ele>
   </trkpt>
   <trkpt lat="45.683420000000005" lon="6.23643">
    <ele>1779.8700000000001</ele>
   </trkpt>
   <trkpt lat="45.683350000000004" lon="6.236330000000001">
    <ele>1780.9500000000003</ele>
   </trkpt>
   <trkpt lat="45.683130000000006" lon="6.2362">
    <ele>1782.79</ele>
   </trkpt>
   <trkpt lat="45.682900000000004" lon="6.23613">
    <ele>1785.16</ele>
   </trkpt>
   <trkpt lat="45.682770000000005" lon="6.236020000000001">
    <ele>1787.5900000000001</ele>
   </trkpt>
   <trkpt lat="45.68272" lon="6.235900000000001">
    <ele>1789.43</ele>
   </trkpt>
   <trkpt lat="45.682750000000006" lon="6.235830000000001">
    <ele>1789.89</ele>
   </trkpt>
   <trkpt lat="45.68272" lon="6.235720000000001">
    <ele>1790.3000000000002</ele>
   </trkpt>
   <trkpt lat="45.682660000000006" lon="6.2357000000000005">
    <ele>1791.0800000000002</ele>
   </trkpt>
   <trkpt lat="45.68262000000001" lon="6.235620000000001">
    <ele>1791.94</ele>
   </trkpt>
   <trkpt lat="45.6826" lon="6.235500000000001">
    <ele>1793.02</ele>
   </trkpt>
   <trkpt lat="45.68262000000001" lon="6.2353700000000005">
    <ele>1794.5300000000002</ele>
   </trkpt>
   <trkpt lat="45.682570000000005" lon="6.2352300000000005">
    <ele>1796.2600000000002</ele>
   </trkpt>
   <trkpt lat="45.682460000000006" lon="6.235040000000001">
    <ele>1799.0900000000001</ele>
   </trkpt>
   <trkpt lat="45.68244000000001" lon="6.23493">
    <ele>1799.63</ele>
   </trkpt>
   <trkpt lat="45.682370000000006" lon="6.234850000000001">
    <ele>1801.0900000000001</ele>
   </trkpt>
   <trkpt lat="45.682300000000005" lon="6.2346900000000005">
    <ele>1803.1200000000001</ele>
   </trkpt>
   <trkpt lat="45.682190000000006" lon="6.234590000000001">
    <ele>1804.7100000000003</ele>
   </trkpt>
   <trkpt lat="45.68206000000001" lon="6.234430000000001">
    <ele>1807.66</ele>
   </trkpt>
   <trkpt lat="45.682030000000005" lon="6.234450000000001">
    <ele>1808.13</ele>
   </trkpt>
   <trkpt lat="45.682" lon="6.23444">
    <ele>1808.55</ele>
   </trkpt>
   <trkpt lat="45.681850000000004" lon="6.2343">
    <ele>1809.4800000000002</ele>
   </trkpt>
  </trkseg>
 </trk>
</gpx>
