<?xml version="1.0" encoding="UTF-8"?>
<gpx creator="StravaGPX" version="1.1" xmlns="http://www.topografix.com/GPX/1/1" xmlns:xsi="http://www.w3.org/2001/XMLSchema-instance" xsi:schemaLocation="http://www.topografix.com/GPX/1/1 http://www.topografix.com/GPX/1/1/gpx.xsd">
 <metadata>
  <name>14  2000m section 5</name>
  <author>
   <name>emilien Marion</name>
   <link href="https://www.strava.com/athletes/79224240"/>
  </author>
  <copyright author="OpenStreetMap contributors">
   <year>2020</year>
   <license>https://www.openstreetmap.org/copyright</license>
  </copyright>
  <link href="https://www.strava.com/routes/3492913142245606204"/>
 </metadata>
 <trk>
  <name>14  2000m section 5</name>
  <link href="https://www.strava.com/routes/3492913142245606204"/>
  <type>running</type>
  <trkseg>
   <trkpt lat="45.61737" lon="6.144970000000001">
    <ele>778.63</ele>
   </trkpt>
   <trkpt lat="45.61739" lon="6.144850000000001">
    <ele>778.61</ele>
   </trkpt>
   <trkpt lat="45.617630000000005" lon="6.144050000000001">
    <ele>777.8000000000001</ele>
   </trkpt>
   <trkpt lat="45.61769" lon="6.143960000000001">
    <ele>778.02</ele>
   </trkpt>
   <trkpt lat="45.617940000000004" lon="6.143840000000001">
    <ele>779.2800000000001</ele>
   </trkpt>
   <trkpt lat="45.618050000000004" lon="6.143730000000001">
    <ele>780.36</ele>
   </trkpt>
   <trkpt lat="45.618140000000004" lon="6.14355">
    <ele>782.49</ele>
   </trkpt>
   <trkpt lat="45.6182" lon="6.14336">
    <ele>783.84</ele>
   </trkpt>
   <trkpt lat="45.61855000177217" lon="6.142720004021642">
    <ele>801.03</ele>
   </trkpt>
   <trkpt lat="45.618900000000004" lon="6.142080000000001">
    <ele>812.47</ele>
   </trkpt>
   <trkpt lat="45.61903" lon="6.1419500000000005">
    <ele>815.47</ele>
   </trkpt>
   <trkpt lat="45.619110000000006" lon="6.14193">
    <ele>820.2900000000001</ele>
   </trkpt>
   <trkpt lat="45.619260000000004" lon="6.141830000000001">
    <ele>828.1800000000001</ele>
   </trkpt>
   <trkpt lat="45.619730000000004" lon="6.14193">
    <ele>844.57</ele>
   </trkpt>
   <trkpt lat="45.61979" lon="6.14191">
    <ele>844.57</ele>
   </trkpt>
   <trkpt lat="45.61995" lon="6.1416900000000005">
    <ele>852.6100000000001</ele>
   </trkpt>
   <trkpt lat="45.62003000000001" lon="6.14165">
    <ele>863.1700000000001</ele>
   </trkpt>
   <trkpt lat="45.62015" lon="6.1416900000000005">
    <ele>867.0500000000001</ele>
   </trkpt>
   <trkpt lat="45.62026" lon="6.141800000000001">
    <ele>871.04</ele>
   </trkpt>
   <trkpt lat="45.62035" lon="6.14181">
    <ele>871.04</ele>
   </trkpt>
   <trkpt lat="45.62041000000001" lon="6.141780000000001">
    <ele>871.04</ele>
   </trkpt>
   <trkpt lat="45.62044" lon="6.1416900000000005">
    <ele>882.2500000000001</ele>
   </trkpt>
   <trkpt lat="45.62042" lon="6.141450000000001">
    <ele>882.2500000000001</ele>
   </trkpt>
   <trkpt lat="45.62031" lon="6.1406600000000005">
    <ele>898.6500000000001</ele>
   </trkpt>
   <trkpt lat="45.620360000000005" lon="6.14059">
    <ele>903.02</ele>
   </trkpt>
   <trkpt lat="45.620450000000005" lon="6.140560000000001">
    <ele>904.5500000000001</ele>
   </trkpt>
   <trkpt lat="45.62078" lon="6.140720000000001">
    <ele>917.61</ele>
   </trkpt>
   <trkpt lat="45.620850000000004" lon="6.14069">
    <ele>921.0</ele>
   </trkpt>
   <trkpt lat="45.62095" lon="6.140530000000001">
    <ele>928.0400000000001</ele>
   </trkpt>
   <trkpt lat="45.62106000000001" lon="6.1404700000000005">
    <ele>931.49</ele>
   </trkpt>
   <trkpt lat="45.62142" lon="6.1404700000000005">
    <ele>944.0500000000001</ele>
   </trkpt>
   <trkpt lat="45.621590000000005" lon="6.14052">
    <ele>950.74</ele>
   </trkpt>
   <trkpt lat="45.62174" lon="6.140630000000001">
    <ele>954.82</ele>
   </trkpt>
   <trkpt lat="45.621840000000006" lon="6.1406600000000005">
    <ele>957.8000000000001</ele>
   </trkpt>
   <trkpt lat="45.62187" lon="6.1404700000000005">
    <ele>960.97</ele>
   </trkpt>
   <trkpt lat="45.621900000000004" lon="6.1400500000000005">
    <ele>975.9700000000001</ele>
   </trkpt>
   <trkpt lat="45.621840000000006" lon="6.13961">
    <ele>983.4200000000001</ele>
   </trkpt>
   <trkpt lat="45.621750000000006" lon="6.13937">
    <ele>988.5600000000001</ele>
   </trkpt>
   <trkpt lat="45.621570000000006" lon="6.13914">
    <ele>995.89</ele>
   </trkpt>
   <trkpt lat="45.621210000000005" lon="6.138490000000001">
    <ele>1012.1</ele>
   </trkpt>
   <trkpt lat="45.62111" lon="6.138170000000001">
    <ele>1026.44</ele>
   </trkpt>
   <trkpt lat="45.621080000000006" lon="6.13797">
    <ele>1026.44</ele>
   </trkpt>
   <trkpt lat="45.621010000000005" lon="6.1376800000000005">
    <ele>1035.29</ele>
   </trkpt>
   <trkpt lat="45.620920000000005" lon="6.13757">
    <ele>1036.57</ele>
   </trkpt>
   <trkpt lat="45.620810000000006" lon="6.13733">
    <ele>1042.57</ele>
   </trkpt>
   <trkpt lat="45.620630000000006" lon="6.137040000000001">
    <ele>1053.69</ele>
   </trkpt>
   <trkpt lat="45.62050000000001" lon="6.136730000000001">
    <ele>1056.27</ele>
   </trkpt>
   <trkpt lat="45.620340000000006" lon="6.13642">
    <ele>1064.6200000000001</ele>
   </trkpt>
   <trkpt lat="45.62008" lon="6.13604">
    <ele>1082.74</ele>
   </trkpt>
   <trkpt lat="45.619980000000005" lon="6.13576">
    <ele>1087.1000000000001</ele>
   </trkpt>
   <trkpt lat="45.619870000000006" lon="6.135610000000001">
    <ele>1090.8300000000002</ele>
   </trkpt>
   <trkpt lat="45.61954" lon="6.13532">
    <ele>1100.47</ele>
   </trkpt>
   <trkpt lat="45.6193" lon="6.135160000000001">
    <ele>1107.19</ele>
   </trkpt>
   <trkpt lat="45.61928" lon="6.13513">
    <ele>1107.19</ele>
   </trkpt>
   <trkpt lat="45.619310000000006" lon="6.135090000000001">
    <ele>1107.19</ele>
   </trkpt>
   <trkpt lat="45.619400000000006" lon="6.13508">
    <ele>1108.96</ele>
   </trkpt>
   <trkpt lat="45.61957" lon="6.1349800000000005">
    <ele>1111.39</ele>
   </trkpt>
   <trkpt lat="45.61974" lon="6.135000000000001">
    <ele>1115.07</ele>
   </trkpt>
   <trkpt lat="45.61979" lon="6.1349800000000005">
    <ele>1115.07</ele>
   </trkpt>
   <trkpt lat="45.61981" lon="6.13492">
    <ele>1115.07</ele>
   </trkpt>
   <trkpt lat="45.61979" lon="6.134860000000001">
    <ele>1120.14</ele>
   </trkpt>
   <trkpt lat="45.619530000000005" lon="6.134720000000001">
    <ele>1122.95</ele>
   </trkpt>
   <trkpt lat="45.61936" lon="6.134550000000001">
    <ele>1129.5000000000002</ele>
   </trkpt>
   <trkpt lat="45.619110000000006" lon="6.1341">
    <ele>1149.9</ele>
   </trkpt>
   <trkpt lat="45.61901" lon="6.13386">
    <ele>1149.9</ele>
   </trkpt>
   <trkpt lat="45.61876" lon="6.133050000000001">
    <ele>1170.53</ele>
   </trkpt>
   <trkpt lat="45.61862000000001" lon="6.132770000000001">
    <ele>1177.2600000000002</ele>
   </trkpt>
   <trkpt lat="45.61862000000001" lon="6.13274">
    <ele>1177.2600000000002</ele>
   </trkpt>
   <trkpt lat="45.61862000000001" lon="6.132720000000001">
    <ele>1183.8500000000001</ele>
   </trkpt>
   <trkpt lat="45.61871000000001" lon="6.132720000000001">
    <ele>1185.6100000000001</ele>
   </trkpt>
   <trkpt lat="45.619020000000006" lon="6.13292">
    <ele>1192.02</ele>
   </trkpt>
   <trkpt lat="45.61936" lon="6.13311">
    <ele>1198.66</ele>
   </trkpt>
   <trkpt lat="45.61939" lon="6.13311">
    <ele>1200.67</ele>
   </trkpt>
   <trkpt lat="45.61939" lon="6.13306">
    <ele>1200.67</ele>
   </trkpt>
   <trkpt lat="45.619350000000004" lon="6.1330100000000005">
    <ele>1200.67</ele>
   </trkpt>
   <trkpt lat="45.61905" lon="6.13245">
    <ele>1212.8000000000002</ele>
   </trkpt>
   <trkpt lat="45.619020000000006" lon="6.13238">
    <ele>1212.8000000000002</ele>
   </trkpt>
   <trkpt lat="45.61903" lon="6.1323300000000005">
    <ele>1212.8000000000002</ele>
   </trkpt>
   <trkpt lat="45.619060000000005" lon="6.132320000000001">
    <ele>1218.2</ele>
   </trkpt>
   <trkpt lat="45.61918000000001" lon="6.132420000000001">
    <ele>1220.44</ele>
   </trkpt>
   <trkpt lat="45.61939" lon="6.132490000000001">
    <ele>1222.91</ele>
   </trkpt>
   <trkpt lat="45.61968" lon="6.13255">
    <ele>1234.07</ele>
   </trkpt>
   <trkpt lat="45.61994000000001" lon="6.132490000000001">
    <ele>1240.63</ele>
   </trkpt>
   <trkpt lat="45.6201" lon="6.13238">
    <ele>1242.63</ele>
   </trkpt>
   <trkpt lat="45.620250000000006" lon="6.1323300000000005">
    <ele>1248.55</ele>
   </trkpt>
   <trkpt lat="45.62079000000001" lon="6.13241">
    <ele>1259.32</ele>
   </trkpt>
   <trkpt lat="45.620960000000004" lon="6.1324000000000005">
    <ele>1263.5500000000002</ele>
   </trkpt>
   <trkpt lat="45.621050000000004" lon="6.132350000000001">
    <ele>1265.83</ele>
   </trkpt>
   <trkpt lat="45.62122" lon="6.13229">
    <ele>1269.12</ele>
   </trkpt>
   <trkpt lat="45.621210000000005" lon="6.132230000000001">
    <ele>1271.38</ele>
   </trkpt>
   <trkpt lat="45.62116" lon="6.1321900000000005">
    <ele>1272.5600000000002</ele>
   </trkpt>
   <trkpt lat="45.621140000000004" lon="6.132140000000001">
    <ele>1272.5600000000002</ele>
   </trkpt>
   <trkpt lat="45.621100000000006" lon="6.131830000000001">
    <ele>1280.1</ele>
   </trkpt>
   <trkpt lat="45.62118" lon="6.131970000000001">
    <ele>1278.75</ele>
   </trkpt>
   <trkpt lat="45.621280000000006" lon="6.13203">
    <ele>1278.41</ele>
   </trkpt>
   <trkpt lat="45.621410000000004" lon="6.132040000000001">
    <ele>1279.97</ele>
   </trkpt>
   <trkpt lat="45.62196" lon="6.1319300000000005">
    <ele>1288.81</ele>
   </trkpt>
   <trkpt lat="45.62216" lon="6.132090000000001">
    <ele>1289.8400000000001</ele>
   </trkpt>
   <trkpt lat="45.62254" lon="6.132350000000001">
    <ele>1289.7800000000002</ele>
   </trkpt>
   <trkpt lat="45.62313" lon="6.132610000000001">
    <ele>1296.49</ele>
   </trkpt>
   <trkpt lat="45.62382" lon="6.1330800000000005">
    <ele>1299.65</ele>
   </trkpt>
   <trkpt lat="45.62417000000001" lon="6.13337">
    <ele>1309.01</ele>
   </trkpt>
   <trkpt lat="45.62454" lon="6.13379">
    <ele>1316.47</ele>
   </trkpt>
   <trkpt lat="45.6249450003636" lon="6.134089997811162">
    <ele>1321.65</ele>
   </trkpt>
   <trkpt lat="45.625350000000005" lon="6.134390000000001">
    <ele>1327.0400000000002</ele>
   </trkpt>
   <trkpt lat="45.626110000000004" lon="6.135050000000001">
    <ele>1339.68</ele>
   </trkpt>
   <trkpt lat="45.626540000000006" lon="6.13532">
    <ele>1348.88</ele>
   </trkpt>
   <trkpt lat="45.626920000572795" lon="6.135664997709879">
    <ele>1350.5500000000002</ele>
   </trkpt>
   <trkpt lat="45.627300000000005" lon="6.136010000000001">
    <ele>1352.63</ele>
   </trkpt>
   <trkpt lat="45.627810000000004" lon="6.136270000000001">
    <ele>1352.0500000000002</ele>
   </trkpt>
   <trkpt lat="45.62803" lon="6.1364">
    <ele>1354.3700000000001</ele>
   </trkpt>
   <trkpt lat="45.628330000000005" lon="6.13663">
    <ele>1354.96</ele>
   </trkpt>
   <trkpt lat="45.62881" lon="6.137040000000001">
    <ele>1357.08</ele>
   </trkpt>
   <trkpt lat="45.62942500063632" lon="6.137399996091534">
    <ele>1352.8300000000002</ele>
   </trkpt>
   <trkpt lat="45.63004" lon="6.13776">
    <ele>1343.22</ele>
   </trkpt>
   <trkpt lat="45.630140000000004" lon="6.137840000000001">
    <ele>1342.41</ele>
   </trkpt>
   <trkpt lat="45.630390000000006" lon="6.13818">
    <ele>1343.0700000000002</ele>
   </trkpt>
   <trkpt lat="45.63051" lon="6.138310000000001">
    <ele>1345.01</ele>
   </trkpt>
   <trkpt lat="45.631140000944384" lon="6.138779994702595">
    <ele>1350.66</ele>
   </trkpt>
   <trkpt lat="45.63177" lon="6.1392500000000005">
    <ele>1356.2900000000002</ele>
   </trkpt>
   <trkpt lat="45.631870000000006" lon="6.1393">
    <ele>1356.39</ele>
   </trkpt>
   <trkpt lat="45.632020000000004" lon="6.1393200000000006">
    <ele>1356.2</ele>
   </trkpt>
   <trkpt lat="45.63248499988253" lon="6.1393200000000006">
    <ele>1354.8500000000001</ele>
   </trkpt>
   <trkpt lat="45.63295" lon="6.1393200000000006">
    <ele>1352.98</ele>
   </trkpt>
   <trkpt lat="45.63333" lon="6.139360000000001">
    <ele>1351.0300000000002</ele>
   </trkpt>
   <trkpt lat="45.63400500004342" lon="6.13952499799422">
    <ele>1346.4600000000003</ele>
   </trkpt>
   <trkpt lat="45.63468" lon="6.139690000000001">
    <ele>1343.7400000000002</ele>
   </trkpt>
   <trkpt lat="45.63494" lon="6.139570000000001">
    <ele>1343.23</ele>
   </trkpt>
   <trkpt lat="45.6351" lon="6.13947">
    <ele>1344.0200000000002</ele>
   </trkpt>
   <trkpt lat="45.63561000000001" lon="6.13895">
    <ele>1346.96</ele>
   </trkpt>
   <trkpt lat="45.63608000000001" lon="6.138540000000001">
    <ele>1356.0400000000002</ele>
   </trkpt>
   <trkpt lat="45.636300000000006" lon="6.1382900000000005">
    <ele>1361.0300000000002</ele>
   </trkpt>
   <trkpt lat="45.63646000000001" lon="6.138000000000001">
    <ele>1365.0300000000002</ele>
   </trkpt>
   <trkpt lat="45.636810000000004" lon="6.13754">
    <ele>1374.42</ele>
   </trkpt>
   <trkpt lat="45.63691" lon="6.13733">
    <ele>1377.99</ele>
   </trkpt>
   <trkpt lat="45.637370000000004" lon="6.136830000000001">
    <ele>1388.3500000000001</ele>
   </trkpt>
   <trkpt lat="45.637550000000005" lon="6.13654">
    <ele>1387.78</ele>
   </trkpt>
   <trkpt lat="45.63785" lon="6.136410000000001">
    <ele>1387.92</ele>
   </trkpt>
   <trkpt lat="45.637930000000004" lon="6.136410000000001">
    <ele>1388.8400000000001</ele>
   </trkpt>
   <trkpt lat="45.63792" lon="6.13635">
    <ele>1389.93</ele>
   </trkpt>
   <trkpt lat="45.63797" lon="6.13623">
    <ele>1391.93</ele>
   </trkpt>
   <trkpt lat="45.638090000000005" lon="6.13611">
    <ele>1395.78</ele>
   </trkpt>
   <trkpt lat="45.63814000000001" lon="6.135980000000001">
    <ele>1398.05</ele>
   </trkpt>
   <trkpt lat="45.63794" lon="6.13541">
    <ele>1397.41</ele>
   </trkpt>
   <trkpt lat="45.63784500171986" lon="6.134769998464187">
    <ele>1397.58</ele>
   </trkpt>
   <trkpt lat="45.637750000000004" lon="6.134130000000001">
    <ele>1398.22</ele>
   </trkpt>
   <trkpt lat="45.63777" lon="6.134010000000001">
    <ele>1397.93</ele>
   </trkpt>
   <trkpt lat="45.637820000000005" lon="6.133900000000001">
    <ele>1397.14</ele>
   </trkpt>
   <trkpt lat="45.637980000000006" lon="6.133640000000001">
    <ele>1394.1100000000001</ele>
   </trkpt>
   <trkpt lat="45.63806" lon="6.133330000000001">
    <ele>1393.55</ele>
   </trkpt>
   <trkpt lat="45.63811000224209" lon="6.132615000466317">
    <ele>1403.7400000000002</ele>
   </trkpt>
   <trkpt lat="45.638160000000006" lon="6.131900000000001">
    <ele>1417.42</ele>
   </trkpt>
   <trkpt lat="45.63805000000001" lon="6.131710000000001">
    <ele>1422.1000000000001</ele>
   </trkpt>
   <trkpt lat="45.6381" lon="6.13128">
    <ele>1429.7000000000003</ele>
   </trkpt>
   <trkpt lat="45.63805000000001" lon="6.131">
    <ele>1433.1299999999999</ele>
   </trkpt>
   <trkpt lat="45.63792" lon="6.130770000000001">
    <ele>1438.02</ele>
   </trkpt>
   <trkpt lat="45.63796000000001" lon="6.13048">
    <ele>1444.5700000000002</ele>
   </trkpt>
   <trkpt lat="45.63792" lon="6.13039">
    <ele>1444.5700000000002</ele>
   </trkpt>
   <trkpt lat="45.63803" lon="6.1298200000000005">
    <ele>1457.72</ele>
   </trkpt>
   <trkpt lat="45.63801" lon="6.12969">
    <ele>1458.97</ele>
   </trkpt>
   <trkpt lat="45.638110000000005" lon="6.128950000000001">
    <ele>1469.7600000000002</ele>
   </trkpt>
   <trkpt lat="45.638220000000004" lon="6.128550000000001">
    <ele>1474.79</ele>
   </trkpt>
   <trkpt lat="45.638540000000006" lon="6.128010000000001">
    <ele>1487.5200000000002</ele>
   </trkpt>
   <trkpt lat="45.63881000000001" lon="6.127750000000001">
    <ele>1492.31</ele>
   </trkpt>
   <trkpt lat="45.63952500110767" lon="6.127255006289748">
    <ele>1520.91</ele>
   </trkpt>
   <trkpt lat="45.640240000000006" lon="6.126760000000001">
    <ele>1545.43</ele>
   </trkpt>
   <trkpt lat="45.64027" lon="6.12666">
    <ele>1545.43</ele>
   </trkpt>
   <trkpt lat="45.640440000000005" lon="6.12649">
    <ele>1557.6000000000001</ele>
   </trkpt>
   <trkpt lat="45.640550000000005" lon="6.1262300000000005">
    <ele>1563.52</ele>
   </trkpt>
   <trkpt lat="45.64054" lon="6.12607">
    <ele>1568.19</ele>
   </trkpt>
   <trkpt lat="45.640890000000006" lon="6.12605">
    <ele>1574.75</ele>
   </trkpt>
   <trkpt lat="45.641070000000006" lon="6.125900000000001">
    <ele>1580.72</ele>
   </trkpt>
   <trkpt lat="45.64094" lon="6.12572">
    <ele>1586.8300000000002</ele>
   </trkpt>
   <trkpt lat="45.64077" lon="6.125360000000001">
    <ele>1594.3600000000001</ele>
   </trkpt>
   <trkpt lat="45.640710000000006" lon="6.12506">
    <ele>1599.96</ele>
   </trkpt>
   <trkpt lat="45.64056" lon="6.124820000000001">
    <ele>1607.39</ele>
   </trkpt>
   <trkpt lat="45.640350000000005" lon="6.1247300000000005">
    <ele>1612.3</ele>
   </trkpt>
   <trkpt lat="45.640190000000004" lon="6.124600000000001">
    <ele>1617.69</ele>
   </trkpt>
   <trkpt lat="45.639950000000006" lon="6.12445">
    <ele>1620.7</ele>
   </trkpt>
   <trkpt lat="45.63993000000001" lon="6.124420000000001">
    <ele>1620.7900000000002</ele>
   </trkpt>
   <trkpt lat="45.63991" lon="6.1241">
    <ele>1618.6</ele>
   </trkpt>
   <trkpt lat="45.63993000000001" lon="6.12403">
    <ele>1617.89</ele>
   </trkpt>
   <trkpt lat="45.63991" lon="6.123880000000001">
    <ele>1616.21</ele>
   </trkpt>
   <trkpt lat="45.63991" lon="6.12316">
    <ele>1609.9</ele>
   </trkpt>
   <trkpt lat="45.63993000000001" lon="6.122870000000001">
    <ele>1608.17</ele>
   </trkpt>
   <trkpt lat="45.639990000000004" lon="6.12262">
    <ele>1607.5900000000001</ele>
   </trkpt>
   <trkpt lat="45.639970000000005" lon="6.122520000000001">
    <ele>1607.6000000000001</ele>
   </trkpt>
   <trkpt lat="45.639880000000005" lon="6.12239">
    <ele>1608.4600000000003</ele>
   </trkpt>
   <trkpt lat="45.63983" lon="6.12225">
    <ele>1608.9700000000003</ele>
   </trkpt>
   <trkpt lat="45.63962" lon="6.121530000000001">
    <ele>1614.69</ele>
   </trkpt>
   <trkpt lat="45.63965" lon="6.1213500000000005">
    <ele>1615.96</ele>
   </trkpt>
   <trkpt lat="45.639610000000005" lon="6.12119">
    <ele>1618.03</ele>
   </trkpt>
   <trkpt lat="45.63962" lon="6.12108">
    <ele>1618.03</ele>
   </trkpt>
   <trkpt lat="45.639570000000006" lon="6.12101">
    <ele>1618.99</ele>
   </trkpt>
   <trkpt lat="45.63955000000001" lon="6.12091">
    <ele>1619.43</ele>
   </trkpt>
   <trkpt lat="45.639500000000005" lon="6.12084">
    <ele>1620.69</ele>
   </trkpt>
   <trkpt lat="45.639480000000006" lon="6.12075">
    <ele>1621.2000000000003</ele>
   </trkpt>
   <trkpt lat="45.639390000000006" lon="6.12063">
    <ele>1623.4100000000003</ele>
   </trkpt>
   <trkpt lat="45.63935" lon="6.1205300000000005">
    <ele>1626.3400000000001</ele>
   </trkpt>
   <trkpt lat="45.63927" lon="6.12044">
    <ele>1627.21</ele>
   </trkpt>
   <trkpt lat="45.63924" lon="6.12032">
    <ele>1627.9800000000002</ele>
   </trkpt>
   <trkpt lat="45.63909" lon="6.1204">
    <ele>1631.0200000000002</ele>
   </trkpt>
   <trkpt lat="45.63895" lon="6.12037">
    <ele>1635.18</ele>
   </trkpt>
   <trkpt lat="45.63886" lon="6.120380000000001">
    <ele>1637.42</ele>
   </trkpt>
   <trkpt lat="45.63868" lon="6.12032">
    <ele>1642.3700000000001</ele>
   </trkpt>
   <trkpt lat="45.638470000000005" lon="6.120010000000001">
    <ele>1647.67</ele>
   </trkpt>
   <trkpt lat="45.63841" lon="6.11983">
    <ele>1648.7600000000002</ele>
   </trkpt>
   <trkpt lat="45.638400000000004" lon="6.119680000000001">
    <ele>1650.8200000000002</ele>
   </trkpt>
   <trkpt lat="45.63846" lon="6.119260000000001">
    <ele>1654.46</ele>
   </trkpt>
   <trkpt lat="45.63852000000001" lon="6.11941">
    <ele>1656.1100000000001</ele>
   </trkpt>
   <trkpt lat="45.63857" lon="6.11936">
    <ele>1656.77</ele>
   </trkpt>
   <trkpt lat="45.6385" lon="6.119140000000001">
    <ele>1657.5400000000002</ele>
   </trkpt>
   <trkpt lat="45.6385" lon="6.119000000000001">
    <ele>1658.2</ele>
   </trkpt>
   <trkpt lat="45.638580000000005" lon="6.118060000000001">
    <ele>1660.7600000000002</ele>
   </trkpt>
   <trkpt lat="45.63874500194635" lon="6.1173950018886805">
    <ele>1662.38</ele>
   </trkpt>
   <trkpt lat="45.63891" lon="6.1167300000000004">
    <ele>1665.44</ele>
   </trkpt>
   <trkpt lat="45.63897" lon="6.11591">
    <ele>1669.5300000000002</ele>
   </trkpt>
   <trkpt lat="45.638940000000005" lon="6.115150000000001">
    <ele>1678.53</ele>
   </trkpt>
   <trkpt lat="45.638650000000005" lon="6.114490000000001">
    <ele>1686.42</ele>
   </trkpt>
   <trkpt lat="45.638630000000006" lon="6.11439">
    <ele>1688.6900000000003</ele>
   </trkpt>
   <trkpt lat="45.638630000000006" lon="6.11437">
    <ele>1688.6900000000003</ele>
   </trkpt>
   <trkpt lat="45.639100000000006" lon="6.1146">
    <ele>1706.53</ele>
   </trkpt>
   <trkpt lat="45.639630000000004" lon="6.114820000000001">
    <ele>1731.7300000000002</ele>
   </trkpt>
   <trkpt lat="45.63974" lon="6.114990000000001">
    <ele>1736.49</ele>
   </trkpt>
   <trkpt lat="45.63991" lon="6.115080000000001">
    <ele>1749.1000000000001</ele>
   </trkpt>
   <trkpt lat="45.640100000000004" lon="6.115">
    <ele>1760.58</ele>
   </trkpt>
   <trkpt lat="45.640080000000005" lon="6.11512">
    <ele>1762.8700000000001</ele>
   </trkpt>
   <trkpt lat="45.64016" lon="6.115150000000001">
    <ele>1774.85</ele>
   </trkpt>
   <trkpt lat="45.64016" lon="6.115290000000001">
    <ele>1774.85</ele>
   </trkpt>
   <trkpt lat="45.640370000000004" lon="6.1153">
    <ele>1786.2700000000002</ele>
   </trkpt>
   <trkpt lat="45.64036" lon="6.11556">
    <ele>1791.4200000000003</ele>
   </trkpt>
   <trkpt lat="45.640510000000006" lon="6.115570000000001">
    <ele>1791.4200000000003</ele>
   </trkpt>
   <trkpt lat="45.640510000000006" lon="6.1156500000000005">
    <ele>1820.66</ele>
   </trkpt>
   <trkpt lat="45.64067000000001" lon="6.115760000000001">
    <ele>1820.66</ele>
   </trkpt>
   <trkpt lat="45.64074" lon="6.11591">
    <ele>1825.76</ele>
   </trkpt>
   <trkpt lat="45.641020000000005" lon="6.11608">
    <ele>1839.88</ele>
   </trkpt>
   <trkpt lat="45.641200000000005" lon="6.116320000000001">
    <ele>1852.41</ele>
   </trkpt>
   <trkpt lat="45.64171" lon="6.116750000000001">
    <ele>1878.3400000000001</ele>
   </trkpt>
   <trkpt lat="45.64175" lon="6.11683">
    <ele>1878.3400000000001</ele>
   </trkpt>
   <trkpt lat="45.641670000000005" lon="6.11695">
    <ele>1888.1900000000003</ele>
   </trkpt>
   <trkpt lat="45.64184" lon="6.117240000000001">
    <ele>1902.5500000000002</ele>
   </trkpt>
   <trkpt lat="45.642050000000005" lon="6.11746">
    <ele>1915.0200000000002</ele>
   </trkpt>
   <trkpt lat="45.64275000000001" lon="6.117990000000001">
    <ele>1949.48</ele>
   </trkpt>
   <trkpt lat="45.642830000000004" lon="6.117970000000001">
    <ele>1953.3500000000001</ele>
   </trkpt>
   <trkpt lat="45.642860000000006" lon="6.11803">
    <ele>1953.3500000000001</ele>
   </trkpt>
   <trkpt lat="45.64311000000001" lon="6.118180000000001">
    <ele>1964.9600000000003</ele>
   </trkpt>
   <trkpt lat="45.64363" lon="6.118320000000001">
    <ele>1976.32</ele>
   </trkpt>
   <trkpt lat="45.64378000000001" lon="6.11856">
    <ele>1981.6000000000001</ele>
   </trkpt>
   <trkpt lat="45.64394" lon="6.118650000000001">
    <ele>1989.14</ele>
   </trkpt>
   <trkpt lat="45.644450000000006" lon="6.1192400000000005">
    <ele>2010.13</ele>
   </trkpt>
   <trkpt lat="45.64394" lon="6.118650000000001">
    <ele>1989.14</ele>
   </trkpt>
   <trkpt lat="45.64378000000001" lon="6.11856">
    <ele>1981.6000000000001</ele>
   </trkpt>
   <trkpt lat="45.64363" lon="6.118320000000001">
    <ele>1976.32</ele>
   </trkpt>
   <trkpt lat="45.64311000000001" lon="6.118180000000001">
    <ele>1964.9600000000003</ele>
   </trkpt>
   <trkpt lat="45.642860000000006" lon="6.11803">
    <ele>1955.19</ele>
   </trkpt>
   <trkpt lat="45.642830000000004" lon="6.117970000000001">
    <ele>1953.3500000000001</ele>
   </trkpt>
   <trkpt lat="45.64275000000001" lon="6.117990000000001">
    <ele>1949.48</ele>
   </trkpt>
   <trkpt lat="45.642050000000005" lon="6.11746">
    <ele>1915.0200000000002</ele>
   </trkpt>
   <trkpt lat="45.64184" lon="6.117240000000001">
    <ele>1902.5500000000002</ele>
   </trkpt>
   <trkpt lat="45.641670000000005" lon="6.11695">
    <ele>1888.1900000000003</ele>
   </trkpt>
   <trkpt lat="45.64175" lon="6.11683">
    <ele>1878.3400000000001</ele>
   </trkpt>
   <trkpt lat="45.64171" lon="6.116750000000001">
    <ele>1878.3400000000001</ele>
   </trkpt>
   <trkpt lat="45.641200000000005" lon="6.116320000000001">
    <ele>1852.41</ele>
   </trkpt>
   <trkpt lat="45.641020000000005" lon="6.11608">
    <ele>1839.88</ele>
   </trkpt>
   <trkpt lat="45.64074" lon="6.11591">
    <ele>1825.76</ele>
   </trkpt>
   <trkpt lat="45.64067000000001" lon="6.115760000000001">
    <ele>1820.66</ele>
   </trkpt>
   <trkpt lat="45.640510000000006" lon="6.1156500000000005">
    <ele>1820.66</ele>
   </trkpt>
   <trkpt lat="45.640510000000006" lon="6.115570000000001">
    <ele>1791.4200000000003</ele>
   </trkpt>
   <trkpt lat="45.64036" lon="6.11556">
    <ele>1791.4200000000003</ele>
   </trkpt>
   <trkpt lat="45.640370000000004" lon="6.1153">
    <ele>1786.2700000000002</ele>
   </trkpt>
   <trkpt lat="45.64016" lon="6.115290000000001">
    <ele>1774.85</ele>
   </trkpt>
   <trkpt lat="45.64016" lon="6.115150000000001">
    <ele>1774.85</ele>
   </trkpt>
   <trkpt lat="45.640080000000005" lon="6.11512">
    <ele>1762.8700000000001</ele>
   </trkpt>
   <trkpt lat="45.640100000000004" lon="6.115">
    <ele>1760.58</ele>
   </trkpt>
   <trkpt lat="45.63991" lon="6.115080000000001">
    <ele>1749.1000000000001</ele>
   </trkpt>
   <trkpt lat="45.63974" lon="6.114990000000001">
    <ele>1736.49</ele>
   </trkpt>
   <trkpt lat="45.639630000000004" lon="6.114820000000001">
    <ele>1731.7300000000002</ele>
   </trkpt>
   <trkpt lat="45.639100000000006" lon="6.1146">
    <ele>1706.53</ele>
   </trkpt>
   <trkpt lat="45.638630000000006" lon="6.1143600000000005">
    <ele>1688.9</ele>
   </trkpt>
   <trkpt lat="45.638650000000005" lon="6.114490000000001">
    <ele>1686.42</ele>
   </trkpt>
   <trkpt lat="45.638940000000005" lon="6.115150000000001">
    <ele>1678.53</ele>
   </trkpt>
   <trkpt lat="45.63897" lon="6.11591">
    <ele>1669.5300000000002</ele>
   </trkpt>
   <trkpt lat="45.63891" lon="6.1167300000000004">
    <ele>1665.44</ele>
   </trkpt>
   <trkpt lat="45.63874500191184" lon="6.117395002027812">
    <ele>1662.38</ele>
   </trkpt>
   <trkpt lat="45.638580000000005" lon="6.118060000000001">
    <ele>1660.7600000000002</ele>
   </trkpt>
   <trkpt lat="45.6385" lon="6.119000000000001">
    <ele>1658.2</ele>
   </trkpt>
   <trkpt lat="45.6385" lon="6.119140000000001">
    <ele>1657.5400000000002</ele>
   </trkpt>
   <trkpt lat="45.63857" lon="6.11936">
    <ele>1656.77</ele>
   </trkpt>
   <trkpt lat="45.63852000000001" lon="6.11941">
    <ele>1656.46</ele>
   </trkpt>
   <trkpt lat="45.63846" lon="6.119260000000001">
    <ele>1655.2700000000002</ele>
   </trkpt>
   <trkpt lat="45.638400000000004" lon="6.119680000000001">
    <ele>1650.8200000000002</ele>
   </trkpt>
   <trkpt lat="45.63841" lon="6.11983">
    <ele>1648.7600000000002</ele>
   </trkpt>
   <trkpt lat="45.638470000000005" lon="6.120010000000001">
    <ele>1647.67</ele>
   </trkpt>
   <trkpt lat="45.63868" lon="6.12032">
    <ele>1642.3700000000001</ele>
   </trkpt>
   <trkpt lat="45.63886" lon="6.120380000000001">
    <ele>1637.42</ele>
   </trkpt>
   <trkpt lat="45.63895" lon="6.12037">
    <ele>1635.18</ele>
   </trkpt>
   <trkpt lat="45.63909" lon="6.1204">
    <ele>1631.9800000000002</ele>
   </trkpt>
   <trkpt lat="45.63924" lon="6.12032">
    <ele>1629.4</ele>
   </trkpt>
   <trkpt lat="45.63927" lon="6.12044">
    <ele>1627.21</ele>
   </trkpt>
   <trkpt lat="45.63935" lon="6.1205300000000005">
    <ele>1626.3400000000001</ele>
   </trkpt>
   <trkpt lat="45.639390000000006" lon="6.12063">
    <ele>1623.4100000000003</ele>
   </trkpt>
   <trkpt lat="45.639480000000006" lon="6.12075">
    <ele>1621.2000000000003</ele>
   </trkpt>
   <trkpt lat="45.639500000000005" lon="6.12084">
    <ele>1620.69</ele>
   </trkpt>
   <trkpt lat="45.63955000000001" lon="6.12091">
    <ele>1620.2500000000002</ele>
   </trkpt>
   <trkpt lat="45.639570000000006" lon="6.12101">
    <ele>1619.43</ele>
   </trkpt>
   <trkpt lat="45.63962" lon="6.12108">
    <ele>1618.99</ele>
   </trkpt>
   <trkpt lat="45.639610000000005" lon="6.12119">
    <ele>1618.03</ele>
   </trkpt>
   <trkpt lat="45.63965" lon="6.1213500000000005">
    <ele>1615.96</ele>
   </trkpt>
   <trkpt lat="45.63962" lon="6.121530000000001">
    <ele>1615.0600000000002</ele>
   </trkpt>
   <trkpt lat="45.63983" lon="6.12225">
    <ele>1610.7000000000003</ele>
   </trkpt>
   <trkpt lat="45.639880000000005" lon="6.12239">
    <ele>1608.4600000000003</ele>
   </trkpt>
   <trkpt lat="45.639970000000005" lon="6.122520000000001">
    <ele>1607.6000000000001</ele>
   </trkpt>
   <trkpt lat="45.639990000000004" lon="6.12262">
    <ele>1607.55</ele>
   </trkpt>
   <trkpt lat="45.63993000000001" lon="6.122870000000001">
    <ele>1607.96</ele>
   </trkpt>
   <trkpt lat="45.63991" lon="6.12316">
    <ele>1609.9</ele>
   </trkpt>
   <trkpt lat="45.63991" lon="6.123880000000001">
    <ele>1616.21</ele>
   </trkpt>
   <trkpt lat="45.63993000000001" lon="6.12403">
    <ele>1617.45</ele>
   </trkpt>
   <trkpt lat="45.63991" lon="6.1241">
    <ele>1618.6</ele>
   </trkpt>
   <trkpt lat="45.63993000000001" lon="6.124420000000001">
    <ele>1620.7900000000002</ele>
   </trkpt>
   <trkpt lat="45.639950000000006" lon="6.12445">
    <ele>1620.7900000000002</ele>
   </trkpt>
   <trkpt lat="45.640190000000004" lon="6.124600000000001">
    <ele>1617.69</ele>
   </trkpt>
   <trkpt lat="45.640350000000005" lon="6.1247300000000005">
    <ele>1612.3</ele>
   </trkpt>
   <trkpt lat="45.64056" lon="6.124820000000001">
    <ele>1607.39</ele>
   </trkpt>
   <trkpt lat="45.640710000000006" lon="6.12506">
    <ele>1601.11</ele>
   </trkpt>
   <trkpt lat="45.64077" lon="6.125360000000001">
    <ele>1596.67</ele>
   </trkpt>
   <trkpt lat="45.64094" lon="6.12572">
    <ele>1586.8300000000002</ele>
   </trkpt>
   <trkpt lat="45.641070000000006" lon="6.125900000000001">
    <ele>1580.72</ele>
   </trkpt>
   <trkpt lat="45.640890000000006" lon="6.12605">
    <ele>1574.75</ele>
   </trkpt>
   <trkpt lat="45.64054" lon="6.12607">
    <ele>1568.19</ele>
   </trkpt>
   <trkpt lat="45.640550000000005" lon="6.1262300000000005">
    <ele>1565.92</ele>
   </trkpt>
   <trkpt lat="45.640440000000005" lon="6.12649">
    <ele>1559.25</ele>
   </trkpt>
   <trkpt lat="45.64027" lon="6.12666">
    <ele>1545.43</ele>
   </trkpt>
   <trkpt lat="45.640240000000006" lon="6.126760000000001">
    <ele>1545.43</ele>
   </trkpt>
   <trkpt lat="45.639525001030066" lon="6.127255006343485">
    <ele>1520.91</ele>
   </trkpt>
   <trkpt lat="45.63881000000001" lon="6.127750000000001">
    <ele>1492.31</ele>
   </trkpt>
   <trkpt lat="45.638540000000006" lon="6.128010000000001">
    <ele>1487.5200000000002</ele>
   </trkpt>
   <trkpt lat="45.638220000000004" lon="6.128550000000001">
    <ele>1474.79</ele>
   </trkpt>
   <trkpt lat="45.638110000000005" lon="6.128950000000001">
    <ele>1470.63</ele>
   </trkpt>
   <trkpt lat="45.63801" lon="6.12969">
    <ele>1458.97</ele>
   </trkpt>
   <trkpt lat="45.63803" lon="6.1298200000000005">
    <ele>1457.72</ele>
   </trkpt>
   <trkpt lat="45.63792" lon="6.13039">
    <ele>1444.5700000000002</ele>
   </trkpt>
   <trkpt lat="45.63796000000001" lon="6.13048">
    <ele>1444.5700000000002</ele>
   </trkpt>
   <trkpt lat="45.63792" lon="6.130770000000001">
    <ele>1438.02</ele>
   </trkpt>
   <trkpt lat="45.63805000000001" lon="6.131">
    <ele>1433.1299999999999</ele>
   </trkpt>
   <trkpt lat="45.6381" lon="6.13128">
    <ele>1429.7000000000003</ele>
   </trkpt>
   <trkpt lat="45.63805000000001" lon="6.131710000000001">
    <ele>1422.1000000000001</ele>
   </trkpt>
   <trkpt lat="45.638160000000006" lon="6.131900000000001">
    <ele>1418.63</ele>
   </trkpt>
   <trkpt lat="45.63811000221807" lon="6.132615000809707">
    <ele>1403.7400000000002</ele>
   </trkpt>
   <trkpt lat="45.63806" lon="6.133330000000001">
    <ele>1393.55</ele>
   </trkpt>
   <trkpt lat="45.637980000000006" lon="6.133640000000001">
    <ele>1394.1100000000001</ele>
   </trkpt>
   <trkpt lat="45.637820000000005" lon="6.133900000000001">
    <ele>1396.6200000000001</ele>
   </trkpt>
   <trkpt lat="45.63777" lon="6.134010000000001">
    <ele>1397.5900000000001</ele>
   </trkpt>
   <trkpt lat="45.637750000000004" lon="6.134130000000001">
    <ele>1398.14</ele>
   </trkpt>
   <trkpt lat="45.63784500185368" lon="6.134769999365707">
    <ele>1397.6200000000001</ele>
   </trkpt>
   <trkpt lat="45.63794" lon="6.13541">
    <ele>1397.41</ele>
   </trkpt>
   <trkpt lat="45.63814000000001" lon="6.135980000000001">
    <ele>1398.05</ele>
   </trkpt>
   <trkpt lat="45.638090000000005" lon="6.13611">
    <ele>1395.78</ele>
   </trkpt>
   <trkpt lat="45.63797" lon="6.13623">
    <ele>1391.93</ele>
   </trkpt>
   <trkpt lat="45.63792" lon="6.13635">
    <ele>1389.93</ele>
   </trkpt>
   <trkpt lat="45.637950000000004" lon="6.1367">
    <ele>1387.3700000000001</ele>
   </trkpt>
   <trkpt lat="45.638090000000005" lon="6.13703">
    <ele>1383.82</ele>
   </trkpt>
   <trkpt lat="45.63844" lon="6.13757">
    <ele>1388.8</ele>
   </trkpt>
   <trkpt lat="45.63781" lon="6.138170000000001">
    <ele>1374.06</ele>
   </trkpt>
   <trkpt lat="45.63792" lon="6.138470000000001">
    <ele>1370.16</ele>
   </trkpt>
   <trkpt lat="45.63832500221386" lon="6.139184994803427">
    <ele>1358.7300000000002</ele>
   </trkpt>
   <trkpt lat="45.63873" lon="6.139900000000001">
    <ele>1345.0600000000002</ele>
   </trkpt>
   <trkpt lat="45.63902" lon="6.14078">
    <ele>1334.3100000000002</ele>
   </trkpt>
   <trkpt lat="45.6392" lon="6.14144">
    <ele>1324.5</ele>
   </trkpt>
   <trkpt lat="45.639570000000006" lon="6.14198">
    <ele>1314.2</ele>
   </trkpt>
   <trkpt lat="45.63949" lon="6.14212">
    <ele>1312.24</ele>
   </trkpt>
   <trkpt lat="45.63936" lon="6.14268">
    <ele>1306.3500000000001</ele>
   </trkpt>
   <trkpt lat="45.63969" lon="6.14318">
    <ele>1299.49</ele>
   </trkpt>
   <trkpt lat="45.63996" lon="6.143870000000001">
    <ele>1283.1800000000003</ele>
   </trkpt>
   <trkpt lat="45.64011500263223" lon="6.1446499977327464">
    <ele>1271.3400000000001</ele>
   </trkpt>
   <trkpt lat="45.64027" lon="6.14543">
    <ele>1262.5700000000002</ele>
   </trkpt>
   <trkpt lat="45.64076" lon="6.1459">
    <ele>1255.5800000000002</ele>
   </trkpt>
   <trkpt lat="45.641330001231545" lon="6.146389995173246">
    <ele>1253.3500000000001</ele>
   </trkpt>
   <trkpt lat="45.64190000000001" lon="6.14688">
    <ele>1247.0400000000002</ele>
   </trkpt>
   <trkpt lat="45.64219000000001" lon="6.14768">
    <ele>1235.03</ele>
   </trkpt>
   <trkpt lat="45.64217000000001" lon="6.14766">
    <ele>1236.5000000000002</ele>
   </trkpt>
   <trkpt lat="45.64268500072129" lon="6.148104995786214">
    <ele>1234.1200000000001</ele>
   </trkpt>
   <trkpt lat="45.6432" lon="6.14855">
    <ele>1219.91</ele>
   </trkpt>
   <trkpt lat="45.64376500054617" lon="6.148849997055969">
    <ele>1204.56</ele>
   </trkpt>
   <trkpt lat="45.644330000000004" lon="6.149150000000001">
    <ele>1195.8600000000001</ele>
   </trkpt>
   <trkpt lat="45.644745000547005" lon="6.149459997798975">
    <ele>1193.7600000000002</ele>
   </trkpt>
   <trkpt lat="45.645160000000004" lon="6.14977">
    <ele>1191.2800000000002</ele>
   </trkpt>
   <trkpt lat="45.645230000000005" lon="6.149800000000001">
    <ele>1190.98</ele>
   </trkpt>
   <trkpt lat="45.645320000000005" lon="6.1498800000000005">
    <ele>1191.5</ele>
   </trkpt>
   <trkpt lat="45.645590000000006" lon="6.14996">
    <ele>1193.01</ele>
   </trkpt>
   <trkpt lat="45.646060000000006" lon="6.1501600000000005">
    <ele>1191.5500000000002</ele>
   </trkpt>
   <trkpt lat="45.64618" lon="6.150180000000001">
    <ele>1190.0700000000002</ele>
   </trkpt>
   <trkpt lat="45.646420000000006" lon="6.150340000000001">
    <ele>1184.3799999999999</ele>
   </trkpt>
   <trkpt lat="45.64663" lon="6.150390000000001">
    <ele>1182.8100000000002</ele>
   </trkpt>
   <trkpt lat="45.646770000000004" lon="6.15045">
    <ele>1180.01</ele>
   </trkpt>
   <trkpt lat="45.64688" lon="6.150550000000001">
    <ele>1176.98</ele>
   </trkpt>
   <trkpt lat="45.64744" lon="6.15082">
    <ele>1168.64</ele>
   </trkpt>
   <trkpt lat="45.647600000000004" lon="6.15094">
    <ele>1164.96</ele>
   </trkpt>
   <trkpt lat="45.647780000000004" lon="6.150930000000001">
    <ele>1161.74</ele>
   </trkpt>
   <trkpt lat="45.648250000000004" lon="6.151120000000001">
    <ele>1154.71</ele>
   </trkpt>
   <trkpt lat="45.648390000000006" lon="6.1512400000000005">
    <ele>1151.5000000000002</ele>
   </trkpt>
   <trkpt lat="45.64853" lon="6.151280000000001">
    <ele>1147.5000000000002</ele>
   </trkpt>
   <trkpt lat="45.64865" lon="6.1515">
    <ele>1144.29</ele>
   </trkpt>
   <trkpt lat="45.64873" lon="6.151730000000001">
    <ele>1140.5400000000002</ele>
   </trkpt>
   <trkpt lat="45.64884000000001" lon="6.151820000000001">
    <ele>1138.6000000000001</ele>
   </trkpt>
   <trkpt lat="45.64923" lon="6.15202">
    <ele>1134.13</ele>
   </trkpt>
   <trkpt lat="45.649750000000004" lon="6.15209">
    <ele>1129.44</ele>
   </trkpt>
   <trkpt lat="45.649930000000005" lon="6.15223">
    <ele>1125.58</ele>
   </trkpt>
   <trkpt lat="45.65014" lon="6.152480000000001">
    <ele>1115.1000000000001</ele>
   </trkpt>
   <trkpt lat="45.650290000000005" lon="6.1526000000000005">
    <ele>1112.74</ele>
   </trkpt>
   <trkpt lat="45.65054000000001" lon="6.15272">
    <ele>1103.45</ele>
   </trkpt>
   <trkpt lat="45.650740000000006" lon="6.1531400000000005">
    <ele>1094.72</ele>
   </trkpt>
   <trkpt lat="45.65081000000001" lon="6.153230000000001">
    <ele>1092.33</ele>
   </trkpt>
   <trkpt lat="45.651070000000004" lon="6.153460000000001">
    <ele>1087.3000000000002</ele>
   </trkpt>
   <trkpt lat="45.65126" lon="6.15352">
    <ele>1082.0</ele>
   </trkpt>
   <trkpt lat="45.6516" lon="6.15366">
    <ele>1069.92</ele>
   </trkpt>
   <trkpt lat="45.651770000000006" lon="6.153790000000001">
    <ele>1067.63</ele>
   </trkpt>
   <trkpt lat="45.65191" lon="6.1541500000000005">
    <ele>1062.5500000000002</ele>
   </trkpt>
   <trkpt lat="45.652300000000004" lon="6.15465">
    <ele>1053.3700000000001</ele>
   </trkpt>
   <trkpt lat="45.6527" lon="6.154890000000001">
    <ele>1048.3500000000001</ele>
   </trkpt>
   <trkpt lat="45.65333500039219" lon="6.1552049964082025">
    <ele>1027.15</ele>
   </trkpt>
   <trkpt lat="45.65397" lon="6.15552">
    <ele>1009.7200000000001</ele>
   </trkpt>
   <trkpt lat="45.654070000000004" lon="6.1555100000000005">
    <ele>1006.4600000000002</ele>
   </trkpt>
   <trkpt lat="45.654250000000005" lon="6.1553700000000005">
    <ele>1001.44</ele>
   </trkpt>
   <trkpt lat="45.654430000000005" lon="6.15479">
    <ele>988.99</ele>
   </trkpt>
   <trkpt lat="45.65447" lon="6.15437">
    <ele>973.32</ele>
   </trkpt>
   <trkpt lat="45.654520000000005" lon="6.15413">
    <ele>968.71</ele>
   </trkpt>
   <trkpt lat="45.65458" lon="6.154020000000001">
    <ele>965.7800000000001</ele>
   </trkpt>
   <trkpt lat="45.654610000000005" lon="6.153910000000001">
    <ele>963.1</ele>
   </trkpt>
   <trkpt lat="45.65462" lon="6.15369">
    <ele>958.25</ele>
   </trkpt>
   <trkpt lat="45.654520000000005" lon="6.15329">
    <ele>951.21</ele>
   </trkpt>
   <trkpt lat="45.65451" lon="6.1531400000000005">
    <ele>948.59</ele>
   </trkpt>
   <trkpt lat="45.65455" lon="6.1530700000000005">
    <ele>945.7500000000001</ele>
   </trkpt>
   <trkpt lat="45.654900000000005" lon="6.1527">
    <ele>932.0400000000001</ele>
   </trkpt>
   <trkpt lat="45.65514" lon="6.152570000000001">
    <ele>929.57</ele>
   </trkpt>
   <trkpt lat="45.65522000000001" lon="6.15242">
    <ele>925.8700000000001</ele>
   </trkpt>
   <trkpt lat="45.655350000000006" lon="6.1523200000000005">
    <ele>921.0100000000001</ele>
   </trkpt>
   <trkpt lat="45.65551000000001" lon="6.1523200000000005">
    <ele>917.39</ele>
   </trkpt>
   <trkpt lat="45.65560000000001" lon="6.1523900000000005">
    <ele>916.4000000000001</ele>
   </trkpt>
   <trkpt lat="45.655680000000004" lon="6.152550000000001">
    <ele>912.9100000000001</ele>
   </trkpt>
   <trkpt lat="45.655730000000005" lon="6.152710000000001">
    <ele>909.0</ele>
   </trkpt>
   <trkpt lat="45.65599" lon="6.153250000000001">
    <ele>896.5900000000001</ele>
   </trkpt>
   <trkpt lat="45.656130000000005" lon="6.153740000000001">
    <ele>888.23</ele>
   </trkpt>
   <trkpt lat="45.65673" lon="6.15425">
    <ele>876.1200000000001</ele>
   </trkpt>
   <trkpt lat="45.65682" lon="6.154260000000001">
    <ele>874.5</ele>
   </trkpt>
   <trkpt lat="45.65699" lon="6.154240000000001">
    <ele>871.7300000000001</ele>
   </trkpt>
   <trkpt lat="45.65729" lon="6.15413">
    <ele>864.6300000000001</ele>
   </trkpt>
   <trkpt lat="45.65746" lon="6.153950000000001">
    <ele>857.3000000000001</ele>
   </trkpt>
   <trkpt lat="45.657650000000004" lon="6.153630000000001">
    <ele>848.2400000000001</ele>
   </trkpt>
   <trkpt lat="45.65771" lon="6.153580000000001">
    <ele>848.2400000000001</ele>
   </trkpt>
   <trkpt lat="45.657790000000006" lon="6.153580000000001">
    <ele>848.2400000000001</ele>
   </trkpt>
   <trkpt lat="45.65789" lon="6.153630000000001">
    <ele>838.2</ele>
   </trkpt>
   <trkpt lat="45.65809" lon="6.15362">
    <ele>838.2</ele>
   </trkpt>
   <trkpt lat="45.658350000000006" lon="6.153510000000001">
    <ele>830.34</ele>
   </trkpt>
   <trkpt lat="45.65852" lon="6.153370000000001">
    <ele>819.3100000000001</ele>
   </trkpt>
   <trkpt lat="45.65860000000001" lon="6.15326">
    <ele>819.3100000000001</ele>
   </trkpt>
   <trkpt lat="45.65869000000001" lon="6.15303">
    <ele>819.3100000000001</ele>
   </trkpt>
   <trkpt lat="45.6587" lon="6.152970000000001">
    <ele>808.6600000000001</ele>
   </trkpt>
   <trkpt lat="45.658680000000004" lon="6.152850000000001">
    <ele>808.6600000000001</ele>
   </trkpt>
   <trkpt lat="45.658620000000006" lon="6.15272">
    <ele>806.07</ele>
   </trkpt>
   <trkpt lat="45.65847" lon="6.15249">
    <ele>801.37</ele>
   </trkpt>
   <trkpt lat="45.65843" lon="6.152380000000001">
    <ele>801.37</ele>
   </trkpt>
   <trkpt lat="45.65841" lon="6.152240000000001">
    <ele>796.0400000000001</ele>
   </trkpt>
   <trkpt lat="45.65845" lon="6.152150000000001">
    <ele>796.0400000000001</ele>
   </trkpt>
   <trkpt lat="45.658660000000005" lon="6.15186">
    <ele>787.4100000000001</ele>
   </trkpt>
   <trkpt lat="45.65885" lon="6.15167">
    <ele>784.0100000000001</ele>
   </trkpt>
   <trkpt lat="45.65892" lon="6.15165">
    <ele>783.7</ele>
   </trkpt>
   <trkpt lat="45.65899" lon="6.15167">
    <ele>783.2</ele>
   </trkpt>
   <trkpt lat="45.65927000000001" lon="6.15164">
    <ele>780.5200000000001</ele>
   </trkpt>
   <trkpt lat="45.659600000000005" lon="6.151700000000001">
    <ele>776.4000000000001</ele>
   </trkpt>
   <trkpt lat="45.66001000000001" lon="6.151840000000001">
    <ele>771.7900000000001</ele>
   </trkpt>
   <trkpt lat="45.66010000000001" lon="6.151890000000001">
    <ele>770.95</ele>
   </trkpt>
   <trkpt lat="45.660700000000006" lon="6.15235">
    <ele>762.1500000000001</ele>
   </trkpt>
   <trkpt lat="45.660920000000004" lon="6.1524600000000005">
    <ele>761.0100000000001</ele>
   </trkpt>
   <trkpt lat="45.66147" lon="6.152570000000001">
    <ele>753.33</ele>
   </trkpt>
   <trkpt lat="45.66165" lon="6.152640000000001">
    <ele>750.07</ele>
   </trkpt>
   <trkpt lat="45.661770000000004" lon="6.152730000000001">
    <ele>749.0500000000001</ele>
   </trkpt>
   <trkpt lat="45.662060000000004" lon="6.153060000000001">
    <ele>745.5</ele>
   </trkpt>
   <trkpt lat="45.66237" lon="6.15336">
    <ele>741.46</ele>
   </trkpt>
   <trkpt lat="45.66298000123211" lon="6.153879994379014">
    <ele>736.69</ele>
   </trkpt>
   <trkpt lat="45.663590000000006" lon="6.154400000000001">
    <ele>728.14</ele>
   </trkpt>
   <trkpt lat="45.66377000000001" lon="6.154660000000001">
    <ele>724.37</ele>
   </trkpt>
   <trkpt lat="45.66389" lon="6.154800000000001">
    <ele>724.37</ele>
   </trkpt>
   <trkpt lat="45.664010000000005" lon="6.1549000000000005">
    <ele>721.5100000000001</ele>
   </trkpt>
   <trkpt lat="45.66445" lon="6.155170000000001">
    <ele>718.5100000000001</ele>
   </trkpt>
   <trkpt lat="45.664905000449735" lon="6.15551499714325">
    <ele>713.0500000000001</ele>
   </trkpt>
   <trkpt lat="45.66536000000001" lon="6.1558600000000006">
    <ele>710.6300000000001</ele>
   </trkpt>
   <trkpt lat="45.66559" lon="6.15599">
    <ele>709.46</ele>
   </trkpt>
   <trkpt lat="45.665670000000006" lon="6.156090000000001">
    <ele>707.83</ele>
   </trkpt>
   <trkpt lat="45.6659" lon="6.15657">
    <ele>706.07</ele>
   </trkpt>
   <trkpt lat="45.66599" lon="6.1566600000000005">
    <ele>704.8100000000001</ele>
   </trkpt>
   <trkpt lat="45.66610000000001" lon="6.15669">
    <ele>703.4300000000001</ele>
   </trkpt>
   <trkpt lat="45.666470000000004" lon="6.156540000000001">
    <ele>701.47</ele>
   </trkpt>
   <trkpt lat="45.66689" lon="6.156440000000001">
    <ele>695.73</ele>
   </trkpt>
   <trkpt lat="45.666940000000004" lon="6.156460000000001">
    <ele>695.73</ele>
   </trkpt>
   <trkpt lat="45.66698" lon="6.1565">
    <ele>695.73</ele>
   </trkpt>
   <trkpt lat="45.66698" lon="6.156700000000001">
    <ele>693.6000000000001</ele>
   </trkpt>
   <trkpt lat="45.666940000000004" lon="6.156750000000001">
    <ele>693.6000000000001</ele>
   </trkpt>
   <trkpt lat="45.66664" lon="6.15699">
    <ele>687.6000000000001</ele>
   </trkpt>
   <trkpt lat="45.66658" lon="6.15709">
    <ele>687.6000000000001</ele>
   </trkpt>
   <trkpt lat="45.66657000000001" lon="6.157170000000001">
    <ele>687.6000000000001</ele>
   </trkpt>
   <trkpt lat="45.66659000000001" lon="6.1573">
    <ele>686.6500000000001</ele>
   </trkpt>
   <trkpt lat="45.66695000000001" lon="6.15704">
    <ele>686.12</ele>
   </trkpt>
   <trkpt lat="45.66714" lon="6.157330000000001">
    <ele>688.19</ele>
   </trkpt>
   <trkpt lat="45.66729" lon="6.1578800000000005">
    <ele>689.2</ele>
   </trkpt>
   <trkpt lat="45.66749000317289" lon="6.15873499687699">
    <ele>690.7</ele>
   </trkpt>
   <trkpt lat="45.66769" lon="6.159590000000001">
    <ele>696.2</ele>
   </trkpt>
   <trkpt lat="45.66774" lon="6.1599200000000005">
    <ele>699.3900000000001</ele>
   </trkpt>
   <trkpt lat="45.667770000000004" lon="6.159940000000001">
    <ele>699.3900000000001</ele>
   </trkpt>
   <trkpt lat="45.66787" lon="6.16007">
    <ele>699.3900000000001</ele>
   </trkpt>
   <trkpt lat="45.66794" lon="6.160120000000001">
    <ele>700.11</ele>
   </trkpt>
   <trkpt lat="45.66803" lon="6.16016">
    <ele>701.96</ele>
   </trkpt>
   <trkpt lat="45.66836000000001" lon="6.16037">
    <ele>705.2400000000001</ele>
   </trkpt>
   <trkpt lat="45.6685" lon="6.160430000000001">
    <ele>705.2400000000001</ele>
   </trkpt>
   <trkpt lat="45.668990000105865" lon="6.16048999948579">
    <ele>710.7800000000001</ele>
   </trkpt>
   <trkpt lat="45.66948000000001" lon="6.160550000000001">
    <ele>716.07</ele>
   </trkpt>
   <trkpt lat="45.66955" lon="6.160590000000001">
    <ele>716.07</ele>
   </trkpt>
   <trkpt lat="45.669630000000005" lon="6.160730000000001">
    <ele>716.25</ele>
   </trkpt>
   <trkpt lat="45.66968000000001" lon="6.160690000000001">
    <ele>716.25</ele>
   </trkpt>
   <trkpt lat="45.66973" lon="6.1606700000000005">
    <ele>717.7300000000001</ele>
   </trkpt>
   <trkpt lat="45.669830000000005" lon="6.1606700000000005">
    <ele>717.7300000000001</ele>
   </trkpt>
  </trkseg>
 </trk>
</gpx>
