<?xml version="1.0" encoding="UTF-8"?>
<gpx creator="StravaGPX" version="1.1" xmlns="http://www.topografix.com/GPX/1/1" xmlns:xsi="http://www.w3.org/2001/XMLSchema-instance" xsi:schemaLocation="http://www.topografix.com/GPX/1/1 http://www.topografix.com/GPX/1/1/gpx.xsd">
 <metadata>
  <name>14 2000m section 6</name>
  <author>
   <name>emilien Marion</name>
   <link href="https://www.strava.com/athletes/79224240"/>
  </author>
  <copyright author="OpenStreetMap contributors">
   <year>2020</year>
   <license>https://www.openstreetmap.org/copyright</license>
  </copyright>
  <link href="https://www.strava.com/routes/3492916393100549948"/>
 </metadata>
 <trk>
  <name>14 2000m section 6</name>
  <link href="https://www.strava.com/routes/3492916393100549948"/>
  <type>running</type>
  <trkseg>
   <trkpt lat="45.66971" lon="6.1606700000000005">
    <ele>716.9200000000001</ele>
   </trkpt>
   <trkpt lat="45.66982" lon="6.1606700000000005">
    <ele>716.9200000000001</ele>
   </trkpt>
   <trkpt lat="45.66989" lon="6.1607">
    <ele>716.9200000000001</ele>
   </trkpt>
   <trkpt lat="45.67016" lon="6.16089">
    <ele>720.53</ele>
   </trkpt>
   <trkpt lat="45.670300000000005" lon="6.160950000000001">
    <ele>721.52</ele>
   </trkpt>
   <trkpt lat="45.67042000000001" lon="6.16098">
    <ele>723.53</ele>
   </trkpt>
   <trkpt lat="45.67085" lon="6.16096">
    <ele>726.4100000000001</ele>
   </trkpt>
   <trkpt lat="45.67125" lon="6.16084">
    <ele>729.9000000000001</ele>
   </trkpt>
   <trkpt lat="45.67139" lon="6.1607400000000005">
    <ele>732.0500000000001</ele>
   </trkpt>
   <trkpt lat="45.671690000000005" lon="6.1603">
    <ele>731.9000000000001</ele>
   </trkpt>
   <trkpt lat="45.67179" lon="6.16028">
    <ele>731.9000000000001</ele>
   </trkpt>
   <trkpt lat="45.6721" lon="6.16009">
    <ele>735.8</ele>
   </trkpt>
   <trkpt lat="45.672290000000004" lon="6.160030000000001">
    <ele>737.99</ele>
   </trkpt>
   <trkpt lat="45.67307" lon="6.160310000000001">
    <ele>739.24</ele>
   </trkpt>
   <trkpt lat="45.673280000000005" lon="6.16033">
    <ele>741.53</ele>
   </trkpt>
   <trkpt lat="45.67338" lon="6.160430000000001">
    <ele>745.29</ele>
   </trkpt>
   <trkpt lat="45.67347" lon="6.1606000000000005">
    <ele>748.65</ele>
   </trkpt>
   <trkpt lat="45.673570000000005" lon="6.1607400000000005">
    <ele>750.08</ele>
   </trkpt>
   <trkpt lat="45.674060000000004" lon="6.16096">
    <ele>755.38</ele>
   </trkpt>
   <trkpt lat="45.67436000000001" lon="6.16098">
    <ele>756.96</ele>
   </trkpt>
   <trkpt lat="45.674710000000005" lon="6.160950000000001">
    <ele>759.59</ele>
   </trkpt>
   <trkpt lat="45.674910000000004" lon="6.16101">
    <ele>763.4399999999999</ele>
   </trkpt>
   <trkpt lat="45.675540000000005" lon="6.160990000000001">
    <ele>773.95</ele>
   </trkpt>
   <trkpt lat="45.675760000000004" lon="6.160920000000001">
    <ele>775.9100000000001</ele>
   </trkpt>
   <trkpt lat="45.676050000000004" lon="6.16091">
    <ele>777.57</ele>
   </trkpt>
   <trkpt lat="45.676590000000004" lon="6.160990000000001">
    <ele>779.6500000000001</ele>
   </trkpt>
   <trkpt lat="45.67705" lon="6.161160000000001">
    <ele>785.85</ele>
   </trkpt>
   <trkpt lat="45.677420000000005" lon="6.16122">
    <ele>791.0800000000002</ele>
   </trkpt>
   <trkpt lat="45.677760000000006" lon="6.161410000000001">
    <ele>798.09</ele>
   </trkpt>
   <trkpt lat="45.67801" lon="6.161390000000001">
    <ele>799.7900000000001</ele>
   </trkpt>
   <trkpt lat="45.6781" lon="6.161440000000001">
    <ele>800.5300000000001</ele>
   </trkpt>
   <trkpt lat="45.678160000000005" lon="6.16155">
    <ele>801.52</ele>
   </trkpt>
   <trkpt lat="45.678250000000006" lon="6.161790000000001">
    <ele>803.08</ele>
   </trkpt>
   <trkpt lat="45.67831" lon="6.161840000000001">
    <ele>803.4300000000001</ele>
   </trkpt>
   <trkpt lat="45.67837" lon="6.16185">
    <ele>803.8400000000001</ele>
   </trkpt>
   <trkpt lat="45.678560000000004" lon="6.161700000000001">
    <ele>806.2600000000001</ele>
   </trkpt>
   <trkpt lat="45.67871" lon="6.1616800000000005">
    <ele>806.6200000000001</ele>
   </trkpt>
   <trkpt lat="45.67882" lon="6.161810000000001">
    <ele>808.48</ele>
   </trkpt>
   <trkpt lat="45.67927" lon="6.1622200000000005">
    <ele>810.21</ele>
   </trkpt>
   <trkpt lat="45.67970500186984" lon="6.162874994905299">
    <ele>824.09</ele>
   </trkpt>
   <trkpt lat="45.68014" lon="6.163530000000001">
    <ele>835.76</ele>
   </trkpt>
   <trkpt lat="45.6803" lon="6.1637200000000005">
    <ele>836.4300000000001</ele>
   </trkpt>
   <trkpt lat="45.680350000000004" lon="6.163810000000001">
    <ele>836.9200000000001</ele>
   </trkpt>
   <trkpt lat="45.68045" lon="6.16384">
    <ele>837.59</ele>
   </trkpt>
   <trkpt lat="45.68052" lon="6.163930000000001">
    <ele>838.3600000000001</ele>
   </trkpt>
   <trkpt lat="45.680580000000006" lon="6.163970000000001">
    <ele>838.3600000000001</ele>
   </trkpt>
   <trkpt lat="45.68075" lon="6.164000000000001">
    <ele>840.7800000000001</ele>
   </trkpt>
   <trkpt lat="45.680910000000004" lon="6.164070000000001">
    <ele>842.8700000000001</ele>
   </trkpt>
   <trkpt lat="45.68113" lon="6.1642600000000005">
    <ele>846.1500000000001</ele>
   </trkpt>
   <trkpt lat="45.68146" lon="6.16462">
    <ele>854.69</ele>
   </trkpt>
   <trkpt lat="45.681560000000005" lon="6.164650000000001">
    <ele>855.5200000000001</ele>
   </trkpt>
   <trkpt lat="45.68164" lon="6.16464">
    <ele>855.5300000000001</ele>
   </trkpt>
   <trkpt lat="45.68179000000001" lon="6.164650000000001">
    <ele>855.99</ele>
   </trkpt>
   <trkpt lat="45.68189" lon="6.164700000000001">
    <ele>856.7600000000001</ele>
   </trkpt>
   <trkpt lat="45.68202" lon="6.164720000000001">
    <ele>857.8800000000001</ele>
   </trkpt>
   <trkpt lat="45.682100000000005" lon="6.164840000000001">
    <ele>860.45</ele>
   </trkpt>
   <trkpt lat="45.6822" lon="6.16492">
    <ele>861.1500000000001</ele>
   </trkpt>
   <trkpt lat="45.682320000000004" lon="6.16492">
    <ele>861.5100000000001</ele>
   </trkpt>
   <trkpt lat="45.682390000000005" lon="6.16499">
    <ele>861.8800000000001</ele>
   </trkpt>
   <trkpt lat="45.68253000000001" lon="6.16504">
    <ele>862.84</ele>
   </trkpt>
   <trkpt lat="45.68263" lon="6.16502">
    <ele>863.1</ele>
   </trkpt>
   <trkpt lat="45.68285" lon="6.16516">
    <ele>865.7600000000001</ele>
   </trkpt>
   <trkpt lat="45.68292" lon="6.16516">
    <ele>866.1800000000001</ele>
   </trkpt>
   <trkpt lat="45.68307" lon="6.165220000000001">
    <ele>867.0600000000001</ele>
   </trkpt>
   <trkpt lat="45.68314" lon="6.1652000000000005">
    <ele>867.0600000000001</ele>
   </trkpt>
   <trkpt lat="45.68321" lon="6.165220000000001">
    <ele>867.1500000000001</ele>
   </trkpt>
   <trkpt lat="45.68323" lon="6.16525">
    <ele>867.1500000000001</ele>
   </trkpt>
   <trkpt lat="45.682520000000004" lon="6.1653400000000005">
    <ele>880.8100000000001</ele>
   </trkpt>
   <trkpt lat="45.682430000000004" lon="6.165290000000001">
    <ele>881.02</ele>
   </trkpt>
   <trkpt lat="45.682120000000005" lon="6.16537">
    <ele>880.5400000000001</ele>
   </trkpt>
   <trkpt lat="45.68207" lon="6.16532">
    <ele>880.5100000000001</ele>
   </trkpt>
   <trkpt lat="45.681960000000004" lon="6.16535">
    <ele>880.65</ele>
   </trkpt>
   <trkpt lat="45.68175" lon="6.16532">
    <ele>881.3000000000001</ele>
   </trkpt>
   <trkpt lat="45.68155" lon="6.165400000000001">
    <ele>882.6</ele>
   </trkpt>
   <trkpt lat="45.681450000000005" lon="6.1655500000000005">
    <ele>883.68</ele>
   </trkpt>
   <trkpt lat="45.681180000000005" lon="6.165540000000001">
    <ele>885.4900000000001</ele>
   </trkpt>
   <trkpt lat="45.68108" lon="6.165590000000001">
    <ele>886.59</ele>
   </trkpt>
   <trkpt lat="45.681020000000004" lon="6.16586">
    <ele>887.36</ele>
   </trkpt>
   <trkpt lat="45.680890000000005" lon="6.165970000000001">
    <ele>887.72</ele>
   </trkpt>
   <trkpt lat="45.68068" lon="6.166320000000001">
    <ele>887.7800000000001</ele>
   </trkpt>
   <trkpt lat="45.68039" lon="6.1666300000000005">
    <ele>887.36</ele>
   </trkpt>
   <trkpt lat="45.680200000000006" lon="6.166900000000001">
    <ele>887.58</ele>
   </trkpt>
   <trkpt lat="45.679840000000006" lon="6.167300000000001">
    <ele>889.62</ele>
   </trkpt>
   <trkpt lat="45.67992" lon="6.167440000000001">
    <ele>891.4200000000001</ele>
   </trkpt>
   <trkpt lat="45.68009000000001" lon="6.16821">
    <ele>902.3100000000001</ele>
   </trkpt>
   <trkpt lat="45.680330000000005" lon="6.1688">
    <ele>920.54</ele>
   </trkpt>
   <trkpt lat="45.680460000000004" lon="6.168760000000001">
    <ele>922.3800000000001</ele>
   </trkpt>
   <trkpt lat="45.680670000000006" lon="6.16879">
    <ele>923.9300000000001</ele>
   </trkpt>
   <trkpt lat="45.68113" lon="6.168990000000001">
    <ele>926.42</ele>
   </trkpt>
   <trkpt lat="45.68133" lon="6.169060000000001">
    <ele>927.2300000000001</ele>
   </trkpt>
   <trkpt lat="45.681560000000005" lon="6.169090000000001">
    <ele>927.82</ele>
   </trkpt>
   <trkpt lat="45.681830000000005" lon="6.16908">
    <ele>928.9000000000001</ele>
   </trkpt>
   <trkpt lat="45.68234" lon="6.168830000000001">
    <ele>930.8100000000001</ele>
   </trkpt>
   <trkpt lat="45.682320000000004" lon="6.168990000000001">
    <ele>931.97</ele>
   </trkpt>
   <trkpt lat="45.6822" lon="6.169340000000001">
    <ele>935.7800000000001</ele>
   </trkpt>
   <trkpt lat="45.682230000000004" lon="6.1695400000000005">
    <ele>937.5500000000001</ele>
   </trkpt>
   <trkpt lat="45.68227" lon="6.169670000000001">
    <ele>939.85</ele>
   </trkpt>
   <trkpt lat="45.68216" lon="6.169840000000001">
    <ele>941.0100000000001</ele>
   </trkpt>
   <trkpt lat="45.68207" lon="6.170050000000001">
    <ele>944.0500000000001</ele>
   </trkpt>
   <trkpt lat="45.682010000000005" lon="6.170280000000001">
    <ele>948.4000000000001</ele>
   </trkpt>
   <trkpt lat="45.681900000000006" lon="6.1704300000000005">
    <ele>948.4000000000001</ele>
   </trkpt>
   <trkpt lat="45.681670000000004" lon="6.170560000000001">
    <ele>952.52</ele>
   </trkpt>
   <trkpt lat="45.68139" lon="6.170610000000001">
    <ele>956.9200000000001</ele>
   </trkpt>
   <trkpt lat="45.68133" lon="6.170660000000001">
    <ele>956.9200000000001</ele>
   </trkpt>
   <trkpt lat="45.68115" lon="6.170990000000001">
    <ele>962.47</ele>
   </trkpt>
   <trkpt lat="45.680890000000005" lon="6.1713000000000005">
    <ele>965.3800000000001</ele>
   </trkpt>
   <trkpt lat="45.68076000000001" lon="6.1715100000000005">
    <ele>967.8100000000001</ele>
   </trkpt>
   <trkpt lat="45.680670000000006" lon="6.17175">
    <ele>970.37</ele>
   </trkpt>
   <trkpt lat="45.680600000000005" lon="6.17208">
    <ele>974.2100000000002</ele>
   </trkpt>
   <trkpt lat="45.68063" lon="6.1724000000000006">
    <ele>980.3600000000001</ele>
   </trkpt>
   <trkpt lat="45.680580000000006" lon="6.1726600000000005">
    <ele>986.13</ele>
   </trkpt>
   <trkpt lat="45.68057" lon="6.17281">
    <ele>987.01</ele>
   </trkpt>
   <trkpt lat="45.680600000000005" lon="6.17299">
    <ele>989.33</ele>
   </trkpt>
   <trkpt lat="45.680640000000004" lon="6.173070000000001">
    <ele>990.65</ele>
   </trkpt>
   <trkpt lat="45.680710000000005" lon="6.173070000000001">
    <ele>990.65</ele>
   </trkpt>
   <trkpt lat="45.680780000000006" lon="6.17299">
    <ele>994.7800000000001</ele>
   </trkpt>
   <trkpt lat="45.68088" lon="6.172820000000001">
    <ele>995.5500000000001</ele>
   </trkpt>
   <trkpt lat="45.680930000000004" lon="6.17281">
    <ele>996.3600000000001</ele>
   </trkpt>
   <trkpt lat="45.680960000000006" lon="6.172860000000001">
    <ele>996.3600000000001</ele>
   </trkpt>
   <trkpt lat="45.680960000000006" lon="6.17335">
    <ele>1003.1000000000001</ele>
   </trkpt>
   <trkpt lat="45.68094000000001" lon="6.173470000000001">
    <ele>1004.8700000000001</ele>
   </trkpt>
   <trkpt lat="45.680780000000006" lon="6.17372">
    <ele>1009.6500000000001</ele>
   </trkpt>
   <trkpt lat="45.68075" lon="6.1738100000000005">
    <ele>1013.9500000000002</ele>
   </trkpt>
   <trkpt lat="45.680730000000004" lon="6.17396">
    <ele>1014.98</ele>
   </trkpt>
   <trkpt lat="45.680820000000004" lon="6.1740900000000005">
    <ele>1017.7800000000001</ele>
   </trkpt>
   <trkpt lat="45.680890000000005" lon="6.17405">
    <ele>1018.64</ele>
   </trkpt>
   <trkpt lat="45.68103000000001" lon="6.174130000000001">
    <ele>1021.1000000000001</ele>
   </trkpt>
   <trkpt lat="45.6811" lon="6.1742300000000006">
    <ele>1022.81</ele>
   </trkpt>
   <trkpt lat="45.680980000000005" lon="6.1745">
    <ele>1027.25</ele>
   </trkpt>
   <trkpt lat="45.68097" lon="6.1748400000000006">
    <ele>1032.72</ele>
   </trkpt>
   <trkpt lat="45.681000000000004" lon="6.17501">
    <ele>1035.17</ele>
   </trkpt>
   <trkpt lat="45.68112000000001" lon="6.1752">
    <ele>1038.8000000000002</ele>
   </trkpt>
   <trkpt lat="45.681430000000006" lon="6.17555">
    <ele>1045.8</ele>
   </trkpt>
   <trkpt lat="45.68155" lon="6.175750000000001">
    <ele>1050.17</ele>
   </trkpt>
   <trkpt lat="45.681650000000005" lon="6.176">
    <ele>1053.26</ele>
   </trkpt>
   <trkpt lat="45.681740000000005" lon="6.1766000000000005">
    <ele>1065.6000000000001</ele>
   </trkpt>
   <trkpt lat="45.68173" lon="6.176690000000001">
    <ele>1065.7</ele>
   </trkpt>
   <trkpt lat="45.681720000000006" lon="6.17687">
    <ele>1065.7</ele>
   </trkpt>
   <trkpt lat="45.681670000000004" lon="6.17701">
    <ele>1065.45</ele>
   </trkpt>
   <trkpt lat="45.68157" lon="6.177130000000001">
    <ele>1069.48</ele>
   </trkpt>
   <trkpt lat="45.68153" lon="6.177250000000001">
    <ele>1074.13</ele>
   </trkpt>
   <trkpt lat="45.68150000000001" lon="6.1774700000000005">
    <ele>1077.02</ele>
   </trkpt>
   <trkpt lat="45.681520000000006" lon="6.178070000000001">
    <ele>1089.11</ele>
   </trkpt>
   <trkpt lat="45.681580000000004" lon="6.178190000000001">
    <ele>1093.55</ele>
   </trkpt>
   <trkpt lat="45.681610000000006" lon="6.1782">
    <ele>1093.55</ele>
   </trkpt>
   <trkpt lat="45.681960000000004" lon="6.179270000000001">
    <ele>1121.3700000000001</ele>
   </trkpt>
   <trkpt lat="45.68216" lon="6.17949">
    <ele>1126.7500000000002</ele>
   </trkpt>
   <trkpt lat="45.682520000000004" lon="6.179780000000001">
    <ele>1152.56</ele>
   </trkpt>
   <trkpt lat="45.68272" lon="6.17989">
    <ele>1162.2800000000002</ele>
   </trkpt>
   <trkpt lat="45.683130000000006" lon="6.180930000000001">
    <ele>1198.67</ele>
   </trkpt>
   <trkpt lat="45.683330000000005" lon="6.18123">
    <ele>1207.0</ele>
   </trkpt>
   <trkpt lat="45.683510000000005" lon="6.182270000000001">
    <ele>1250.7100000000003</ele>
   </trkpt>
   <trkpt lat="45.683640000000004" lon="6.18278">
    <ele>1274.99</ele>
   </trkpt>
   <trkpt lat="45.68361" lon="6.183090000000001">
    <ele>1291.5700000000002</ele>
   </trkpt>
   <trkpt lat="45.683710000000005" lon="6.1833800000000005">
    <ele>1310.65</ele>
   </trkpt>
   <trkpt lat="45.683690000000006" lon="6.184">
    <ele>1331.55</ele>
   </trkpt>
   <trkpt lat="45.68372" lon="6.18437">
    <ele>1344.72</ele>
   </trkpt>
   <trkpt lat="45.68372" lon="6.18475">
    <ele>1357.9</ele>
   </trkpt>
   <trkpt lat="45.68377" lon="6.184900000000001">
    <ele>1367.01</ele>
   </trkpt>
   <trkpt lat="45.68377" lon="6.18505">
    <ele>1367.01</ele>
   </trkpt>
   <trkpt lat="45.68383" lon="6.18519">
    <ele>1383.15</ele>
   </trkpt>
   <trkpt lat="45.68385000000001" lon="6.18545">
    <ele>1397.44</ele>
   </trkpt>
   <trkpt lat="45.68403000000001" lon="6.185860000000001">
    <ele>1412.2700000000002</ele>
   </trkpt>
   <trkpt lat="45.68417" lon="6.186380000000001">
    <ele>1434.1000000000001</ele>
   </trkpt>
   <trkpt lat="45.684090000000005" lon="6.18681">
    <ele>1451.95</ele>
   </trkpt>
   <trkpt lat="45.683840000000004" lon="6.1875100000000005">
    <ele>1478.55</ele>
   </trkpt>
   <trkpt lat="45.683780000000006" lon="6.18796">
    <ele>1484.91</ele>
   </trkpt>
   <trkpt lat="45.683580000000006" lon="6.188230000000001">
    <ele>1496.72</ele>
   </trkpt>
   <trkpt lat="45.68354" lon="6.1883300000000006">
    <ele>1498.4400000000003</ele>
   </trkpt>
   <trkpt lat="45.68357" lon="6.188390000000001">
    <ele>1500.0000000000002</ele>
   </trkpt>
   <trkpt lat="45.683620000000005" lon="6.188370000000001">
    <ele>1501.3100000000002</ele>
   </trkpt>
   <trkpt lat="45.68361" lon="6.188510000000001">
    <ele>1503.1200000000001</ele>
   </trkpt>
   <trkpt lat="45.68343" lon="6.188630000000001">
    <ele>1504.2900000000002</ele>
   </trkpt>
   <trkpt lat="45.68323" lon="6.18864">
    <ele>1506.0000000000002</ele>
   </trkpt>
   <trkpt lat="45.683020000000006" lon="6.1886">
    <ele>1512.41</ele>
   </trkpt>
   <trkpt lat="45.68281" lon="6.1885">
    <ele>1518.1100000000001</ele>
   </trkpt>
   <trkpt lat="45.68276" lon="6.188490000000001">
    <ele>1519.38</ele>
   </trkpt>
   <trkpt lat="45.682750000000006" lon="6.188540000000001">
    <ele>1520.8600000000001</ele>
   </trkpt>
   <trkpt lat="45.6828" lon="6.1886600000000005">
    <ele>1524.44</ele>
   </trkpt>
   <trkpt lat="45.68276" lon="6.1886600000000005">
    <ele>1524.44</ele>
   </trkpt>
   <trkpt lat="45.68263" lon="6.1886">
    <ele>1532.65</ele>
   </trkpt>
   <trkpt lat="45.682520000000004" lon="6.188510000000001">
    <ele>1540.28</ele>
   </trkpt>
   <trkpt lat="45.68242" lon="6.18853">
    <ele>1540.28</ele>
   </trkpt>
   <trkpt lat="45.68263" lon="6.18876">
    <ele>1551.8700000000001</ele>
   </trkpt>
   <trkpt lat="45.68267" lon="6.1889400000000006">
    <ele>1557.91</ele>
   </trkpt>
   <trkpt lat="45.682660000000006" lon="6.189050000000001">
    <ele>1559.2</ele>
   </trkpt>
   <trkpt lat="45.68262000000001" lon="6.189050000000001">
    <ele>1560.3600000000001</ele>
   </trkpt>
   <trkpt lat="45.68251" lon="6.18892">
    <ele>1564.38</ele>
   </trkpt>
   <trkpt lat="45.68231" lon="6.188750000000001">
    <ele>1569.7200000000003</ele>
   </trkpt>
   <trkpt lat="45.68207" lon="6.188700000000001">
    <ele>1575.0600000000002</ele>
   </trkpt>
   <trkpt lat="45.681760000000004" lon="6.188680000000001">
    <ele>1583.73</ele>
   </trkpt>
   <trkpt lat="45.6816" lon="6.188720000000001">
    <ele>1586.99</ele>
   </trkpt>
   <trkpt lat="45.68142" lon="6.188960000000001">
    <ele>1585.8400000000001</ele>
   </trkpt>
   <trkpt lat="45.681290000000004" lon="6.189010000000001">
    <ele>1589.14</ele>
   </trkpt>
   <trkpt lat="45.68124" lon="6.18907">
    <ele>1589.14</ele>
   </trkpt>
   <trkpt lat="45.681110000000004" lon="6.189150000000001">
    <ele>1595.64</ele>
   </trkpt>
   <trkpt lat="45.68106" lon="6.18923">
    <ele>1599.0600000000002</ele>
   </trkpt>
   <trkpt lat="45.681070000000005" lon="6.18935">
    <ele>1604.63</ele>
   </trkpt>
   <trkpt lat="45.68112000000001" lon="6.18942">
    <ele>1604.63</ele>
   </trkpt>
   <trkpt lat="45.68112000000001" lon="6.1894800000000005">
    <ele>1604.63</ele>
   </trkpt>
   <trkpt lat="45.68117" lon="6.18958">
    <ele>1614.3100000000002</ele>
   </trkpt>
   <trkpt lat="45.681180000000005" lon="6.18972">
    <ele>1614.3100000000002</ele>
   </trkpt>
   <trkpt lat="45.681230000000006" lon="6.189830000000001">
    <ele>1621.8400000000001</ele>
   </trkpt>
   <trkpt lat="45.68121000000001" lon="6.189970000000001">
    <ele>1625.48</ele>
   </trkpt>
   <trkpt lat="45.681160000000006" lon="6.190040000000001">
    <ele>1625.48</ele>
   </trkpt>
   <trkpt lat="45.68119" lon="6.190150000000001">
    <ele>1632.54</ele>
   </trkpt>
   <trkpt lat="45.681360000000005" lon="6.190130000000001">
    <ele>1638.21</ele>
   </trkpt>
   <trkpt lat="45.68146" lon="6.190180000000001">
    <ele>1642.3200000000002</ele>
   </trkpt>
   <trkpt lat="45.681520000000006" lon="6.19024">
    <ele>1642.3200000000002</ele>
   </trkpt>
   <trkpt lat="45.68150000000001" lon="6.1902800000000004">
    <ele>1652.9300000000003</ele>
   </trkpt>
   <trkpt lat="45.68150000000001" lon="6.190340000000001">
    <ele>1652.9300000000003</ele>
   </trkpt>
   <trkpt lat="45.68159000000001" lon="6.19038">
    <ele>1652.9300000000003</ele>
   </trkpt>
   <trkpt lat="45.681610000000006" lon="6.190410000000001">
    <ele>1652.9300000000003</ele>
   </trkpt>
   <trkpt lat="45.681450000000005" lon="6.190620000000001">
    <ele>1663.13</ele>
   </trkpt>
   <trkpt lat="45.68148" lon="6.1907000000000005">
    <ele>1663.13</ele>
   </trkpt>
   <trkpt lat="45.681450000000005" lon="6.19078">
    <ele>1675.25</ele>
   </trkpt>
   <trkpt lat="45.681470000000004" lon="6.19085">
    <ele>1675.25</ele>
   </trkpt>
   <trkpt lat="45.681230000000006" lon="6.191280000000001">
    <ele>1697.71</ele>
   </trkpt>
   <trkpt lat="45.681290000000004" lon="6.191330000000001">
    <ele>1697.71</ele>
   </trkpt>
   <trkpt lat="45.681200000000004" lon="6.19151">
    <ele>1699.89</ele>
   </trkpt>
   <trkpt lat="45.68119" lon="6.191660000000001">
    <ele>1712.47</ele>
   </trkpt>
   <trkpt lat="45.681140000000006" lon="6.191910000000001">
    <ele>1721.5900000000001</ele>
   </trkpt>
   <trkpt lat="45.681140000000006" lon="6.192130000000001">
    <ele>1729.0</ele>
   </trkpt>
   <trkpt lat="45.68117" lon="6.19223">
    <ele>1731.23</ele>
   </trkpt>
   <trkpt lat="45.681160000000006" lon="6.1923">
    <ele>1733.16</ele>
   </trkpt>
   <trkpt lat="45.681070000000005" lon="6.19251">
    <ele>1738.19</ele>
   </trkpt>
   <trkpt lat="45.68106" lon="6.192660000000001">
    <ele>1742.96</ele>
   </trkpt>
   <trkpt lat="45.681070000000005" lon="6.19289">
    <ele>1748.9800000000002</ele>
   </trkpt>
   <trkpt lat="45.681070000000005" lon="6.19294">
    <ele>1748.9800000000002</ele>
   </trkpt>
   <trkpt lat="45.68121000000001" lon="6.1929300000000005">
    <ele>1752.5700000000002</ele>
   </trkpt>
   <trkpt lat="45.68135" lon="6.1927900000000005">
    <ele>1760.5400000000002</ele>
   </trkpt>
   <trkpt lat="45.68142" lon="6.19265">
    <ele>1762.04</ele>
   </trkpt>
   <trkpt lat="45.68150000000001" lon="6.1926000000000005">
    <ele>1766.3000000000002</ele>
   </trkpt>
   <trkpt lat="45.6816" lon="6.19261">
    <ele>1771.02</ele>
   </trkpt>
   <trkpt lat="45.68198" lon="6.1930000000000005">
    <ele>1781.7800000000002</ele>
   </trkpt>
   <trkpt lat="45.68211" lon="6.19305">
    <ele>1783.3900000000003</ele>
   </trkpt>
   <trkpt lat="45.6826450006692" lon="6.1934849957132085">
    <ele>1804.16</ele>
   </trkpt>
   <trkpt lat="45.68318000000001" lon="6.19392">
    <ele>1828.4300000000003</ele>
   </trkpt>
   <trkpt lat="45.6839" lon="6.19399">
    <ele>1842.5900000000001</ele>
   </trkpt>
   <trkpt lat="45.684380000000004" lon="6.193840000000001">
    <ele>1856.88</ele>
   </trkpt>
   <trkpt lat="45.68507" lon="6.193770000000001">
    <ele>1875.25</ele>
   </trkpt>
   <trkpt lat="45.685520000000004" lon="6.193580000000001">
    <ele>1893.9800000000002</ele>
   </trkpt>
   <trkpt lat="45.685950000000005" lon="6.19364">
    <ele>1907.96</ele>
   </trkpt>
   <trkpt lat="45.68643" lon="6.193530000000001">
    <ele>1924.9900000000002</ele>
   </trkpt>
   <trkpt lat="45.68663" lon="6.19345">
    <ele>1932.4500000000003</ele>
   </trkpt>
   <trkpt lat="45.68695" lon="6.19338">
    <ele>1941.42</ele>
   </trkpt>
   <trkpt lat="45.687020000000004" lon="6.1934000000000005">
    <ele>1945.17</ele>
   </trkpt>
   <trkpt lat="45.68704" lon="6.193370000000001">
    <ele>1945.17</ele>
   </trkpt>
   <trkpt lat="45.68706" lon="6.19338">
    <ele>1947.25</ele>
   </trkpt>
   <trkpt lat="45.68708" lon="6.193350000000001">
    <ele>1949.4700000000003</ele>
   </trkpt>
   <trkpt lat="45.68715" lon="6.193350000000001">
    <ele>1949.4700000000003</ele>
   </trkpt>
   <trkpt lat="45.687180000000005" lon="6.193320000000001">
    <ele>1956.38</ele>
   </trkpt>
   <trkpt lat="45.687290000000004" lon="6.193270000000001">
    <ele>1960.41</ele>
   </trkpt>
   <trkpt lat="45.687400000000004" lon="6.19334">
    <ele>1962.14</ele>
   </trkpt>
   <trkpt lat="45.68746" lon="6.19334">
    <ele>1966.8400000000001</ele>
   </trkpt>
   <trkpt lat="45.687490000000004" lon="6.193320000000001">
    <ele>1966.8400000000001</ele>
   </trkpt>
   <trkpt lat="45.68759000000001" lon="6.193320000000001">
    <ele>1972.3000000000002</ele>
   </trkpt>
   <trkpt lat="45.68761000000001" lon="6.19329">
    <ele>1972.3000000000002</ele>
   </trkpt>
   <trkpt lat="45.68770000000001" lon="6.193280000000001">
    <ele>1978.5400000000002</ele>
   </trkpt>
   <trkpt lat="45.68773" lon="6.19322">
    <ele>1978.5400000000002</ele>
   </trkpt>
   <trkpt lat="45.687810000000006" lon="6.19315">
    <ele>1982.93</ele>
   </trkpt>
   <trkpt lat="45.68789" lon="6.19312">
    <ele>1989.7000000000003</ele>
   </trkpt>
   <trkpt lat="45.687900000000006" lon="6.19308">
    <ele>1989.7000000000003</ele>
   </trkpt>
   <trkpt lat="45.688030000000005" lon="6.193060000000001">
    <ele>1994.0000000000002</ele>
   </trkpt>
   <trkpt lat="45.688100000000006" lon="6.1930000000000005">
    <ele>2000.2400000000002</ele>
   </trkpt>
   <trkpt lat="45.68813" lon="6.192950000000001">
    <ele>2002.1200000000001</ele>
   </trkpt>
   <trkpt lat="45.688190000000006" lon="6.1930000000000005">
    <ele>2003.69</ele>
   </trkpt>
   <trkpt lat="45.688460000000006" lon="6.19341">
    <ele>2008.4600000000003</ele>
   </trkpt>
   <trkpt lat="45.68849" lon="6.193510000000001">
    <ele>2009.8100000000002</ele>
   </trkpt>
   <trkpt lat="45.6886" lon="6.193670000000001">
    <ele>2012.6699999999998</ele>
   </trkpt>
   <trkpt lat="45.68862" lon="6.19376">
    <ele>2014.4700000000003</ele>
   </trkpt>
   <trkpt lat="45.688680000000005" lon="6.193880000000001">
    <ele>2016.0200000000002</ele>
   </trkpt>
   <trkpt lat="45.68871" lon="6.1940100000000005">
    <ele>2017.4600000000003</ele>
   </trkpt>
   <trkpt lat="45.68876" lon="6.194100000000001">
    <ele>2019.15</ele>
   </trkpt>
   <trkpt lat="45.68878" lon="6.1943">
    <ele>2023.0900000000001</ele>
   </trkpt>
   <trkpt lat="45.68887" lon="6.194660000000001">
    <ele>2035.8</ele>
   </trkpt>
   <trkpt lat="45.68889" lon="6.1948300000000005">
    <ele>2041.48</ele>
   </trkpt>
   <trkpt lat="45.68896" lon="6.194940000000001">
    <ele>2044.5000000000002</ele>
   </trkpt>
   <trkpt lat="45.68896" lon="6.195030000000001">
    <ele>2045.4500000000003</ele>
   </trkpt>
   <trkpt lat="45.68900000000001" lon="6.19512">
    <ele>2046.0000000000002</ele>
   </trkpt>
   <trkpt lat="45.68896" lon="6.19531">
    <ele>2044.9399999999998</ele>
   </trkpt>
   <trkpt lat="45.688950000000006" lon="6.195500000000001">
    <ele>2045.23</ele>
   </trkpt>
   <trkpt lat="45.688970000000005" lon="6.1957">
    <ele>2049.8700000000003</ele>
   </trkpt>
   <trkpt lat="45.688990000000004" lon="6.195760000000001">
    <ele>2052.41</ele>
   </trkpt>
   <trkpt lat="45.689020000000006" lon="6.19577">
    <ele>2055.28</ele>
   </trkpt>
   <trkpt lat="45.689020000000006" lon="6.19585">
    <ele>2055.28</ele>
   </trkpt>
   <trkpt lat="45.68905" lon="6.195860000000001">
    <ele>2064.3700000000003</ele>
   </trkpt>
   <trkpt lat="45.689060000000005" lon="6.19589">
    <ele>2064.3700000000003</ele>
   </trkpt>
   <trkpt lat="45.68905" lon="6.19603">
    <ele>2070.2000000000003</ele>
   </trkpt>
   <trkpt lat="45.689080000000004" lon="6.1960500000000005">
    <ele>2070.2000000000003</ele>
   </trkpt>
   <trkpt lat="45.68909" lon="6.19613">
    <ele>2078.55</ele>
   </trkpt>
   <trkpt lat="45.68905" lon="6.19617">
    <ele>2078.55</ele>
   </trkpt>
   <trkpt lat="45.68907" lon="6.1961900000000005">
    <ele>2078.55</ele>
   </trkpt>
   <trkpt lat="45.689060000000005" lon="6.19629">
    <ele>2083.92</ele>
   </trkpt>
   <trkpt lat="45.68911000000001" lon="6.19636">
    <ele>2088.36</ele>
   </trkpt>
   <trkpt lat="45.68921" lon="6.19643">
    <ele>2090.67</ele>
   </trkpt>
   <trkpt lat="45.6893" lon="6.196440000000001">
    <ele>2091.24</ele>
   </trkpt>
   <trkpt lat="45.68941" lon="6.196400000000001">
    <ele>2091.03</ele>
   </trkpt>
   <trkpt lat="45.68947000000001" lon="6.19643">
    <ele>2090.94</ele>
   </trkpt>
   <trkpt lat="45.689510000000006" lon="6.19653">
    <ele>2091.28</ele>
   </trkpt>
   <trkpt lat="45.68967000000001" lon="6.196490000000001">
    <ele>2093.89</ele>
   </trkpt>
   <trkpt lat="45.68974" lon="6.196510000000001">
    <ele>2094.57</ele>
   </trkpt>
   <trkpt lat="45.68977" lon="6.196490000000001">
    <ele>2094.57</ele>
   </trkpt>
   <trkpt lat="45.68979" lon="6.19653">
    <ele>2095.7799999999997</ele>
   </trkpt>
   <trkpt lat="45.689870000000006" lon="6.1965200000000005">
    <ele>2097.4700000000003</ele>
   </trkpt>
   <trkpt lat="45.689890000000005" lon="6.196560000000001">
    <ele>2097.4700000000003</ele>
   </trkpt>
   <trkpt lat="45.69012" lon="6.1965900000000005">
    <ele>2104.13</ele>
   </trkpt>
   <trkpt lat="45.690180000000005" lon="6.196630000000001">
    <ele>2106.3900000000003</ele>
   </trkpt>
   <trkpt lat="45.69021" lon="6.19669">
    <ele>2107.45</ele>
   </trkpt>
   <trkpt lat="45.690340000000006" lon="6.19674">
    <ele>2109.8</ele>
   </trkpt>
   <trkpt lat="45.69041000000001" lon="6.1968000000000005">
    <ele>2110.29</ele>
   </trkpt>
   <trkpt lat="45.690490000000004" lon="6.196820000000001">
    <ele>2110.3</ele>
   </trkpt>
   <trkpt lat="45.69053" lon="6.19678">
    <ele>2110.3</ele>
   </trkpt>
   <trkpt lat="45.690690000000004" lon="6.196840000000001">
    <ele>2109.83</ele>
   </trkpt>
   <trkpt lat="45.69079000000001" lon="6.196820000000001">
    <ele>2108.9800000000005</ele>
   </trkpt>
   <trkpt lat="45.69091" lon="6.196820000000001">
    <ele>2107.12</ele>
   </trkpt>
   <trkpt lat="45.69115" lon="6.19676">
    <ele>2106.32</ele>
   </trkpt>
   <trkpt lat="45.691210000000005" lon="6.19678">
    <ele>2106.7500000000005</ele>
   </trkpt>
   <trkpt lat="45.691250000000004" lon="6.19676">
    <ele>2107.37</ele>
   </trkpt>
   <trkpt lat="45.69135000000001" lon="6.19683">
    <ele>2109.4900000000002</ele>
   </trkpt>
   <trkpt lat="45.691430000000004" lon="6.19685">
    <ele>2110.78</ele>
   </trkpt>
   <trkpt lat="45.69156" lon="6.196840000000001">
    <ele>2113.8500000000004</ele>
   </trkpt>
   <trkpt lat="45.69162" lon="6.196770000000001">
    <ele>2113.8500000000004</ele>
   </trkpt>
   <trkpt lat="45.69167" lon="6.19678">
    <ele>2119.53</ele>
   </trkpt>
   <trkpt lat="45.691930000000006" lon="6.19676">
    <ele>2123.65</ele>
   </trkpt>
   <trkpt lat="45.69198" lon="6.1967300000000005">
    <ele>2123.99</ele>
   </trkpt>
   <trkpt lat="45.692040000000006" lon="6.1966600000000005">
    <ele>2124.03</ele>
   </trkpt>
   <trkpt lat="45.69212" lon="6.196630000000001">
    <ele>2124.48</ele>
   </trkpt>
   <trkpt lat="45.69232" lon="6.196420000000001">
    <ele>2123.12</ele>
   </trkpt>
   <trkpt lat="45.692330000000005" lon="6.1964500000000005">
    <ele>2123.12</ele>
   </trkpt>
   <trkpt lat="45.69238000000001" lon="6.196440000000001">
    <ele>2122.04</ele>
   </trkpt>
   <trkpt lat="45.692530000000005" lon="6.19624">
    <ele>2121.1000000000004</ele>
   </trkpt>
   <trkpt lat="45.692620000000005" lon="6.1961900000000005">
    <ele>2122.15</ele>
   </trkpt>
   <trkpt lat="45.692710000000005" lon="6.19617">
    <ele>2122.4500000000003</ele>
   </trkpt>
   <trkpt lat="45.69265" lon="6.196180000000001">
    <ele>2121.69</ele>
   </trkpt>
   <trkpt lat="45.692530000000005" lon="6.19624">
    <ele>2122.57</ele>
   </trkpt>
   <trkpt lat="45.69238000000001" lon="6.196440000000001">
    <ele>2121.1000000000004</ele>
   </trkpt>
   <trkpt lat="45.692330000000005" lon="6.1964500000000005">
    <ele>2121.0</ele>
   </trkpt>
   <trkpt lat="45.69232" lon="6.196420000000001">
    <ele>2121.0</ele>
   </trkpt>
   <trkpt lat="45.692280000000004" lon="6.1964500000000005">
    <ele>2121.0600000000004</ele>
   </trkpt>
   <trkpt lat="45.692240000000005" lon="6.19643">
    <ele>2121.26</ele>
   </trkpt>
   <trkpt lat="45.692190000000004" lon="6.19646">
    <ele>2121.6000000000004</ele>
   </trkpt>
   <trkpt lat="45.69207" lon="6.196470000000001">
    <ele>2122.36</ele>
   </trkpt>
   <trkpt lat="45.69189" lon="6.196650000000001">
    <ele>2119.3500000000004</ele>
   </trkpt>
   <trkpt lat="45.691860000000005" lon="6.196630000000001">
    <ele>2118.3300000000004</ele>
   </trkpt>
   <trkpt lat="45.6918" lon="6.19664">
    <ele>2117.1900000000005</ele>
   </trkpt>
   <trkpt lat="45.69178" lon="6.19662">
    <ele>2115.92</ele>
   </trkpt>
   <trkpt lat="45.69187" lon="6.196420000000001">
    <ele>2109.07</ele>
   </trkpt>
   <trkpt lat="45.691860000000005" lon="6.196370000000001">
    <ele>2109.07</ele>
   </trkpt>
   <trkpt lat="45.691700000000004" lon="6.19643">
    <ele>2104.9</ele>
   </trkpt>
   <trkpt lat="45.69164000000001" lon="6.19643">
    <ele>2103.59</ele>
   </trkpt>
   <trkpt lat="45.69154" lon="6.19639">
    <ele>2101.29</ele>
   </trkpt>
   <trkpt lat="45.69144000000001" lon="6.19643">
    <ele>2097.28</ele>
   </trkpt>
   <trkpt lat="45.69142" lon="6.19643">
    <ele>2097.28</ele>
   </trkpt>
   <trkpt lat="45.691410000000005" lon="6.19641">
    <ele>2097.28</ele>
   </trkpt>
   <trkpt lat="45.69145" lon="6.196320000000001">
    <ele>2096.23</ele>
   </trkpt>
   <trkpt lat="45.691480000000006" lon="6.196180000000001">
    <ele>2092.9</ele>
   </trkpt>
   <trkpt lat="45.691500000000005" lon="6.196160000000001">
    <ele>2092.9</ele>
   </trkpt>
   <trkpt lat="45.691570000000006" lon="6.1961900000000005">
    <ele>2090.84</ele>
   </trkpt>
   <trkpt lat="45.69162" lon="6.196180000000001">
    <ele>2089.89</ele>
   </trkpt>
   <trkpt lat="45.69171" lon="6.195950000000001">
    <ele>2086.3</ele>
   </trkpt>
   <trkpt lat="45.691770000000005" lon="6.19594">
    <ele>2085.3700000000003</ele>
   </trkpt>
   <trkpt lat="45.691810000000004" lon="6.19596">
    <ele>2083.39</ele>
   </trkpt>
   <trkpt lat="45.69182000000001" lon="6.195950000000001">
    <ele>2083.39</ele>
   </trkpt>
   <trkpt lat="45.69187" lon="6.195860000000001">
    <ele>2083.39</ele>
   </trkpt>
   <trkpt lat="45.691900000000004" lon="6.19573">
    <ele>2078.3</ele>
   </trkpt>
   <trkpt lat="45.69205" lon="6.19556">
    <ele>2076.14</ele>
   </trkpt>
   <trkpt lat="45.6921" lon="6.19542">
    <ele>2072.84</ele>
   </trkpt>
   <trkpt lat="45.692190000000004" lon="6.19531">
    <ele>2071.67</ele>
   </trkpt>
   <trkpt lat="45.692220000000006" lon="6.195200000000001">
    <ele>2066.6600000000003</ele>
   </trkpt>
   <trkpt lat="45.6923" lon="6.195150000000001">
    <ele>2064.3700000000003</ele>
   </trkpt>
   <trkpt lat="45.69234" lon="6.1950400000000005">
    <ele>2062.4500000000003</ele>
   </trkpt>
   <trkpt lat="45.69241" lon="6.194990000000001">
    <ele>2061.63</ele>
   </trkpt>
   <trkpt lat="45.69243" lon="6.19495">
    <ele>2060.9</ele>
   </trkpt>
   <trkpt lat="45.692660000000004" lon="6.194820000000001">
    <ele>2057.73</ele>
   </trkpt>
   <trkpt lat="45.692890000000006" lon="6.19477">
    <ele>2055.5600000000004</ele>
   </trkpt>
   <trkpt lat="45.69303" lon="6.194780000000001">
    <ele>2053.53</ele>
   </trkpt>
   <trkpt lat="45.69304" lon="6.19477">
    <ele>2053.53</ele>
   </trkpt>
   <trkpt lat="45.69348" lon="6.19486">
    <ele>2045.0500000000002</ele>
   </trkpt>
   <trkpt lat="45.69362" lon="6.19484">
    <ele>2043.5600000000002</ele>
   </trkpt>
   <trkpt lat="45.693740000000005" lon="6.19479">
    <ele>2040.74</ele>
   </trkpt>
   <trkpt lat="45.69407" lon="6.19453">
    <ele>2032.3800000000003</ele>
   </trkpt>
   <trkpt lat="45.69413" lon="6.19451">
    <ele>2032.3800000000003</ele>
   </trkpt>
   <trkpt lat="45.69408000000001" lon="6.19446">
    <ele>2030.3500000000004</ele>
   </trkpt>
   <trkpt lat="45.69388000000001" lon="6.194350000000001">
    <ele>2024.81</ele>
   </trkpt>
   <trkpt lat="45.693850000000005" lon="6.19434">
    <ele>2024.81</ele>
   </trkpt>
   <trkpt lat="45.693760000000005" lon="6.1943600000000005">
    <ele>2024.81</ele>
   </trkpt>
   <trkpt lat="45.693650000000005" lon="6.19434">
    <ele>2017.1499999999999</ele>
   </trkpt>
   <trkpt lat="45.69379000000001" lon="6.194210000000001">
    <ele>2014.8300000000004</ele>
   </trkpt>
   <trkpt lat="45.69384" lon="6.194140000000001">
    <ele>2012.3600000000001</ele>
   </trkpt>
   <trkpt lat="45.693920000000006" lon="6.1940800000000005">
    <ele>2011.1700000000003</ele>
   </trkpt>
   <trkpt lat="45.69406" lon="6.194030000000001">
    <ele>2005.7500000000002</ele>
   </trkpt>
   <trkpt lat="45.694120000000005" lon="6.193980000000001">
    <ele>2005.7500000000002</ele>
   </trkpt>
   <trkpt lat="45.69435000000001" lon="6.193910000000001">
    <ele>2001.6000000000001</ele>
   </trkpt>
   <trkpt lat="45.69449" lon="6.193890000000001">
    <ele>1996.3200000000002</ele>
   </trkpt>
   <trkpt lat="45.69453" lon="6.1939">
    <ele>1996.3200000000002</ele>
   </trkpt>
   <trkpt lat="45.69471" lon="6.19385">
    <ele>1989.88</ele>
   </trkpt>
   <trkpt lat="45.694630000000004" lon="6.19376">
    <ele>1989.88</ele>
   </trkpt>
   <trkpt lat="45.69462" lon="6.193720000000001">
    <ele>1987.66</ele>
   </trkpt>
   <trkpt lat="45.69426000000001" lon="6.19336">
    <ele>1975.27</ele>
   </trkpt>
   <trkpt lat="45.69442" lon="6.193320000000001">
    <ele>1975.27</ele>
   </trkpt>
   <trkpt lat="45.69454" lon="6.1933300000000004">
    <ele>1968.5</ele>
   </trkpt>
   <trkpt lat="45.69474" lon="6.193280000000001">
    <ele>1965.24</ele>
   </trkpt>
   <trkpt lat="45.6948" lon="6.19329">
    <ele>1965.24</ele>
   </trkpt>
   <trkpt lat="45.69485" lon="6.193250000000001">
    <ele>1960.97</ele>
   </trkpt>
   <trkpt lat="45.695" lon="6.193230000000001">
    <ele>1960.97</ele>
   </trkpt>
   <trkpt lat="45.69507" lon="6.19324">
    <ele>1955.4900000000002</ele>
   </trkpt>
   <trkpt lat="45.69516" lon="6.193280000000001">
    <ele>1955.4900000000002</ele>
   </trkpt>
   <trkpt lat="45.695060000000005" lon="6.193130000000001">
    <ele>1953.3500000000001</ele>
   </trkpt>
   <trkpt lat="45.694860000000006" lon="6.1930000000000005">
    <ele>1946.56</ele>
   </trkpt>
   <trkpt lat="45.69482000000001" lon="6.192900000000001">
    <ele>1945.75</ele>
   </trkpt>
   <trkpt lat="45.694750000000006" lon="6.192830000000001">
    <ele>1943.4</ele>
   </trkpt>
   <trkpt lat="45.694720000000004" lon="6.19282">
    <ele>1943.4</ele>
   </trkpt>
   <trkpt lat="45.69467" lon="6.19275">
    <ele>1941.7400000000002</ele>
   </trkpt>
   <trkpt lat="45.69454" lon="6.192710000000001">
    <ele>1938.23</ele>
   </trkpt>
   <trkpt lat="45.69444000000001" lon="6.192760000000001">
    <ele>1937.39</ele>
   </trkpt>
   <trkpt lat="45.694370000000006" lon="6.192760000000001">
    <ele>1937.39</ele>
   </trkpt>
   <trkpt lat="45.69424" lon="6.192740000000001">
    <ele>1933.3500000000001</ele>
   </trkpt>
   <trkpt lat="45.694140000000004" lon="6.192690000000001">
    <ele>1931.43</ele>
   </trkpt>
   <trkpt lat="45.69413" lon="6.192670000000001">
    <ele>1931.43</ele>
   </trkpt>
   <trkpt lat="45.69417000000001" lon="6.19265">
    <ele>1928.8400000000001</ele>
   </trkpt>
   <trkpt lat="45.69446000000001" lon="6.19226">
    <ele>1917.63</ele>
   </trkpt>
   <trkpt lat="45.69449" lon="6.19219">
    <ele>1916.4200000000003</ele>
   </trkpt>
   <trkpt lat="45.694500000000005" lon="6.1921100000000004">
    <ele>1912.97</ele>
   </trkpt>
   <trkpt lat="45.69455000000001" lon="6.192030000000001">
    <ele>1912.97</ele>
   </trkpt>
   <trkpt lat="45.69458" lon="6.19193">
    <ele>1910.7300000000002</ele>
   </trkpt>
   <trkpt lat="45.69465" lon="6.191870000000001">
    <ele>1908.5900000000001</ele>
   </trkpt>
   <trkpt lat="45.694700000000005" lon="6.19186">
    <ele>1907.5700000000002</ele>
   </trkpt>
   <trkpt lat="45.694790000000005" lon="6.1917800000000005">
    <ele>1905.63</ele>
   </trkpt>
   <trkpt lat="45.69482000000001" lon="6.1917100000000005">
    <ele>1905.63</ele>
   </trkpt>
   <trkpt lat="45.69487" lon="6.19167">
    <ele>1901.8700000000001</ele>
   </trkpt>
   <trkpt lat="45.69491000000001" lon="6.191520000000001">
    <ele>1900.8700000000001</ele>
   </trkpt>
   <trkpt lat="45.69496" lon="6.191420000000001">
    <ele>1899.8000000000002</ele>
   </trkpt>
   <trkpt lat="45.69501" lon="6.191350000000001">
    <ele>1896.3200000000002</ele>
   </trkpt>
   <trkpt lat="45.695130000000006" lon="6.1912400000000005">
    <ele>1893.3300000000002</ele>
   </trkpt>
   <trkpt lat="45.69523" lon="6.191090000000001">
    <ele>1891.64</ele>
   </trkpt>
   <trkpt lat="45.695510000000006" lon="6.191000000000001">
    <ele>1890.95</ele>
   </trkpt>
   <trkpt lat="45.69559" lon="6.19099">
    <ele>1890.95</ele>
   </trkpt>
   <trkpt lat="45.69586" lon="6.190860000000001">
    <ele>1890.2900000000002</ele>
   </trkpt>
   <trkpt lat="45.69601" lon="6.190880000000001">
    <ele>1889.2700000000002</ele>
   </trkpt>
   <trkpt lat="45.69612" lon="6.1908">
    <ele>1888.68</ele>
   </trkpt>
   <trkpt lat="45.69632000000001" lon="6.19078">
    <ele>1887.6800000000003</ele>
   </trkpt>
   <trkpt lat="45.696360000000006" lon="6.19073">
    <ele>1886.71</ele>
   </trkpt>
   <trkpt lat="45.69641" lon="6.19071">
    <ele>1886.3400000000001</ele>
   </trkpt>
   <trkpt lat="45.696560000000005" lon="6.19059">
    <ele>1884.2800000000002</ele>
   </trkpt>
   <trkpt lat="45.696540000000006" lon="6.190530000000001">
    <ele>1884.2800000000002</ele>
   </trkpt>
   <trkpt lat="45.69643000000001" lon="6.1904200000000005">
    <ele>1881.7700000000002</ele>
   </trkpt>
   <trkpt lat="45.69644" lon="6.190390000000001">
    <ele>1881.7700000000002</ele>
   </trkpt>
   <trkpt lat="45.696490000000004" lon="6.1904200000000005">
    <ele>1881.0900000000001</ele>
   </trkpt>
   <trkpt lat="45.69657" lon="6.190410000000001">
    <ele>1879.3700000000001</ele>
   </trkpt>
   <trkpt lat="45.696630000000006" lon="6.19043">
    <ele>1878.2</ele>
   </trkpt>
   <trkpt lat="45.696810000000006" lon="6.19057">
    <ele>1870.27</ele>
   </trkpt>
   <trkpt lat="45.696850000000005" lon="6.19054">
    <ele>1868.78</ele>
   </trkpt>
   <trkpt lat="45.69689" lon="6.19054">
    <ele>1868.78</ele>
   </trkpt>
   <trkpt lat="45.69695" lon="6.190510000000001">
    <ele>1864.5600000000002</ele>
   </trkpt>
   <trkpt lat="45.697070000000004" lon="6.19036">
    <ele>1858.3300000000002</ele>
   </trkpt>
   <trkpt lat="45.697320000000005" lon="6.19029">
    <ele>1850.1600000000003</ele>
   </trkpt>
   <trkpt lat="45.69736" lon="6.190250000000001">
    <ele>1850.1600000000003</ele>
   </trkpt>
   <trkpt lat="45.69746000000001" lon="6.190200000000001">
    <ele>1847.4</ele>
   </trkpt>
   <trkpt lat="45.69769" lon="6.1901600000000006">
    <ele>1842.39</ele>
   </trkpt>
   <trkpt lat="45.697970000000005" lon="6.18979">
    <ele>1837.8100000000002</ele>
   </trkpt>
   <trkpt lat="45.698010000000004" lon="6.189590000000001">
    <ele>1836.5900000000001</ele>
   </trkpt>
   <trkpt lat="45.698130000000006" lon="6.1895500000000006">
    <ele>1833.88</ele>
   </trkpt>
   <trkpt lat="45.698330000000006" lon="6.1893">
    <ele>1829.66</ele>
   </trkpt>
   <trkpt lat="45.698350000000005" lon="6.18923">
    <ele>1826.88</ele>
   </trkpt>
   <trkpt lat="45.69854" lon="6.189120000000001">
    <ele>1822.9400000000003</ele>
   </trkpt>
   <trkpt lat="45.698660000000004" lon="6.18909">
    <ele>1820.8200000000002</ele>
   </trkpt>
   <trkpt lat="45.698930000000004" lon="6.18914">
    <ele>1817.49</ele>
   </trkpt>
   <trkpt lat="45.69899" lon="6.189170000000001">
    <ele>1817.49</ele>
   </trkpt>
   <trkpt lat="45.699130000000004" lon="6.189170000000001">
    <ele>1813.8700000000001</ele>
   </trkpt>
   <trkpt lat="45.69924" lon="6.189220000000001">
    <ele>1813.29</ele>
   </trkpt>
   <trkpt lat="45.69939" lon="6.189220000000001">
    <ele>1811.73</ele>
   </trkpt>
   <trkpt lat="45.6995" lon="6.18925">
    <ele>1809.71</ele>
   </trkpt>
   <trkpt lat="45.69959" lon="6.18925">
    <ele>1808.2600000000002</ele>
   </trkpt>
   <trkpt lat="45.69971" lon="6.1893">
    <ele>1804.4700000000003</ele>
   </trkpt>
   <trkpt lat="45.69979000000001" lon="6.1893">
    <ele>1804.4700000000003</ele>
   </trkpt>
   <trkpt lat="45.7" lon="6.1894100000000005">
    <ele>1800.19</ele>
   </trkpt>
   <trkpt lat="45.70027" lon="6.189430000000001">
    <ele>1796.0800000000002</ele>
   </trkpt>
   <trkpt lat="45.70044" lon="6.18949">
    <ele>1794.21</ele>
   </trkpt>
   <trkpt lat="45.70058" lon="6.189620000000001">
    <ele>1793.26</ele>
   </trkpt>
   <trkpt lat="45.70073000000001" lon="6.18968">
    <ele>1793.22</ele>
   </trkpt>
   <trkpt lat="45.70094" lon="6.189640000000001">
    <ele>1792.3600000000001</ele>
   </trkpt>
   <trkpt lat="45.701" lon="6.189660000000001">
    <ele>1791.4800000000002</ele>
   </trkpt>
   <trkpt lat="45.70116" lon="6.189830000000001">
    <ele>1788.97</ele>
   </trkpt>
   <trkpt lat="45.701280000000004" lon="6.18993">
    <ele>1787.74</ele>
   </trkpt>
   <trkpt lat="45.70132" lon="6.18993">
    <ele>1787.7200000000003</ele>
   </trkpt>
   <trkpt lat="45.70131000000001" lon="6.18984">
    <ele>1787.97</ele>
   </trkpt>
   <trkpt lat="45.70138" lon="6.18975">
    <ele>1790.2700000000002</ele>
   </trkpt>
   <trkpt lat="45.70161" lon="6.18975">
    <ele>1794.5600000000002</ele>
   </trkpt>
   <trkpt lat="45.70167000000001" lon="6.18965">
    <ele>1795.4800000000002</ele>
   </trkpt>
   <trkpt lat="45.7017" lon="6.18965">
    <ele>1795.4800000000002</ele>
   </trkpt>
   <trkpt lat="45.70172" lon="6.189570000000001">
    <ele>1796.67</ele>
   </trkpt>
   <trkpt lat="45.70176000000001" lon="6.189590000000001">
    <ele>1797.3700000000001</ele>
   </trkpt>
   <trkpt lat="45.70179" lon="6.189540000000001">
    <ele>1798.18</ele>
   </trkpt>
   <trkpt lat="45.701840000000004" lon="6.18956">
    <ele>1799.13</ele>
   </trkpt>
   <trkpt lat="45.70185" lon="6.18951">
    <ele>1800.24</ele>
   </trkpt>
   <trkpt lat="45.70187000000001" lon="6.189520000000001">
    <ele>1800.24</ele>
   </trkpt>
   <trkpt lat="45.70192" lon="6.189500000000001">
    <ele>1801.5</ele>
   </trkpt>
   <trkpt lat="45.701950000000004" lon="6.18946">
    <ele>1804.2300000000002</ele>
   </trkpt>
   <trkpt lat="45.70196000000001" lon="6.1894800000000005">
    <ele>1804.2300000000002</ele>
   </trkpt>
   <trkpt lat="45.70199" lon="6.189450000000001">
    <ele>1804.2300000000002</ele>
   </trkpt>
   <trkpt lat="45.70208" lon="6.189470000000001">
    <ele>1809.91</ele>
   </trkpt>
   <trkpt lat="45.702130000000004" lon="6.18944">
    <ele>1809.91</ele>
   </trkpt>
   <trkpt lat="45.702180000000006" lon="6.18944">
    <ele>1812.88</ele>
   </trkpt>
   <trkpt lat="45.702180000000006" lon="6.1894100000000005">
    <ele>1812.88</ele>
   </trkpt>
   <trkpt lat="45.70233" lon="6.18937">
    <ele>1814.42</ele>
   </trkpt>
   <trkpt lat="45.70235" lon="6.189310000000001">
    <ele>1820.8000000000002</ele>
   </trkpt>
   <trkpt lat="45.70237" lon="6.18932">
    <ele>1820.8000000000002</ele>
   </trkpt>
   <trkpt lat="45.702400000000004" lon="6.18928">
    <ele>1820.8000000000002</ele>
   </trkpt>
   <trkpt lat="45.70246" lon="6.1893">
    <ele>1823.7800000000002</ele>
   </trkpt>
   <trkpt lat="45.702490000000004" lon="6.18928">
    <ele>1823.7800000000002</ele>
   </trkpt>
   <trkpt lat="45.70259" lon="6.18932">
    <ele>1827.89</ele>
   </trkpt>
   <trkpt lat="45.70317000000001" lon="6.189430000000001">
    <ele>1840.27</ele>
   </trkpt>
   <trkpt lat="45.7034" lon="6.18951">
    <ele>1842.0800000000002</ele>
   </trkpt>
   <trkpt lat="45.703700000000005" lon="6.18965">
    <ele>1841.8600000000001</ele>
   </trkpt>
   <trkpt lat="45.70387" lon="6.189780000000001">
    <ele>1844.1000000000001</ele>
   </trkpt>
   <trkpt lat="45.704080000000005" lon="6.189870000000001">
    <ele>1853.8900000000003</ele>
   </trkpt>
   <trkpt lat="45.704190000000004" lon="6.18984">
    <ele>1856.5000000000002</ele>
   </trkpt>
   <trkpt lat="45.70423" lon="6.189850000000001">
    <ele>1857.5900000000001</ele>
   </trkpt>
   <trkpt lat="45.704280000000004" lon="6.189830000000001">
    <ele>1858.5800000000002</ele>
   </trkpt>
   <trkpt lat="45.70465" lon="6.18975">
    <ele>1864.98</ele>
   </trkpt>
   <trkpt lat="45.705470000000005" lon="6.18972">
    <ele>1851.65</ele>
   </trkpt>
   <trkpt lat="45.70584" lon="6.189780000000001">
    <ele>1846.51</ele>
   </trkpt>
   <trkpt lat="45.70619000000001" lon="6.18991">
    <ele>1842.24</ele>
   </trkpt>
   <trkpt lat="45.70633" lon="6.189940000000001">
    <ele>1839.3000000000002</ele>
   </trkpt>
   <trkpt lat="45.7066" lon="6.189920000000001">
    <ele>1837.25</ele>
   </trkpt>
   <trkpt lat="45.707170000000005" lon="6.18977">
    <ele>1834.2800000000002</ele>
   </trkpt>
   <trkpt lat="45.707280000000004" lon="6.189710000000001">
    <ele>1833.66</ele>
   </trkpt>
   <trkpt lat="45.70758000000001" lon="6.189590000000001">
    <ele>1832.95</ele>
   </trkpt>
   <trkpt lat="45.707980000000006" lon="6.189360000000001">
    <ele>1833.0400000000002</ele>
   </trkpt>
   <trkpt lat="45.708130000000004" lon="6.18925">
    <ele>1833.25</ele>
   </trkpt>
   <trkpt lat="45.70823" lon="6.1891300000000005">
    <ele>1833.44</ele>
   </trkpt>
   <trkpt lat="45.7083" lon="6.189120000000001">
    <ele>1833.8</ele>
   </trkpt>
   <trkpt lat="45.70837" lon="6.189120000000001">
    <ele>1833.8</ele>
   </trkpt>
   <trkpt lat="45.708470000000005" lon="6.18916">
    <ele>1834.3700000000001</ele>
   </trkpt>
   <trkpt lat="45.70861000000001" lon="6.18928">
    <ele>1834.5300000000002</ele>
   </trkpt>
   <trkpt lat="45.70873" lon="6.189450000000001">
    <ele>1833.92</ele>
   </trkpt>
   <trkpt lat="45.70882" lon="6.189520000000001">
    <ele>1832.66</ele>
   </trkpt>
   <trkpt lat="45.70891" lon="6.189540000000001">
    <ele>1831.3400000000001</ele>
   </trkpt>
   <trkpt lat="45.70902" lon="6.189500000000001">
    <ele>1830.5500000000002</ele>
   </trkpt>
   <trkpt lat="45.70926" lon="6.189520000000001">
    <ele>1825.56</ele>
   </trkpt>
   <trkpt lat="45.70938" lon="6.18958">
    <ele>1823.66</ele>
   </trkpt>
   <trkpt lat="45.70949" lon="6.189590000000001">
    <ele>1823.3300000000002</ele>
   </trkpt>
   <trkpt lat="45.70962" lon="6.18965">
    <ele>1824.2</ele>
   </trkpt>
   <trkpt lat="45.70971" lon="6.1896700000000004">
    <ele>1824.71</ele>
   </trkpt>
   <trkpt lat="45.70975000000001" lon="6.18965">
    <ele>1824.6700000000003</ele>
   </trkpt>
   <trkpt lat="45.70976" lon="6.189590000000001">
    <ele>1824.38</ele>
   </trkpt>
   <trkpt lat="45.709680000000006" lon="6.189380000000001">
    <ele>1822.71</ele>
   </trkpt>
   <trkpt lat="45.709680000000006" lon="6.189330000000001">
    <ele>1822.15</ele>
   </trkpt>
   <trkpt lat="45.70973" lon="6.189330000000001">
    <ele>1821.65</ele>
   </trkpt>
   <trkpt lat="45.70985" lon="6.18939">
    <ele>1818.0600000000002</ele>
   </trkpt>
   <trkpt lat="45.709920000000004" lon="6.18939">
    <ele>1816.3500000000001</ele>
   </trkpt>
   <trkpt lat="45.70993000000001" lon="6.18935">
    <ele>1816.3500000000001</ele>
   </trkpt>
   <trkpt lat="45.70989" lon="6.189310000000001">
    <ele>1811.0000000000002</ele>
   </trkpt>
   <trkpt lat="45.70989" lon="6.1892700000000005">
    <ele>1811.0000000000002</ele>
   </trkpt>
   <trkpt lat="45.710080000000005" lon="6.18923">
    <ele>1804.65</ele>
   </trkpt>
   <trkpt lat="45.710080000000005" lon="6.18921">
    <ele>1804.65</ele>
   </trkpt>
   <trkpt lat="45.710010000000004" lon="6.18916">
    <ele>1801.2</ele>
   </trkpt>
   <trkpt lat="45.71002000000001" lon="6.18914">
    <ele>1801.2</ele>
   </trkpt>
   <trkpt lat="45.710240000000006" lon="6.18914">
    <ele>1790.5600000000002</ele>
   </trkpt>
   <trkpt lat="45.71036" lon="6.18909">
    <ele>1787.3700000000001</ele>
   </trkpt>
   <trkpt lat="45.710980000000006" lon="6.18892">
    <ele>1765.48</ele>
   </trkpt>
   <trkpt lat="45.711200000000005" lon="6.188720000000001">
    <ele>1757.41</ele>
   </trkpt>
   <trkpt lat="45.711380000000005" lon="6.188650000000001">
    <ele>1753.81</ele>
   </trkpt>
   <trkpt lat="45.71144" lon="6.18864">
    <ele>1742.2600000000002</ele>
   </trkpt>
   <trkpt lat="45.71146" lon="6.1886">
    <ele>1741.42</ele>
   </trkpt>
   <trkpt lat="45.711400000000005" lon="6.18857">
    <ele>1740.22</ele>
   </trkpt>
   <trkpt lat="45.71115" lon="6.1886">
    <ele>1733.3500000000001</ele>
   </trkpt>
   <trkpt lat="45.710860000000004" lon="6.1885900000000005">
    <ele>1726.25</ele>
   </trkpt>
   <trkpt lat="45.71083" lon="6.188560000000001">
    <ele>1726.25</ele>
   </trkpt>
   <trkpt lat="45.71099" lon="6.18838">
    <ele>1721.1000000000001</ele>
   </trkpt>
   <trkpt lat="45.711510000000004" lon="6.1879100000000005">
    <ele>1700.66</ele>
   </trkpt>
   <trkpt lat="45.71215" lon="6.18754">
    <ele>1683.64</ele>
   </trkpt>
   <trkpt lat="45.71213" lon="6.187500000000001">
    <ele>1683.64</ele>
   </trkpt>
   <trkpt lat="45.71195" lon="6.1874400000000005">
    <ele>1675.66</ele>
   </trkpt>
   <trkpt lat="45.71173" lon="6.18733">
    <ele>1671.7700000000002</ele>
   </trkpt>
   <trkpt lat="45.71157" lon="6.18731">
    <ele>1668.1800000000003</ele>
   </trkpt>
   <trkpt lat="45.71162" lon="6.18721">
    <ele>1664.3300000000002</ele>
   </trkpt>
   <trkpt lat="45.71172000000001" lon="6.18714">
    <ele>1660.66</ele>
   </trkpt>
   <trkpt lat="45.711740000000006" lon="6.187100000000001">
    <ele>1660.66</ele>
   </trkpt>
   <trkpt lat="45.71173" lon="6.187080000000001">
    <ele>1660.66</ele>
   </trkpt>
   <trkpt lat="45.71154000000001" lon="6.18705">
    <ele>1656.6600000000003</ele>
   </trkpt>
   <trkpt lat="45.711510000000004" lon="6.18702">
    <ele>1651.0200000000002</ele>
   </trkpt>
   <trkpt lat="45.711580000000005" lon="6.18684">
    <ele>1649.68</ele>
   </trkpt>
   <trkpt lat="45.711670000000005" lon="6.1867600000000005">
    <ele>1645.8400000000001</ele>
   </trkpt>
   <trkpt lat="45.711670000000005" lon="6.1867">
    <ele>1645.8400000000001</ele>
   </trkpt>
   <trkpt lat="45.71148" lon="6.186640000000001">
    <ele>1638.77</ele>
   </trkpt>
   <trkpt lat="45.71139" lon="6.186590000000001">
    <ele>1632.4</ele>
   </trkpt>
   <trkpt lat="45.711270000000006" lon="6.186490000000001">
    <ele>1630.89</ele>
   </trkpt>
   <trkpt lat="45.71117" lon="6.18644">
    <ele>1626.8600000000001</ele>
   </trkpt>
   <trkpt lat="45.71052" lon="6.186310000000001">
    <ele>1608.1000000000001</ele>
   </trkpt>
   <trkpt lat="45.71041" lon="6.186310000000001">
    <ele>1606.9700000000003</ele>
   </trkpt>
   <trkpt lat="45.710440000000006" lon="6.186240000000001">
    <ele>1605.91</ele>
   </trkpt>
   <trkpt lat="45.71059" lon="6.186050000000001">
    <ele>1600.66</ele>
   </trkpt>
   <trkpt lat="45.71078000000001" lon="6.185840000000001">
    <ele>1591.7500000000002</ele>
   </trkpt>
   <trkpt lat="45.710890000000006" lon="6.185770000000001">
    <ele>1591.7500000000002</ele>
   </trkpt>
   <trkpt lat="45.71105000000001" lon="6.18559">
    <ele>1586.0400000000002</ele>
   </trkpt>
   <trkpt lat="45.711040000000004" lon="6.185510000000001">
    <ele>1581.26</ele>
   </trkpt>
   <trkpt lat="45.71074" lon="6.18541">
    <ele>1572.8300000000002</ele>
   </trkpt>
   <trkpt lat="45.71069000000001" lon="6.185370000000001">
    <ele>1570.4600000000003</ele>
   </trkpt>
   <trkpt lat="45.71072" lon="6.1852800000000006">
    <ele>1569.4500000000003</ele>
   </trkpt>
   <trkpt lat="45.71088" lon="6.18515">
    <ele>1565.8700000000001</ele>
   </trkpt>
   <trkpt lat="45.71096000000001" lon="6.18503">
    <ele>1562.51</ele>
   </trkpt>
   <trkpt lat="45.71103" lon="6.18498">
    <ele>1559.6000000000001</ele>
   </trkpt>
   <trkpt lat="45.71105000000001" lon="6.1849300000000005">
    <ele>1559.6000000000001</ele>
   </trkpt>
   <trkpt lat="45.711040000000004" lon="6.184880000000001">
    <ele>1556.42</ele>
   </trkpt>
   <trkpt lat="45.710770000000004" lon="6.184810000000001">
    <ele>1547.8100000000002</ele>
   </trkpt>
   <trkpt lat="45.710370000000005" lon="6.184640000000001">
    <ele>1539.0800000000002</ele>
   </trkpt>
   <trkpt lat="45.71025" lon="6.18458">
    <ele>1533.77</ele>
   </trkpt>
   <trkpt lat="45.71022000000001" lon="6.184500000000001">
    <ele>1531.19</ele>
   </trkpt>
   <trkpt lat="45.71022000000001" lon="6.18444">
    <ele>1529.97</ele>
   </trkpt>
   <trkpt lat="45.71025" lon="6.184380000000001">
    <ele>1528.8100000000002</ele>
   </trkpt>
   <trkpt lat="45.710570000000004" lon="6.18409">
    <ele>1519.53</ele>
   </trkpt>
   <trkpt lat="45.71059" lon="6.18402">
    <ele>1518.42</ele>
   </trkpt>
   <trkpt lat="45.710570000000004" lon="6.183940000000001">
    <ele>1517.19</ele>
   </trkpt>
   <trkpt lat="45.7105" lon="6.18386">
    <ele>1514.3300000000002</ele>
   </trkpt>
   <trkpt lat="45.71027" lon="6.18369">
    <ele>1506.48</ele>
   </trkpt>
   <trkpt lat="45.71003" lon="6.1835700000000005">
    <ele>1500.64</ele>
   </trkpt>
   <trkpt lat="45.709830000000004" lon="6.183490000000001">
    <ele>1490.16</ele>
   </trkpt>
   <trkpt lat="45.70937000000001" lon="6.183450000000001">
    <ele>1475.23</ele>
   </trkpt>
   <trkpt lat="45.709250000000004" lon="6.183350000000001">
    <ele>1472.89</ele>
   </trkpt>
   <trkpt lat="45.70918" lon="6.183210000000001">
    <ele>1469.5200000000002</ele>
   </trkpt>
   <trkpt lat="45.708980000000004" lon="6.18325">
    <ele>1464.3400000000001</ele>
   </trkpt>
   <trkpt lat="45.70888" lon="6.183190000000001">
    <ele>1463.2900000000002</ele>
   </trkpt>
   <trkpt lat="45.708760000000005" lon="6.18304">
    <ele>1458.97</ele>
   </trkpt>
   <trkpt lat="45.708490000000005" lon="6.18297">
    <ele>1454.15</ele>
   </trkpt>
   <trkpt lat="45.708330000000004" lon="6.182860000000001">
    <ele>1451.15</ele>
   </trkpt>
   <trkpt lat="45.708220000000004" lon="6.182910000000001">
    <ele>1446.83</ele>
   </trkpt>
   <trkpt lat="45.7081" lon="6.182860000000001">
    <ele>1444.8700000000001</ele>
   </trkpt>
   <trkpt lat="45.70788" lon="6.18285">
    <ele>1440.0900000000001</ele>
   </trkpt>
   <trkpt lat="45.70787000000001" lon="6.182740000000001">
    <ele>1437.84</ele>
   </trkpt>
   <trkpt lat="45.70774" lon="6.182720000000001">
    <ele>1434.76</ele>
   </trkpt>
   <trkpt lat="45.7077" lon="6.182370000000001">
    <ele>1422.25</ele>
   </trkpt>
   <trkpt lat="45.707820000000005" lon="6.182080000000001">
    <ele>1413.51</ele>
   </trkpt>
   <trkpt lat="45.707890000000006" lon="6.18198">
    <ele>1412.1000000000001</ele>
   </trkpt>
   <trkpt lat="45.70794" lon="6.181780000000001">
    <ele>1409.52</ele>
   </trkpt>
   <trkpt lat="45.707950000000004" lon="6.181620000000001">
    <ele>1405.99</ele>
   </trkpt>
   <trkpt lat="45.708040000000004" lon="6.181400000000001">
    <ele>1399.43</ele>
   </trkpt>
   <trkpt lat="45.708000000000006" lon="6.181310000000001">
    <ele>1397.93</ele>
   </trkpt>
   <trkpt lat="45.707910000000005" lon="6.181330000000001">
    <ele>1396.32</ele>
   </trkpt>
   <trkpt lat="45.70787000000001" lon="6.18118">
    <ele>1389.34</ele>
   </trkpt>
   <trkpt lat="45.707890000000006" lon="6.18106">
    <ele>1387.73</ele>
   </trkpt>
   <trkpt lat="45.708000000000006" lon="6.180860000000001">
    <ele>1382.18</ele>
   </trkpt>
   <trkpt lat="45.70801" lon="6.180680000000001">
    <ele>1378.8500000000001</ele>
   </trkpt>
   <trkpt lat="45.70806" lon="6.180440000000001">
    <ele>1375.31</ele>
   </trkpt>
   <trkpt lat="45.70812" lon="6.180390000000001">
    <ele>1374.6100000000001</ele>
   </trkpt>
   <trkpt lat="45.70814" lon="6.1802600000000005">
    <ele>1372.3400000000001</ele>
   </trkpt>
   <trkpt lat="45.70819" lon="6.1802">
    <ele>1372.3400000000001</ele>
   </trkpt>
   <trkpt lat="45.708180000000006" lon="6.180110000000001">
    <ele>1371.64</ele>
   </trkpt>
   <trkpt lat="45.708070000000006" lon="6.1797200000000005">
    <ele>1366.06</ele>
   </trkpt>
   <trkpt lat="45.707890000000006" lon="6.17949">
    <ele>1353.97</ele>
   </trkpt>
   <trkpt lat="45.70788" lon="6.1793000000000005">
    <ele>1353.97</ele>
   </trkpt>
   <trkpt lat="45.70783" lon="6.17924">
    <ele>1350.97</ele>
   </trkpt>
   <trkpt lat="45.70779" lon="6.17914">
    <ele>1350.97</ele>
   </trkpt>
   <trkpt lat="45.707620000000006" lon="6.178920000000001">
    <ele>1345.44</ele>
   </trkpt>
   <trkpt lat="45.70759" lon="6.17886">
    <ele>1334.1200000000001</ele>
   </trkpt>
   <trkpt lat="45.707570000000004" lon="6.17874">
    <ele>1334.1200000000001</ele>
   </trkpt>
   <trkpt lat="45.70740000000001" lon="6.178350000000001">
    <ele>1327.3799999999999</ele>
   </trkpt>
   <trkpt lat="45.707370000000004" lon="6.178210000000001">
    <ele>1327.3799999999999</ele>
   </trkpt>
   <trkpt lat="45.70722000000001" lon="6.1778200000000005">
    <ele>1316.03</ele>
   </trkpt>
   <trkpt lat="45.70698" lon="6.17703">
    <ele>1302.48</ele>
   </trkpt>
   <trkpt lat="45.706880000000005" lon="6.17665">
    <ele>1295.39</ele>
   </trkpt>
   <trkpt lat="45.70675000000001" lon="6.17637">
    <ele>1292.0</ele>
   </trkpt>
   <trkpt lat="45.70655000000001" lon="6.175800000000001">
    <ele>1281.7800000000002</ele>
   </trkpt>
   <trkpt lat="45.706520000000005" lon="6.175490000000001">
    <ele>1277.47</ele>
   </trkpt>
   <trkpt lat="45.706500000000005" lon="6.17492">
    <ele>1266.4700000000003</ele>
   </trkpt>
   <trkpt lat="45.70656" lon="6.174600000000001">
    <ele>1258.3300000000002</ele>
   </trkpt>
   <trkpt lat="45.706570000000006" lon="6.17431">
    <ele>1255.83</ele>
   </trkpt>
   <trkpt lat="45.706520000000005" lon="6.17424">
    <ele>1253.19</ele>
   </trkpt>
   <trkpt lat="45.70651" lon="6.17417">
    <ele>1251.8100000000002</ele>
   </trkpt>
   <trkpt lat="45.70653" lon="6.173900000000001">
    <ele>1245.3</ele>
   </trkpt>
   <trkpt lat="45.706500000000005" lon="6.173850000000001">
    <ele>1241.6100000000001</ele>
   </trkpt>
   <trkpt lat="45.706430000000005" lon="6.1738100000000005">
    <ele>1239.8600000000001</ele>
   </trkpt>
   <trkpt lat="45.706410000000005" lon="6.17311">
    <ele>1224.3300000000002</ele>
   </trkpt>
   <trkpt lat="45.70628000000001" lon="6.17292">
    <ele>1219.2500000000002</ele>
   </trkpt>
   <trkpt lat="45.7062" lon="6.172860000000001">
    <ele>1217.21</ele>
   </trkpt>
   <trkpt lat="45.70613" lon="6.172750000000001">
    <ele>1215.48</ele>
   </trkpt>
   <trkpt lat="45.70611" lon="6.172680000000001">
    <ele>1213.0700000000002</ele>
   </trkpt>
   <trkpt lat="45.70591" lon="6.172560000000001">
    <ele>1209.2</ele>
   </trkpt>
   <trkpt lat="45.7058" lon="6.172470000000001">
    <ele>1205.7</ele>
   </trkpt>
   <trkpt lat="45.70577" lon="6.172370000000001">
    <ele>1204.5800000000002</ele>
   </trkpt>
   <trkpt lat="45.705760000000005" lon="6.17215">
    <ele>1201.78</ele>
   </trkpt>
  </trkseg>
 </trk>
</gpx>
